lon,lat,number,street,unit,city,district,region,postcode,id,hash,tz
-104.9987893,39.772752,4055,N Inca St,Unit 401,,,,,,ae67926c4fea7cba,America/Denver
-104.9831358,39.7727529,3459,Ringsby Ct,Ste 307,,,,,,6ca62cbaf0561e76,America/Denver
-104.9143755,39.6728947,6360,E Wesley Ave,,,,,,,c715ecfba1953459,America/Denver
-104.9137822,39.6729027,6420,E Wesley Ave,,,,,,,0af530f323b13f5d,America/Denver
-105.0047564,39.6955747,1160,S Osage St,,,,,,,58862ba8c590a926,America/Denver
-104.9545666,39.7418442,1588,N Detroit St,Unit 2,,,,,,6861727fc85d27ce,America/Denver
-104.772006,39.7728308,4172,N Tower Rd,,,,,,,4592469bc63e0c81,America/Denver
-104.9808846,39.7683259,3310,N Brighton Blvd,Ste 120,,,,,,78cf4d9706b9b138,America/Denver
-104.9545664,39.7418634,1588,N Detroit St,Unit 1,,,,,,b701d209b0d390ea,America/Denver
-104.7666988,39.7985924,5650,N Argonne St,Unit 5-207,,,,,,bccd3b3c7ada1b9b,America/Denver
-104.7664072,39.7992577,5650,N Argonne St,Unit 6-201,,,,,,fa79c075179905e1,America/Denver
-104.7788812,39.7975586,17900,E 56th Ave,Unit 2-313,,,,,,aaeb0d820d37625e,America/Denver
-104.7675786,39.7988669,5650,N Argonne St,Unit 3-308,,,,,,490254db36869071,America/Denver
-104.7630172,39.8048369,5959,N Dunkirk St,Unit 10-103,,,,,,306d63ce4049f3d3,America/Denver
-104.7672333,39.7992162,5650,N Argonne St,Unit 4-107,,,,,,01c12ea5d3487099,America/Denver
-104.9385873,39.7731748,4089,E 40th Ave,,,,,,,030063d5ee86b4ce,America/Denver
-104.7661975,39.7992262,5650,N Argonne St,Unit 6-103,,,,,,102f1a90d0377779,America/Denver
-104.7650589,39.7998725,5650,N Argonne St,Unit 9-304,,,,,,fdb77c7058112137,America/Denver
-104.7650195,39.7998997,5650,N Argonne St,Unit 9-303,,,,,,41e4893e9c696113,America/Denver
-104.7664562,39.7986513,5650,N Argonne St,Unit 5-303,,,,,,d27ec4efebefea92,America/Denver
-104.7649363,39.7986748,5650,N Argonne St,Unit 8-111,,,,,,32d4fe41baa7917f,America/Denver
-104.7654697,39.7987165,5650,N Argonne St,Unit 7-200,,,,,,5ea87f0348a20acb,America/Denver
-104.7671942,39.79887,5650,N Argonne St,Unit 4-201,,,,,,bb32e860fb9ad35a,America/Denver
-104.7788889,39.7971633,17900,E 56th Ave,Unit 2-218,,,,,,a659f59e92e9e6d1,America/Denver
-104.767577,39.7990179,5650,N Argonne St,Unit 3-204,,,,,,c3d379684a71398b,America/Denver
-104.7650198,39.7998722,5650,N Argonne St,Unit 9-105,,,,,,7dbc0820ef14cf2e,America/Denver
-104.7676213,39.7992104,5650,N Argonne St,Unit 3-200,,,,,,50ac26cb7a3906d6,America/Denver
-104.7664488,39.7986815,5650,N Argonne St,Unit 5-302,,,,,,0d941b7b8e83ead2,America/Denver
-104.7787093,39.7980077,17900,E 56th Ave,Unit 1-116,,,,,,868c56494c628d81,America/Denver
-104.7629421,39.8048721,5959,N Dunkirk St,Unit 10-302,,,,,,322133e12b00715c,America/Denver
-104.7656693,39.7986821,5650,N Argonne St,Unit 7-202,,,,,,39d33fd99f042adb,America/Denver
-104.9985518,39.7726384,4055,N Inca St,Unit 510,,,,,,f7ca9fa35c4d1f2f,America/Denver
-104.999078,39.7721767,4055,N Inca St,Unit 560,,,,,,0e0af61225225a29,America/Denver
-104.998982,39.7721763,4055,N Inca St,Unit 656,,,,,,e16832b31cd0141c,America/Denver
-104.9985497,39.7719383,4055,N Inca St,Unit 638,,,,,,2c7a58e72f57d7ab,America/Denver
-104.9991003,39.7720478,4055,N Inca St,Unit 668,,,,,,3c8c4f7e652bc9fb,America/Denver
-104.9985474,39.7722568,4055,N Inca St,Unit 524,,,,,,2e8352f8ebd3ea70,America/Denver
-104.9827067,39.7581051,2600,Lawrence St,Util 3,,,,,,7c3d5cde044105ca,America/Denver
-104.9990567,39.7721793,4055,N Inca St,Unit 558,,,,,,1ea1f426392c2380,America/Denver
-105.025588,39.7513293,3009,W 23rd Ave,,,,,,,fff4888187db1824,America/Denver
-104.9841742,39.6891638,238,E Florida Ave,,,,,,,244fa2f979b39dcd,America/Denver
-104.969755,39.7695281,3907,N Humboldt St,,,,,,,650b6621a7c18823,America/Denver
-105.0254125,39.7515126,2311,N Federal Blvd,,,,,,,a69d556d628000f7,America/Denver
-104.9664122,39.7371217,1313,N Williams St,Apt 1106,,,,,,a683247cbb3814d1,America/Denver
-104.929589,39.7317522,927,N Elm St,,,,,,,a20e33aa767a9598,America/Denver
-104.9301178,39.7318838,936,N Eudora St,Unit 202,,,,,,d90839bfbb841154,America/Denver
-104.9663439,39.7372203,1313,N Williams St,Apt 303,,,,,,b5b467a6a5ace099,America/Denver
-104.9663613,39.7372697,1313,N Williams St,Apt 1102,,,,,,784f1f44e71297f3,America/Denver
-104.968728,39.7379366,1355,N Franklin St,Apt 6,,,,,,d98a74f13d296520,America/Denver
-104.9663347,39.7370308,1313,N Williams St,Apt 705,,,,,,ba1f3caa52faac92,America/Denver
-104.9663375,39.7371187,1313,N Williams St,Apt 1603,,,,,,8b2a9c56f6ad9b6f,America/Denver
-104.883809,39.7834014,9044,E 48th Ave,Unit 4-203,,,,,,2d1385644650a2f5,America/Denver
-104.8845885,39.7841769,8906,E 48th Ave,Unit 10-201,,,,,,d8f5b8a3667ea7d6,America/Denver
-104.8847299,39.7830713,8945,E 47th Ave,Unit 14-102,,,,,,2a1649624460695d,America/Denver
-104.9921534,39.6697589,2588,S Delaware St,,,,,,,d406d4df1145e8c6,America/Denver
-104.8842065,39.783107,8975,E 47th Ave,Unit 13-202,,,,,,9611f6f3df7479a1,America/Denver
-104.8842631,39.7839528,8976,E 48th Ave,Unit 207,,,,,,3d0163d406147597,America/Denver
-104.8846634,39.7829419,8945,E 47th Ave,Unit 14-204,,,,,,062e1bfaa7910477,America/Denver
-104.8847138,39.7832799,8936,E 48th Ave,Unit 12-202,,,,,,4df28eacf06e1619,America/Denver
-104.8842631,39.7839528,8976,E 48th Ave,Unit 307,,,,,,3e9bd35a044f19c5,America/Denver
-104.883809,39.7834014,9044,E 48th Ave,Unit 4-303,,,,,,fb2ad8a642efbf1d,America/Denver
-104.8832374,39.78406,9094,E 48th Ave,Unit 1-103,,,,,,2e76fd405cc0e21f,America/Denver
-104.9690861,39.7380727,1372,N Humboldt St,,,,,,,5e09fc91dd00f4a6,America/Denver
-104.8833288,39.7833769,9064,E 48th Ave,Unit 3-308,,,,,,a013a104c1b9086a,America/Denver
-104.9779034,39.7028846,754,S Clarkson St,,,,,,,23bf113fd3e20ad8,America/Denver
-104.9880409,39.7056443,601,S Broadway,# 1,,,,,,19dbac04942057d9,America/Denver
-104.7677101,39.8070568,6025,N Ceylon St,Bldg 7,,,,,,b25f09ff4e250ecd,America/Denver
-104.6745236,39.8738498,9725,N Riverwood St,Unit B,,,,,,7ce4ef84ab224f77,America/Denver
-105.0157753,39.7662921,3530,N Zuni St,,,,,,,dc680b9d8693da8e,America/Denver
-104.767137,39.8063807,6025,N Ceylon St,Bldg 3,,,,,,b98cb48afb5b1fc5,America/Denver
-105.0216079,39.7810908,4648,N Decatur St,,,,,,,0d180b8b1599924b,America/Denver
-104.7658935,39.8058266,6025,N Ceylon St,Bldg 1,,,,,,e2decd4f6916f5c6,America/Denver
-104.7663425,39.8067903,6025,N Ceylon St,Bldg 9,,,,,,a82c5298cd8845aa,America/Denver
-105.0531825,39.7223925,402,N Sheridan Blvd,,,,,,,72deeadc82ac725e,America/Denver
-104.9891953,39.7052512,655,S Broadway,# 1,,,,,,a2d38f80c55fcdb1,America/Denver
-104.9892048,39.7049246,675,S Broadway,# 1,,,,,,867fb69fb40226b8,America/Denver
-104.9119918,39.7114821,6523,E Alameda Ave,,,,,,,c625a88c71f8a728,America/Denver
-104.9873491,39.6850295,1736,S Broadway,,,,,,,1aadfe84f3f76f02,America/Denver
-104.7676391,39.8067023,6025,N Ceylon St,Bldg 4,,,,,,d10ddfc8c9425e68,America/Denver
-104.7683296,39.8070415,6025,N Ceylon St,Bldg 6,,,,,,2db7f0bbf9176688,America/Denver
-104.7687573,39.8066515,6025,N Ceylon St,Bldg 5,,,,,,3a837c8da60e8b08,America/Denver
-105.0424997,39.7774348,4444,N Stuart St,,,,,,,cb7e0240c14c35f8,America/Denver
-104.9779032,39.7029176,750,S Clarkson St,,,,,,,78b0d027a39efad1,America/Denver
-105.0226835,39.7694472,2781,W 38th Ave,,,,,,,b3816e91f633cddb,America/Denver
-105.0425001,39.7773744,4442,N Stuart St,,,,,,,19e02df18feeba6e,America/Denver
-104.9560462,39.7372225,1330,N Elizabeth St,Unit 1,,,,,,cc75a45d33a6a5eb,America/Denver
-104.9566932,39.7363223,1265,N Elizabeth St,Apt 501,,,,,,ac7007869af4b07b,America/Denver
-104.9575747,39.7377402,1365,N Columbine St,,,,,,,bfac2d965f6e6e2c,America/Denver
-104.9571986,39.7371784,1316,N Columbine St,Apt 3,,,,,,0ed1fc46b0ad6f60,America/Denver
-104.9583316,39.7378041,1350,N Josephine St,Apt 405,,,,,,258d5374b18fcd5c,America/Denver
-104.955904,39.7372219,1330,N Elizabeth St,Unit 7,,,,,,7a99f4410010652b,America/Denver
-104.9564835,39.7363131,1265,N Elizabeth St,Apt 307,,,,,,ba5d1292cb28894e,America/Denver
-104.9572025,39.7366788,1284,N Columbine St,Unit 202,,,,,,82fe9da2946aac09,America/Denver
-104.9576674,39.7377159,1365,N Columbine St,Apt 402,,,,,,9bc2ce09c3a3e0ba,America/Denver
-104.9583291,39.7376695,1350,N Josephine St,Apt 102,,,,,,4900c37f32b7af81,America/Denver
-104.9566932,39.7363223,1265,N Elizabeth St,Apt 401,,,,,,3c010e34e96c6e2a,America/Denver
-104.9576668,39.7377873,1365,N Columbine St,Apt 104,,,,,,6245c15a614c96fe,America/Denver
-104.9559038,39.7372411,1330,N Elizabeth St,Unit 8,,,,,,eee6818ffdab1718,America/Denver
-104.9572484,39.7371814,1316,N Columbine St,,,,,,,4131a119921d6248,America/Denver
-104.958329,39.7376888,1350,N Josephine St,Apt 203,,,,,,72fec2f429a71b21,America/Denver
-104.9583663,39.7379195,1350,N Josephine St,Apt 307,,,,,,48cf121ac8ea0615,America/Denver
-104.9571993,39.7366266,1284,N Columbine St,Unit 001,,,,,,9f83f139c5b03d50,America/Denver
-104.9576674,39.7377159,1365,N Columbine St,Apt 202,,,,,,9fe381d1eed0fcc6,America/Denver
-104.9577233,39.737837,1365,N Columbine St,Apt 605,,,,,,45ad8948d75f4f65,America/Denver
-105.0050641,39.7885004,5090,N Osage St,,,,,,,a273f0fa10b82cf9,America/Denver
-104.7772124,39.7840774,18201,Green Valley Ranch Blvd,,,,,,,2b05c7a2afb3f769,America/Denver
-104.9786127,39.758584,2853,Champa St,,,,,,,7e4a4b092679ae96,America/Denver
-105.0315547,39.7200984,211,N Julian St,Unit B,,,,,,a7ccf9209c6972a7,America/Denver
-104.9112468,39.6316711,4573,S Monaco St,,,,,,,21c165b4bcf74ba5,America/Denver
-104.7767064,39.7848347,4888,N Walden St,,,,,,,b3da11711d480b83,America/Denver
-104.9752015,39.7628706,3229.0 1/2,Curtis St,,,,,,,a7f92bc4c53baf0f,America/Denver
-104.9072313,39.7179124,6995,E Irvington Pl,Util 1,,,,,,c1345954e0071c1c,America/Denver
-104.9886917,39.6997392,941,S Bannock Way,,,,,,,4d84a5175e6f46d6,America/Denver
-105.0345661,39.7918326,5232,N Lowell Blvd,,,,,,,7fae2872b15130da,America/Denver
-105.0315292,39.7201779,211,N Julian St,Unit C,,,,,,17ad4e52de998e4e,America/Denver
-105.0315336,39.7200626,211,N Julian St,Unit A,,,,,,b9d8aa30ba2eb839,America/Denver
-104.9497393,39.7212101,306,N Steele St,,,,,,,330cd93aa2bef4ac,America/Denver
-105.0389694,39.7440252,3977,W 17th Ave,,,,,,,82ce8f69112e7184,America/Denver
-104.9497545,39.7854438,4922,N Steele St,,,,,,,36981cb42f3b9198,America/Denver
-105.0300007,39.7753432,4223,N Irving St,,,,,,,32e71601f92bc519,America/Denver
-104.9309151,39.7703378,3849,N Eudora Way,,,,,,,cdfa5d9074450548,America/Denver
-104.9561202,39.6809057,1958,S Columbine St,,,,,,,cfd8fa96b141f403,America/Denver
-105.0423513,39.7440357,4261,W 17th Ave,,,,,,,971634899f30e4a8,America/Denver
-104.9223882,39.6463593,3962,S Holly St,,,,,,,efb10c9b6fe7123e,America/Denver
-105.0345597,39.7520872,2370,N Lowell Blvd,,,,,,,7cf24b95cbf985b5,America/Denver
-104.9388138,39.7879864,5051,N Ash St,,,,,,,1db39b1af4e36010,America/Denver
-104.978135,39.7644539,3235,Larimer St,Unit 348,,,,,,7754918c5a8b1edc,America/Denver
-104.9781059,39.7650221,3235,Larimer St,Unit 332,,,,,,59ddfd71bac0b075,America/Denver
-104.9777933,39.7654489,3235,Larimer St,Unit 222,,,,,,c666aae17e442abb,America/Denver
-104.978058,39.7652415,3235,Larimer St,Unit 428,,,,,,bd975ea4c242d349,America/Denver
-104.977602,39.7653355,3235,Larimer St,Unit 316,,,,,,9de59442680ce263,America/Denver
-104.9785417,39.7647797,3235,Larimer St,Unit 541,,,,,,171b3fe2503bad74,America/Denver
-104.9785908,39.764876,3235,Larimer St,Unit 439,,,,,,931c74885565c8bb,America/Denver
-104.977747,39.765457,3235,Larimer St,Unit 121,,,,,,7b59e3591e202663,America/Denver
-104.9776126,39.7653438,3235,Larimer St,Unit 516,,,,,,3b1b502ba7d3a027,America/Denver
-104.9774969,39.7651264,3235,Larimer St,Unit 509,,,,,,649dc9f3dd2e739e,America/Denver
-104.9785417,39.7647797,3235,Larimer St,Unit 241,,,,,,87f428e54069129e,America/Denver
-104.9779189,39.7652903,3235,Larimer St,Unit 125,,,,,,f2df85d536a05bfd,America/Denver
-104.9783224,39.7646113,3235,Larimer St,Unit 445,,,,,,2015163438c6e22b,America/Denver
-104.9463415,39.7161566,3496,E Ellsworth Ave,,,,,,,32708fd1bf6073e4,America/Denver
-104.9776753,39.7650421,3235,Larimer St,Unit 505,,,,,,b95a0b07cb68bf16,America/Denver
-104.9779225,39.765293,3235,Larimer St,Unit 425,,,,,,efc1cabbced9016c,America/Denver
-104.9041248,39.7153518,7108,E Lowry Blvd,Unit 1159,,,,,,d1d108b4dd5abf8c,America/Denver
-104.9040806,39.7163646,7108,E Lowry Blvd,Unit 1185,,,,,,23894fd744410aab,America/Denver
-104.9512518,39.7200889,255,N Saint Paul St,Apt 702,,,,,,c41979fa05235c0f,America/Denver
-104.9041112,39.7156894,7108,E Lowry Blvd,Unit 3164,,,,,,4a1e19ea7d18c21b,America/Denver
-104.9514476,39.7200541,255,N Saint Paul St,Apt 505,,,,,,fe435429b142250b,America/Denver
-104.9046005,39.7154256,7108,E Lowry Blvd,Unit 2148,,,,,,5d03abc240697663,America/Denver
-104.9046251,39.7167078,7108,E Lowry Blvd,Unit 1108,,,,,,12eb81d17648fa6c,America/Denver
-104.951366,39.72004,255,N Saint Paul St,Apt 704,,,,,,b5ebd5f7e120675e,America/Denver
-104.9047919,39.7167416,7108,E Lowry Blvd,Unit 3107,,,,,,ea66190cd8a3bf1b,America/Denver
-104.9045648,39.7158564,7108,E Lowry Blvd,Unit 2138,,,,,,c00c2ec46eb5b924,America/Denver
-104.9040702,39.7154916,7108,E Lowry Blvd,Unit 1163,,,,,,7d3ea05380749ad5,America/Denver
-104.9513421,39.7203666,255,N Saint Paul St,Apt 210,,,,,,d22d6ae74aac9b72,America/Denver
-104.9045633,39.7156176,7108,E Lowry Blvd,Unit 3144,,,,,,2a94d5a70c7e860b,America/Denver
-104.9045663,39.7156835,7108,E Lowry Blvd,Unit 1136,,,,,,dec98ebb3681b562,America/Denver
-104.9513647,39.720202,255,N Saint Paul St,Apt 606,,,,,,2bd4c3d41d2edb0e,America/Denver
-104.9051226,39.7163068,7108,E Lowry Blvd,Unit 3123,,,,,,dfad47f004ad9706,America/Denver
-104.9040761,39.7156371,7108,E Lowry Blvd,Unit 3163,,,,,,1c45dd0737aa1e14,America/Denver
-104.9049415,39.7167121,7108,E Lowry Blvd,Unit 3103,,,,,,cadd47edc2d9994b,America/Denver
-104.9512519,39.7200861,255,N Saint Paul St,Apt 602,,,,,,dbbca9d3584be8a8,America/Denver
-104.9045709,39.7163973,7108,E Lowry Blvd,Unit 4115,,,,,,e4f465bd66afd419,America/Denver
-104.9041209,39.715802,7108,E Lowry Blvd,Unit 3168,,,,,,fa76cfc0ce36e7ca,America/Denver
-104.9045663,39.7156835,7108,E Lowry Blvd,Unit 3142,,,,,,162db7b3f98705fb,America/Denver
-104.9513722,39.7206165,255,N Saint Paul St,Apt 315,,,,,,f5215e2b50c6e9d6,America/Denver
-104.9046924,39.7167411,7108,E Lowry Blvd,Unit 3109,,,,,,cc3033cfc087ecaf,America/Denver
-104.9050198,39.7158615,7108,E Lowry Blvd,Unit 3137,,,,,,afd789ee80670453,America/Denver
-104.9047919,39.7167416,7108,E Lowry Blvd,Unit 4107,,,,,,a62ab2f5de40d393,America/Denver
-104.9513392,39.720287,255,N Saint Paul St,Apt 408,,,,,,29dd2d28ddf12765,America/Denver
-104.8911333,39.6836893,1885,S Quebec Way,Apt M101,,,,,,89cd988e87b7aac8,America/Denver
-104.9046021,39.7156507,7108,E Lowry Blvd,Unit 1137,,,,,,03239f5a4a8edf3f,America/Denver
-104.9513747,39.7207456,255,N Saint Paul St,Apt 417,,,,,,09ff33d6ef9ca97e,America/Denver
-104.9513427,39.7207427,255,N Saint Paul St,Apt 220,,,,,,a3f321800b5db172,America/Denver
-104.9046083,39.7157606,7108,E Lowry Blvd,Unit 3141,,,,,,5ef3af4f4d644e88,America/Denver
-104.9046355,39.7167435,7108,E Lowry Blvd,Unit 1107,,,,,,a03a01f7c56829b6,America/Denver
-104.9046005,39.7154256,7108,E Lowry Blvd,Unit 3148,,,,,,8d0fcb593ae24827,America/Denver
-104.9513658,39.7205149,255,N Saint Paul St,Apt 313,,,,,,b3048e637056abd0,America/Denver
-104.9046924,39.7167411,7108,E Lowry Blvd,Unit 1106,,,,,,d2cba317f9df404b,America/Denver
-104.9497865,39.7369518,1313,N Steele St,Apt 402,,,,,,33df89dd0011435b,America/Denver
-104.9940295,39.7884892,5050,N Fox St,Ste L,,,,,,6204cbd2ce5eb9cf,America/Denver
-105.0320037,39.7364483,1290,N Knox Ct,,,,,,,4ccd323aaf5f680a,America/Denver
-104.8907298,39.7011009,888,S Valentia St,Unit 21-102,,,,,,7f5a019f4d38fbca,America/Denver
-104.8913452,39.70145,888,S Valentia St,Unit 13-101,,,,,,baa0e5ff0b9c488a,America/Denver
-104.8903917,39.7007477,888,S Valentia St,Unit 20-103,,,,,,a9f0a9928c17b014,America/Denver
-104.8919616,39.701272,888,S Valentia St,Unit 5-104,,,,,,7423ada263ae46c2,America/Denver
-104.8909085,39.7014038,888,S Valentia St,Unit 16-102,,,,,,5f185ff1d0d5ccbf,America/Denver
-104.8919659,39.7011842,888,S Valentia St,Unit 4-104,,,,,,8a98faea12ff3904,America/Denver
-104.9668855,39.6804608,1723,E Asbury Ave,,,,,,,e3b90bd05446a881,America/Denver
-104.8580343,39.7972919,11175,E 55th Ave,Ste 104,,,,,,45744226ea7a7e2a,America/Denver
-104.9565957,39.7209153,2618,E 3rd Ave,,,,,,,162c2b8515a7ed30,America/Denver
-104.8902259,39.7010214,888,S Valentia St,Unit 19-103,,,,,,76f3099a68955037,America/Denver
-104.8913862,39.7016424,888,S Valentia St,Unit 11-102,,,,,,a6489a4003ebef5f,America/Denver
-104.8919448,39.7015739,888,S Valentia St,Unit 6-103,,,,,,1850a24f592f0a74,America/Denver
-104.8920645,39.7012945,888,S Valentia St,Unit 5-102,,,,,,049ea79f9cbb4ecd,America/Denver
-105.0303936,39.657745,3400,S Lowell Blvd,Apt 5-307,,,,,,75ded73f709ffe1f,America/Denver
-105.0326943,39.6573424,3400,S Lowell Blvd,Apt 9-307,,,,,,043b1c18c3169635,America/Denver
-105.0302455,39.6586449,3400,S Lowell Blvd,Apt 2-205,,,,,,c2df395cdb5d9b64,America/Denver
-105.0317004,39.6572588,3400,S Lowell Blvd,Apt 8-308,,,,,,957035505442162d,America/Denver
-105.0094075,39.7622714,3210,N Shoshone St,,,,,,,fad871292000737e,America/Denver
-105.0299621,39.6590775,3400,S Lowell Blvd,Apt 1-306,,,,,,15668a4fa26952ac,America/Denver
-105.0302446,39.6571871,3400,S Lowell Blvd,Apt 6-305,,,,,,8abdcf5f7a9f4da5,America/Denver
-105.0317783,39.6572948,3400,S Lowell Blvd,Apt 8-205,,,,,,88b6683d4b78ee78,America/Denver
-105.0301636,39.6581477,3400,S Lowell Blvd,Apt 3-104,,,,,,5e90c58adaff1659,America/Denver
-104.8678082,39.7991264,10277,E 56th Pl,,,,,,,a39c5b6dad219ba1,America/Denver
-105.0301206,39.6582024,3400,S Lowell Blvd,Apt 3-202,,,,,,71b4112148869413,America/Denver
-105.0306758,39.6580426,3400,S Lowell Blvd,Apt 4-202,,,,,,499a6759c0528834,America/Denver
-105.0306758,39.6580426,3400,S Lowell Blvd,Apt 4-302,,,,,,1283fde4e403be2e,America/Denver
-105.0327581,39.6573619,3400,S Lowell Blvd,Apt 9-306,,,,,,09087abece7fcbec,America/Denver
-105.0301591,39.6572389,3400,S Lowell Blvd,Apt 6-203,,,,,,52b6b88d8718b89e,America/Denver
-105.0301498,39.6586198,3400,S Lowell Blvd,Apt 2-307,,,,,,43d55b1276d335f3,America/Denver
-105.0303942,39.6576544,3400,S Lowell Blvd,Apt 5-104,,,,,,d298f9bc73a71f85,America/Denver
-105.0323867,39.6576734,3400,S Lowell Blvd,Apt 10-306,,,,,,88533fd2c8a3d257,America/Denver
-104.8721004,39.7991219,9845,E 56th Pl,,,,,,,58c6be77fcc84ba7,America/Denver
-105.0303941,39.6576819,3400,S Lowell Blvd,Apt 5-203,,,,,,93210e22c6f514c3,America/Denver
-104.874752,39.7991141,9687,E 56th Pl,,,,,,,b98b104b71f110c0,America/Denver
-105.032776,39.6573372,3400,S Lowell Blvd,Apt 9-105,,,,,,249522081424b8e5,America/Denver
-105.0311213,39.6572785,3400,S Lowell Blvd,Apt 7-101,,,,,,e0aa4b94dc3358e4,America/Denver
-105.0308187,39.6589766,3400,S Lowell Blvd,Apt 13-104,,,,,,2f5df4642c911f4a,America/Denver
-104.9459775,39.7203909,228,N Madison St,,,,,,,4e9647f0a308cac8,America/Denver
-104.9457388,39.7195552,3525,E 2nd Ave,,,,,,,9c3b6a9cc72d197f,America/Denver
-104.9459717,39.7197677,202,N Madison St,,,,,,,ee4e4934321b0368,America/Denver
-104.9459735,39.7204375,230,N Madison St,,,,,,,0b823b3644db5da6,America/Denver
-104.9458914,39.7195806,3505,E 2nd Ave,,,,,,,658607d88c513a72,America/Denver
-104.9460037,39.720218,220,N Madison St,,,,,,,d55c6a63ae27fad3,America/Denver
-104.945978,39.7198775,206,N Madison St,,,,,,,028b2647cc1971f7,America/Denver
-104.9457814,39.7195581,3527,E 2nd Ave,,,,,,,5be7646c6c1b9df1,America/Denver
-104.884717,39.7602143,8855,E Martin Luther King Jr Blvd,,,,,,,9fdbc0bff63eb328,America/Denver
-105.0378045,39.7254599,3846,W 6th Ave,,,,,,,3e6292f8816ebe28,America/Denver
-104.7723194,39.8098114,6207,N Tower Rd,,,,,,,e20c8a184ec56c3f,America/Denver
-104.764244,39.8018989,19151,E 58th Ave,,,,,,,ab1a378a3743ef35,America/Denver
-104.7377309,39.7931431,21387,E 53rd Ave,,,,,,,334db13e36bf3748,America/Denver
-104.6745321,39.8749424,9787,N Riverwood St,Unit A,,,,,,e8c62868bcf573cd,America/Denver
-104.9735119,39.6832827,1833,S Downing St,,,,,,,5660ce4d9fa70bc0,America/Denver
-104.9954555,39.7584597,646,W 29th Ave,,,,,,,1fbfccda84f5fd82,America/Denver
-104.8826196,39.7996689,9196,E 57th Ave,,,,,,,b3e3400a1ec98732,America/Denver
-105.0107186,39.7747156,4228.0 1/2,N Tejon St,,,,,,,f7bff6959b440a74,America/Denver
-104.924396,39.7189887,160,N Grape St,,,,,,,a3d09576dd663911,America/Denver
-104.897191,39.7288261,7847,E Severn Dr,,,,,,,064f5d46d0aad5a1,America/Denver
-104.9829171,39.7257119,355,E 6th Ave,,,,,,,ded748b5ab1002ce,America/Denver
-104.9887998,39.7429505,303,16th St,Unit 130,,,,,,8830cab179a6abc2,America/Denver
-104.6742859,39.8269488,7290,N Riverwood Pl,Unit B,,,,,,cf59c319abbef085,America/Denver
-104.6743572,39.826941,7290,N Riverwood Pl,Unit A,,,,,,7a81710883b88e62,America/Denver
-104.6758813,39.853855,8700,Pena Blvd,# AC-26-27,,,,,,38b7d2e84b5277b3,America/Denver
-104.9868035,39.6891917,1501.0 1/2,S Lincoln St,,,,,,,171b0a9911ee4d1d,America/Denver
-104.9817808,39.6855843,1705,S Pennsylvania St,,,,,,,1b274bcb42a7c523,America/Denver
-105.0328232,39.7180417,3452,W 1st Ave,,,,,,,ed1311a803d42de4,America/Denver
-105.0324542,39.731278,3469,W 9th Ave,,,,,,,531fd2364e15fbc7,America/Denver
-104.9626576,39.7073704,500,S Vine St,,,,,,,56c3282dd5ea59c2,America/Denver
-105.0152975,39.7582301,2880,N Zuni St,Unit 510,,,,,,566d2e5a92655451,America/Denver
-105.0155193,39.7580499,2880,N Zuni St,Unit 501,,,,,,764f05aea29361c3,America/Denver
-104.9633135,39.7401192,2003,E Colfax Ave,,,,,,,86e373af92c34a88,America/Denver
-105.0153656,39.7581536,2880,N Zuni St,Unit 507,,,,,,7279696a0cd61fba,America/Denver
-104.969401,39.7711792,1300,40th St,,,,,,,db53f8003c84c81f,America/Denver
-104.8966322,39.719805,7581,E Academy Blvd,,,,,,,7e1b52b618109ce6,America/Denver
-104.89727,39.7196325,96,N Rampart Way,,,,,,,065c32205a7c2515,America/Denver
-105.0210788,39.7621877,2719,W 32nd Ave,,,,,,,96a2552e0c5ecc5a,America/Denver
-104.8977621,39.7202884,144,N Rampart Way,,,,,,,ce42f5e25fdc7c20,America/Denver
-104.9857805,39.7163054,10.0 1/2,S Lincoln St,,,,,,,df556828114366c1,America/Denver
-105.0210883,39.7623607,2719.0 1/2,W 32nd Ave,,,,,,,53eabaaab49b80ed,America/Denver
-104.9721231,39.6733082,2390,S Marion St,,,,,,,fc17f5913b4c328f,America/Denver
-104.9686118,39.7711015,1580,E 39th Ave,,,,,,,67696419fc5545e8,America/Denver
-104.7725522,39.7791621,4555,N Tower Rd,,,,,,,d5f98428b750d819,America/Denver
-105.0654529,39.652079,3550,S Kendall St,Unit 5-308,,,,,,85bd0cca78c208af,America/Denver
-105.0662957,39.6513271,3550,S Kendall St,Unit 9-301,,,,,,ba88f11b2ceb89d8,America/Denver
-105.0656508,39.6516652,3550,S Kendall St,Unit 6-104,,,,,,16cfb01ee9a42786,America/Denver
-105.0661612,39.651818,3550,S Kendall St,Unit 10-307,,,,,,dc0a5a5d3f33e889,America/Denver
-105.0659589,39.651227,3550,S Kendall St,Unit 8-304,,,,,,babd30b703f8ed8f,America/Denver
-105.0658745,39.651666,3550,S Kendall St,Unit 6-102,,,,,,c0cb64c9f6944df9,America/Denver
-105.0662772,39.6525981,3550,S Kendall St,Unit 1-304,,,,,,abe354b15ff636c2,America/Denver
-105.0659725,39.6513314,3550,S Kendall St,Unit 8-105,,,,,,4798c9baf20b3858,America/Denver
-105.0657252,39.6522639,3550,S Kendall St,Unit 4-202,,,,,,edc4dfafd8ec6064,America/Denver
-105.0656536,39.6523597,3550,S Kendall St,Unit 4-308,,,,,,c223a6e4d784c974,America/Denver
-105.0657494,39.6512263,3550,S Kendall St,Unit 8-102,,,,,,8cf3d72c18e8c99e,America/Denver
-105.0658837,39.6513283,3550,S Kendall St,Unit 8-206,,,,,,51ec83ceb910881e,America/Denver
-105.0657252,39.6522639,3550,S Kendall St,Unit 4-102,,,,,,6121b2af87cb4949,America/Denver
-105.0653229,39.6518479,3550,S Kendall St,Unit 5-204,,,,,,b764c8ed9a11dfd6,America/Denver
-105.0662957,39.6513271,3550,S Kendall St,Unit 9-201,,,,,,f825f78c21c83676,America/Denver
-105.0659639,39.6515702,3550,S Kendall St,Unit 6-208,,,,,,f177692b2072f275,America/Denver
-105.065861,39.6527009,3550,S Kendall St,Unit 2-302,,,,,,ff15fe3fc8e66bec,America/Denver
-105.0658779,39.6522617,3550,S Kendall St,Unit 4-303,,,,,,ee76bfb2fc75941e,America/Denver
-105.0661612,39.651818,3550,S Kendall St,Unit 10-207,,,,,,9416ede20f2b7eb0,America/Denver
-104.9776126,39.7653438,3235,Larimer St,Unit 116,,,,,,381bf3d0a390d427,America/Denver
-104.9774888,39.7652499,3235,Larimer St,Unit 312,,,,,,5ad92cd02263d9b2,America/Denver
-104.9777015,39.765347,3235,Larimer St,Unit 219,,,,,,9fa3e8fd609d68d7,America/Denver
-104.977457,39.7652223,3235,Larimer St,Unit 211,,,,,,76e8bd8acab351c0,America/Denver
-104.9778363,39.7653997,3235,Larimer St,Unit 323,,,,,,c2e3064bd6ccaa10,America/Denver
-104.9779222,39.7653342,3235,Larimer St,Unit 324,,,,,,8577d2360ce96849,America/Denver
-104.9781915,39.7645118,3235,Larimer St,Unit 247,,,,,,b45a1c507453ef75,America/Denver
-104.9778505,39.7653998,3235,Larimer St,Unit 523,,,,,,d9ed1a799ec69666,America/Denver
-104.9781082,39.7651923,3235,Larimer St,Unit 330,,,,,,39f201fb81b6709c,America/Denver
-104.9778886,39.7645819,3235,Larimer St,Unit 151,,,,,,01941fa5f32752ce,America/Denver
-104.9777505,39.7654597,3235,Larimer St,Unit 421,,,,,,4ebb5ba36b4c50e5,America/Denver
-104.9782764,39.7645754,3235,Larimer St,Unit 246,,,,,,d40b4e8f18493433,America/Denver
-104.9785979,39.7648815,3235,Larimer St,Unit 539,,,,,,f6303f242ef05a9a,America/Denver
-104.9775777,39.7652586,3235,Larimer St,Unit 414,,,,,,d2d162bfb7f774d8,America/Denver
-104.9783117,39.7650944,3235,Larimer St,Unit 235,,,,,,80c995680b6ae6ce,America/Denver
-105.0011561,39.7386248,1045,W 14th Ave,Apt 204,,,,,,d72e57b213fb5dcb,America/Denver
-104.77083,39.7825995,4752,N Tower Ct,,,,,,,a8791d288995e529,America/Denver
-104.7700796,39.7815407,4698,N Tower Dr,,,,,,,b583b5c2dd1ad118,America/Denver
-105.0506624,39.7334244,4925,W 10th Ave,Unit 1-104,,,,,,697d39baa1fde0df,America/Denver
-104.9850383,39.6793915,2050,S Sherman St,,,,,,,e32c803c305a6dc4,America/Denver
-105.0104396,39.7621906,1925,W 32nd Ave,Unit 501,,,,,,078e19733997e746,America/Denver
-105.0247361,39.7132984,182,S Federal Blvd,,,,,,,80624d99dced88fc,America/Denver
-105.0510584,39.7332172,4925,W 10th Ave,Unit 2-112,,,,,,94378a9bffd4756c,America/Denver
-104.8574514,39.6582555,3320,S Kenton St,Apt 1-1307,,,,,,712b391bb3e07222,America/Denver
-104.8574179,39.6584173,3320,S Kenton St,Apt 1-1205,,,,,,41a699070f9cc6a4,America/Denver
-104.857835,39.6582549,3320,S Kenton St,Apt 1-1314,,,,,,8075a5146239c1a1,America/Denver
-105.0103545,39.7621436,1925,W 32nd Ave,,,,,,,34d305ce86c0b6d0,America/Denver
-104.9545335,39.7140947,2821,E Cedar Ave,Bldg 19,,,,,,9657aec9cff0c885,America/Denver
-104.982011,39.6895414,431,E Florida Ave,,,,,,,a30b51636146651f,America/Denver
-104.9541461,39.7136289,2821,E Cedar Ave,Bldg 2,,,,,,816372074a2b7db0,America/Denver
-105.0236337,39.6662476,2727,S Decatur St,Unit B,,,,,,d6f3bbbecc86fdef,America/Denver
-105.0428814,39.7800031,4585,N Stuart St,,,,,,,4057a0ed7da93fa2,America/Denver
-105.0254884,39.7513262,3007,W 23rd Ave,,,,,,,faf25e82ba0197c3,America/Denver
-104.6799352,39.8541138,26340,E 88th Ave,,,,,,,fada23459ae50190,America/Denver
-105.0235981,39.6662612,2727,S Decatur St,Unit A,,,,,,67ea37ad47497bf6,America/Denver
-104.9961264,39.7210336,300,N Galapago St,,,,,,,812ab4a329f408e9,America/Denver
-104.9697351,39.7303038,861,N Humboldt St,Apt F,,,,,,3e2d806576231ba6,America/Denver
-104.6740082,39.8734481,9710,N Riverwood St,Unit B,,,,,,e6cbd6280fabf996,America/Denver
-104.674009,39.8733767,9710,N Riverwood St,Unit A,,,,,,c882d9d55daebdb7,America/Denver
-104.9782778,39.723756,466.0 1/2,N Washington St,,,,,,,57448c9df1a527b1,America/Denver
-104.981922,39.6895547,435,E Florida Ave,,,,,,,183021266197bc7a,America/Denver
-104.6739948,39.8739778,9736,N Riverwood St,Unit A,,,,,,e225b79c8f1356c9,America/Denver
-105.0235769,39.6662501,2727,S Decatur St,,,,,,,4071afeec569daf9,America/Denver
-104.9048846,39.715869,7108,E Lowry Blvd,Unit 3134,,,,,,1feba29702c1bcc4,America/Denver
-105.0396173,39.7358002,1255,N Perry St,,,,,,,b9fa49d6e898e7d9,America/Denver
-104.9041168,39.7158707,7108,E Lowry Blvd,Unit 3172,,,,,,d7c977e13a416156,America/Denver
-104.9040778,39.7158595,7108,E Lowry Blvd,Unit 3170,,,,,,0e3673d6d748bf57,America/Denver
-104.9513444,39.7205313,255,N Saint Paul St,Apt 514,,,,,,615fa27ed041a1d6,America/Denver
-104.9040661,39.7155629,7108,E Lowry Blvd,Unit 2161,,,,,,2557b9408e08d14e,America/Denver
-104.9045619,39.7157851,7108,E Lowry Blvd,Unit 2139,,,,,,bcada5302a8475d1,America/Denver
-104.9050418,39.716202,7108,E Lowry Blvd,Unit 4125,,,,,,f9c3af74f1d1b398,America/Denver
-104.9040761,39.7156343,7108,E Lowry Blvd,Unit 1167,,,,,,ec299bcd52f43af2,America/Denver
-104.9040661,39.7155629,7108,E Lowry Blvd,Unit 3161,,,,,,94a367587c0d23ab,America/Denver
-105.0322536,39.7490912,3451,W 21st Ave,,,,,,,3eabe88f0e9b3150,America/Denver
-104.9565576,39.7382214,2530,E 14th Ave,Apt 6,,,,,,129eba2702168c62,America/Denver
-104.9578037,39.7389437,1431,N Columbine St,Apt 7,,,,,,2240326433feb0d1,America/Denver
-104.9497896,39.7370095,1313,N Steele St,Apt 305,,,,,,3ce4c2e71fbcf246,America/Denver
-104.9498683,39.7369495,1313,N Steele St,Apt 501,,,,,,45b96ec8fff5b71d,America/Denver
-104.9515497,39.7388351,1418,N Milwaukee St,Apt 2,,,,,,fe7c40960513f26d,America/Denver
-104.9497007,39.7370091,1313,N Steele St,Apt 604,,,,,,137dabb3d252cdb7,America/Denver
-104.9430099,39.7122206,245,S Jackson St,Apt C,,,,,,79c45c208de39b33,America/Denver
-104.9512879,39.7381997,1374,N Milwaukee St,Apt 7,,,,,,a2d5ebcfef01d94f,America/Denver
-104.9498714,39.7370071,1313,N Steele St,Apt 606,,,,,,ccff4e3fbbf46210,America/Denver
-104.9565576,39.7382214,2530,E 14th Ave,Apt 2,,,,,,a5bc5f313910b607,America/Denver
-104.9497865,39.7369518,1313,N Steele St,Apt 302,,,,,,3895bda2727d4abc,America/Denver
-104.9514231,39.7382003,1374,N Milwaukee St,Apt 5,,,,,,ff160b53410c944b,America/Denver
-104.9497129,39.7372672,1327,N Steele St,Apt 302,,,,,,49e42abdd37e4cea,America/Denver
-104.9535116,39.738501,2829,E 14th Ave,Apt 7,,,,,,32ddc1219ad81194,America/Denver
-104.9565965,39.7382436,2530,E 14th Ave,,,,,,,8588251b5b764ee2,America/Denver
-105.0512295,39.7664958,5016,W 36th Ave,,,,,,,1cf4b7917dc6ccd5,America/Denver
-105.0071954,39.6959117,1145,S Quivas St,Apt 307,,,,,,fa1f8c29b71db6bd,America/Denver
-105.006903,39.6960532,1145,S Quivas St,Apt 302,,,,,,324f83a2517af3c5,America/Denver
-105.006903,39.6960532,1145,S Quivas St,Apt 102,,,,,,824add929788d654,America/Denver
-105.006903,39.6960532,1145,S Quivas St,Apt 202,,,,,,edcb8bc0f3669ab4,America/Denver
-104.9402244,39.7432483,4016,E 17th Avenue Pkwy,,,,,,,e719db2aa7ba2e09,America/Denver
-104.9130984,39.6454786,3905,S Monaco Street Pkwy,,,,,,,4347d5e76f18aadd,America/Denver
-105.0013709,39.7519183,1595,Wynkoop St,Ste 100,,,,,,93d3f58f5a9dd751,America/Denver
-104.9854435,39.785995,4918,N Lincoln St,,,,,,,d2ceeb1c72f776b7,America/Denver
-104.7726192,39.7785338,4509,N Tower Rd,,,,,,,d8d688f9dcac2e2b,America/Denver
-104.8888552,39.6445699,8525,E Mansfield Ave,,,,,,,a611c415add56c26,America/Denver
-105.0013709,39.7519183,1595,Wynkoop St,Ste 900,,,,,,05d8ec50b4558c72,America/Denver
-104.9131202,39.6454211,3907,S Monaco Street Pkwy,,,,,,,868355354081dfeb,America/Denver
-104.772576,39.7782481,4501,N Tower Rd,,,,,,,b43973b712f89e71,America/Denver
-105.0013709,39.7519183,1595,Wynkoop St,Ste 250,,,,,,757238539172b1ca,America/Denver
-105.0013709,39.7519183,1595,Wynkoop St,Ste 800,,,,,,590d532e949d6590,America/Denver
-105.0326943,39.6573424,3400,S Lowell Blvd,Apt 9-207,,,,,,12101cc92231593e,America/Denver
-105.0301498,39.6586198,3400,S Lowell Blvd,Apt 2-207,,,,,,d8afc14c95314f08,America/Denver
-105.0310188,39.6572012,3400,S Lowell Blvd,Apt 7-307,,,,,,04c90f8f64e47d0a,America/Denver
-105.0301633,39.6581998,3400,S Lowell Blvd,Apt 3-301,,,,,,125a23696d705b54,America/Denver
-105.032776,39.6573372,3400,S Lowell Blvd,Apt 9-305,,,,,,64cc8dc5289bc3a6,America/Denver
-105.0310446,39.6586563,3400,S Lowell Blvd,Apt 12-104,,,,,,9bcc040164257c0b,America/Denver
-105.0300124,39.6589871,3400,S Lowell Blvd,Apt 1-307,,,,,,ea8e98e0eb52f367,America/Denver
-105.0307972,39.6590067,3400,S Lowell Blvd,Apt 13-103,,,,,,faf55c491a0502ff,America/Denver
-105.0304895,39.6577454,3400,S Lowell Blvd,Apt 5-306,,,,,,2751852a4bfce7f3,America/Denver
-105.0306433,39.6581221,3400,S Lowell Blvd,Apt 4-205,,,,,,57cf21f05f280d62,America/Denver
-104.8675342,39.7991304,10307,E 56th Pl,,,,,,,5df8afeefe2708af,America/Denver
-105.0311256,39.6571742,3400,S Lowell Blvd,Apt 7-305,,,,,,83815f8f4a9fb5f2,America/Denver
-105.0305726,39.6580779,3400,S Lowell Blvd,Apt 4-107,,,,,,4c08948d69208210,America/Denver
-105.0310446,39.6586563,3400,S Lowell Blvd,Apt 12-304,,,,,,be2c55d6c0e2ce9f,America/Denver
-104.8726663,39.7991194,9827,E 56th Pl,,,,,,,6ff19777a83f2567,America/Denver
-104.8753002,39.7991005,9607,E 56th Pl,,,,,,,bcfafe586a58fde5,America/Denver
-105.0317568,39.6573167,3400,S Lowell Blvd,Apt 8-206,,,,,,9a4349942d43740f,America/Denver
-105.0311009,39.6587471,3400,S Lowell Blvd,Apt 12-206,,,,,,f8d3e93dddb6bbe0,America/Denver
-105.0308076,39.6590452,3400,S Lowell Blvd,Bldg 13,,,,,,62170a61512b2d71,America/Denver
-105.0301419,39.6571538,3400,S Lowell Blvd,Apt 6-308,,,,,,2a1aa0af78314664,America/Denver
-105.0317568,39.6573167,3400,S Lowell Blvd,Apt 8-306,,,,,,1b7f53d446a84cf4,America/Denver
-105.0311009,39.6587471,3400,S Lowell Blvd,Apt 12-306,,,,,,bd6922df58f63f4e,America/Denver
-105.0301046,39.6590095,3400,S Lowell Blvd,Apt 1-304,,,,,,0473dfcfef3d73c7,America/Denver
-105.0301589,39.6572664,3400,S Lowell Blvd,Apt 6-104,,,,,,a4c22d2256cb67a9,America/Denver
-105.0316431,39.6573217,3400,S Lowell Blvd,Apt 8-303,,,,,,53cc9c4dd8f53d51,America/Denver
-105.0301419,39.6571538,3400,S Lowell Blvd,Apt 6-108,,,,,,0e71d8364383ea92,America/Denver
-105.0302405,39.6572695,3400,S Lowell Blvd,Apt 6-101,,,,,,4a536a4e2b7057b8,America/Denver
-105.0306051,39.6579984,3400,S Lowell Blvd,Apt 4-104,,,,,,693010963f96b346,America/Denver
-105.032715,39.6574303,3400,S Lowell Blvd,Apt 9-101,,,,,,63a3c378d4355c1e,America/Denver
-105.031696,39.6573768,3400,S Lowell Blvd,Apt 8-301,,,,,,5508e50a857d6d1c,America/Denver
-105.0300713,39.6581473,3400,S Lowell Blvd,Apt 3-107,,,,,,e7d9b821bda6c038,America/Denver
-104.8757271,39.67168,2525,S Dayton Way,Apt 1207,,,,,,bc23ec6a2254e02c,America/Denver
-104.9113074,39.696459,6600,E Mississippi Ave,Apt 9,,,,,,fd611fffa30c5926,America/Denver
-105.0149888,39.6825305,1885,S Yuma St,,,,,,,c033f97e725af32b,America/Denver
-104.8753106,39.6693799,2525,S Dayton Way,Apt 1809,,,,,,ce3fdc81fae2a2ad,America/Denver
-104.8740905,39.6691566,2525,S Dayton Way,Apt 2307,,,,,,5519f3f88f3f4907,America/Denver
-104.9674163,39.750515,2259,N Gilpin St,,,,,,,89e36ae262d0b1f1,America/Denver
-105.0155407,39.7580307,2880,N Zuni St,Unit 202,,,,,,a624030cc429c009,America/Denver
-105.0194536,39.6811761,1960,S Clay St,,,,,,,01f3df46144c8fc2,America/Denver
-105.0153015,39.7581698,2880,N Zuni St,Unit 209,,,,,,6e79cd1ca61ddee8,America/Denver
-105.0153656,39.7581536,2880,N Zuni St,Unit 407,,,,,,1e03bc2c0b9c2be7,America/Denver
-104.9959515,39.729546,828.0 1/2,N Galapago St,,,,,,,abd353dfd748d682,America/Denver
-105.0155684,39.7581516,2880,N Zuni St,Unit 403,,,,,,0738deb814f1cfc2,America/Denver
-104.9330194,39.7300859,843,N Dexter St,,,,,,,92e4de8c9f82ad90,America/Denver
-105.0155225,39.7580883,2880,N Zuni St,Unit 400,,,,,,2b391f85053341ba,America/Denver
-104.9675228,39.7505484,1628,E 23rd Ave,,,,,,,742c4db0d10209fb,America/Denver
-105.0153656,39.7581536,2880,N Zuni St,Unit 207,,,,,,25ee45c4a57c5afe,America/Denver
-105.0152975,39.7582301,2880,N Zuni St,Unit 410,,,,,,de25aaef7105d496,America/Denver
-104.9900263,39.761102,2520,Wewatta Way,Unit 649,,,,,,c5a69337d95174a9,America/Denver
-104.99069,39.7612997,2520,Wewatta Way,Unit 607,,,,,,8342288efbbc5e44,America/Denver
-104.9901827,39.7611136,2520,Wewatta Way,Unit 343,,,,,,e7882e5106944e63,America/Denver
-104.9907119,39.7612202,2520,Wewatta Way,Unit 405,,,,,,7ae9c2bba5519a33,America/Denver
-104.9901074,39.7616816,2520,Wewatta Way,Unit 534,,,,,,e79f8d79d4704484,America/Denver
-104.9903065,39.7616907,2520,Wewatta Way,Unit 230,,,,,,87c89ff793aa5c47,America/Denver
-104.9906892,39.7614095,2520,Wewatta Way,Unit 411,,,,,,81bb69bdd217690a,America/Denver
-104.9901796,39.7615391,2520,Wewatta Way,Unit 129,,,,,,38aaaeb44f64a95c,America/Denver
-104.9907155,39.7617061,2520,Wewatta Way,Unit 418,,,,,,f4befc4d5c780838,America/Denver
-105.0249963,39.7693687,2995,W 38th Ave,,,,,,,21d0d9a55cbabf83,America/Denver
-104.9906897,39.7613464,2520,Wewatta Way,Unit 309,,,,,,24dd9da2623da9a7,America/Denver
-104.9905804,39.7617001,2520,Wewatta Way,Unit 722,,,,,,249a2b74cc116a7c,America/Denver
-104.990181,39.7613415,2520,Wewatta Way,Unit 135,,,,,,2f1f6aaa449d8b6a,America/Denver
-104.9900263,39.761102,2520,Wewatta Way,Unit 249,,,,,,2944016c5df6120b,America/Denver
-104.9906897,39.7613437,2520,Wewatta Way,Unit 709,,,,,,33bb8004b08c50ef,America/Denver
-104.99069,39.7612997,2520,Wewatta Way,Unit 807,,,,,,af379ce539c8657f,America/Denver
-104.9904416,39.7617022,2520,Wewatta Way,Unit 426,,,,,,d33b75b8c2dfa29c,America/Denver
-104.9901117,39.7610968,2520,Wewatta Way,Unit 647,,,,,,b3aa07d247abbbe1,America/Denver
-104.990176,39.7615391,2520,Wewatta Way,Unit 429,,,,,,19bad562c0c2feb0,America/Denver
-104.9901617,39.7610696,2520,Wewatta Way,Unit 745,,,,,,39b0642cb2f317af,America/Denver
-104.9901617,39.7610669,2520,Wewatta Way,Unit 645,,,,,,bcc6b25d43991fc5,America/Denver
-104.9760791,39.7592041,3011,Stout St,,,,,,,437cf3f15a3a66cd,America/Denver
-104.9753348,39.759802,3093,Stout St,Unit 200,,,,,,6cca1008a8c61161,America/Denver
-104.8972445,39.7155693,42,S Trenton St,,,,,,,09d7c9685afd360d,America/Denver
-104.8903488,39.6385954,8348,E Quincy Ave,,,,,,,7f1f4fc54d03ac6c,America/Denver
-104.9754042,39.7600302,844,31st St,,,,,,,d91a6269718c605f,America/Denver
-104.9680071,39.661858,3049,S Gilpin St,,,,,,,7df59da247eec060,America/Denver
-104.8981871,39.6910475,1420,S Quebec Way,,,,,,,7c83ad37d55f77f7,America/Denver
-104.9762783,39.759194,809,30th St,Unit 200,,,,,,843d2090ba34c916,America/Denver
-104.9763172,39.7592244,815,30th St,,,,,,,eebcba8dc259970f,America/Denver
-104.9760361,39.7592396,3015,Stout St,Ste 100,,,,,,c42712d0f89e3fe3,America/Denver
-104.8217664,39.7791704,14571,E 46th Ave,,,,,,,4819e92af1218c85,America/Denver
-105.0516829,39.6894845,5062,W Florida Ave,,,,,,,487a1ed58167ff44,America/Denver
-104.9515861,39.7255399,3052,E 6th Ave,,,,,,,0457dd317cb32839,America/Denver
-104.9906224,39.747101,707,17th St,Ste 3300,,,,,,5f81c3fa232dd650,America/Denver
-104.7728561,39.8143471,6493,N Tower Rd,,,,,,,06702bc4959d47cf,America/Denver
-104.9761282,39.7592922,3015,Stout St,Unit 200,,,,,,8a8cd6f95418e9d9,America/Denver
-104.9759642,39.7593409,3023,Stout St,Unit 200,,,,,,5f24bb2d6572391c,America/Denver
-104.9760361,39.7592396,3015,Stout St,,,,,,,32d72b5e8a50bfa2,America/Denver
-105.0792271,39.6364065,4760,S Wadsworth Blvd,Unit H106,,,,,,a509485c08948b0d,America/Denver
-105.081094,39.6347605,4760,S Wadsworth Blvd,Spc PK008,,,,,,70d3eb4bd08097b5,America/Denver
-105.0798822,39.6349236,4760,S Wadsworth Blvd,Spc GAR24,,,,,,c70139b9a44cf982,America/Denver
-105.0794943,39.6356717,4760,S Wadsworth Blvd,Spc PK124,,,,,,676a2e1b31dc0fb8,America/Denver
-105.0801248,39.6353363,4760,S Wadsworth Blvd,Spc PK331,,,,,,181d1af269e33c18,America/Denver
-105.0797006,39.6344206,4760,S Wadsworth Blvd,Unit C105,,,,,,18ad680b046c4106,America/Denver
-105.0806085,39.634605,4760,S Wadsworth Blvd,Unit M302,,,,,,1bc39e2b6ea94fe7,America/Denver
-105.0800239,39.6343888,4760,S Wadsworth Blvd,Spc PK045,,,,,,ff6c20530e533069,America/Denver
-105.0802492,39.6347053,4760,S Wadsworth Blvd,Spc PK053,,,,,,9cdbf0af199a4e99,America/Denver
-105.0793396,39.6360006,4760,S Wadsworth Blvd,Spc GAR76,,,,,,089e1e28579058fb,America/Denver
-105.0809583,39.6342878,4760,S Wadsworth Blvd,Unit A105,,,,,,04194816aaad3955,America/Denver
-105.0797209,39.6345881,4760,S Wadsworth Blvd,Unit C303,,,,,,4007587afebde912,America/Denver
-105.0797937,39.6348903,4760,S Wadsworth Blvd,Spc GAR43,,,,,,eb1e885c5df56d6b,America/Denver
-105.0796768,39.6354335,4760,S Wadsworth Blvd,Spc PK114,,,,,,428c37c1dba73b2a,America/Denver
-104.7675355,39.7989024,5650,N Argonne St,Unit 3-107,,,,,,74dd192096acb868,America/Denver
-104.7651013,39.7995653,5650,N Argonne St,Unit 9-210,,,,,,de836764de44d849,America/Denver
-104.7649735,39.7991966,5650,N Argonne St,Unit 8-201,,,,,,c46c8ac0ac6ddb18,America/Denver
-104.765021,39.7997542,5650,N Argonne St,Unit 9-307,,,,,,8badf66f50435802,America/Denver
-104.7629421,39.8048721,5959,N Dunkirk St,Unit 10-202,,,,,,a888404cbf5e9d04,America/Denver
-104.7661584,39.799226,5650,N Argonne St,Unit 6-305,,,,,,2817a13fed7e1246,America/Denver
-104.7675355,39.7989024,5650,N Argonne St,Unit 3-207,,,,,,ac5991ccb83f8659,America/Denver
-104.7789962,39.7974495,17900,E 56th Ave,Unit 2-112,,,,,,82afb3e57b67f157,America/Denver
-104.7660092,39.7991948,5650,N Argonne St,Unit 6-206,,,,,,15f656af16ad0a33,America/Denver
-104.7629413,39.804614,5959,N Dunkirk St,Unit 10-308,,,,,,d11f9d52212beec7,America/Denver
-104.7662456,39.7987131,5650,N Argonne St,Unit 5-200,,,,,,031e64ebaf545b31,America/Denver
-104.7657604,39.7991603,5650,N Argonne St,Unit 6-110,,,,,,8315885fd1499f38,America/Denver
-104.7676213,39.7992104,5650,N Argonne St,Unit 3-100,,,,,,e26eb9c42100d25e,America/Denver
-104.7659195,39.7985848,5650,N Argonne St,Unit 7-107,,,,,,669ab01ad1c82f10,America/Denver
-104.7659733,39.7992248,5650,N Argonne St,Unit 6-109,,,,,,f7c28f502cc83bdd,America/Denver
-104.7664989,39.7986488,5650,N Argonne St,Unit 5-105,,,,,,142828583fc0f2b0,America/Denver
-104.7630302,39.8046146,5959,N Dunkirk St,Unit 10-307,,,,,,77a152d1f7638ef3,America/Denver
-104.7656803,39.798652,5650,N Argonne St,Unit 7-203,,,,,,81b9919d4913ac87,America/Denver
-104.7650182,39.7990047,5650,N Argonne St,Unit 8-105,,,,,,a29f52c0db5ed93b,America/Denver
-104.7675766,39.7990563,5650,N Argonne St,Unit 3-202,,,,,,a7bb3d60a50b9cf8,America/Denver
-104.779017,39.7971668,17900,E 56th Ave,Unit 2-316,,,,,,0e4bf2de628066f2,America/Denver
-105.0807126,39.6356019,4760,S Wadsworth Blvd,Unit K301,,,,,,c8a16a9eee1de186,America/Denver
-105.0794781,39.6354136,4760,S Wadsworth Blvd,Unit E208,,,,,,4b5a10b817104cf4,America/Denver
-105.0801834,39.635622,4760,S Wadsworth Blvd,Spc GAR61,,,,,,c827967374d29c83,America/Denver
-104.7704522,39.781974,18563,E 47th Ave,,,,,,,c032b461f737ca58,America/Denver
-104.9990567,39.7721793,4055,N Inca St,Unit 658,,,,,,38f599c53dfe80b8,America/Denver
-104.9991011,39.7719407,4055,N Inca St,Unit 572,,,,,,2989fbfa5dbea654,America/Denver
-104.9984946,39.7721715,4055,N Inca St,Unit 629,,,,,,1fb997f187b85154,America/Denver
-104.9986509,39.7727129,4055,N Inca St,Unit 506,,,,,,946cad47e7686041,America/Denver
-104.9991008,39.7719736,4055,N Inca St,Unit 670,,,,,,e23c94bcd51ca522,America/Denver
-104.9984927,39.7719408,4055,N Inca St,Unit 539,,,,,,ffa903eae9aed56c,America/Denver
-104.9986509,39.7727102,4055,N Inca St,Unit 606,,,,,,9299a8373e428eff,America/Denver
-104.7694921,39.7825967,18613,E 47th Pl,,,,,,,a0528034155dad96,America/Denver
-104.9991275,39.7722236,4055,N Inca St,Unit 661,,,,,,a0413fd94d0940af,America/Denver
-104.9987863,39.7721782,4055,N Inca St,Unit 548,,,,,,c3ad7acc78869eaf,America/Denver
-104.9988578,39.7721373,4055,N Inca St,Unit 651,,,,,,54b26a09423209ea,America/Denver
-104.9839193,39.7581462,2600,Lawrence St,Util 2,,,,,,c4af375fe9321a8d,America/Denver
-104.998982,39.7721763,4055,N Inca St,Unit 556,,,,,,aa36af01b344af02,America/Denver
-104.7704375,39.7827014,18555,E 47th Pl,,,,,,,b7448058c5919abf,America/Denver
-104.9918403,39.6698206,363,W Vassar Ave,,,,,,,db43242102e23955,America/Denver
-104.8846795,39.783944,8906,E 48th Ave,Unit 10-207,,,,,,ce9937f8ba4b5a35,America/Denver
-104.884358,39.7832753,8956,E 48th Ave,Unit 11-101,,,,,,f2d84cb9b022150b,America/Denver
-104.883401,39.783262,9064,E 48th Ave,Unit 3-301,,,,,,e4cb5b81476e8375,America/Denver
-104.8837945,39.7838296,9014,E 48th Ave,Unit 2-105,,,,,,cb32e2d08b287f44,America/Denver
-104.8845715,39.7832791,8936,E 48th Ave,Unit 12-301,,,,,,9443689ef16692aa,America/Denver
-104.8842015,39.7832717,8956,E 48th Ave,Unit 11-202,,,,,,c3939cad41a94383,America/Denver
-104.8847523,39.7829451,8945,E 47th Ave,Unit 14-103,,,,,,43aa7ed9d75554e4,America/Denver
-104.8841931,39.7838207,8976,E 48th Ave,Unit 305,,,,,,8e5415d7f9154bb4,America/Denver
-104.8837854,39.7840601,9014,E 48th Ave,Unit 2-303,,,,,,e82d0d85ee627749,America/Denver
-104.9759061,39.6781267,2119,S Ogden St,Apt 1,,,,,,cc551fe2cf999084,America/Denver
-104.8837816,39.7832722,9044,E 48th Ave,Unit 4-102,,,,,,413058f81b5c8a25,America/Denver
-104.8847567,39.7840625,8906,E 48th Ave,Unit 10-103,,,,,,2bf3ad0b73d6b648,America/Denver
-104.8847414,39.7841859,8906,E 48th Ave,Unit 10-302,,,,,,293bf7bcff5d1399,America/Denver
-104.8833202,39.7839561,9094,E 48th Ave,Unit 1-207,,,,,,7856ec493a0f1516,America/Denver
-104.8832455,39.7839503,9094,E 48th Ave,Unit 1-104,,,,,,f6c8cde4983acfb2,America/Denver
-105.0188352,39.7636226,3320,N Bryant St,,,,,,,5bea3807955f6dce,America/Denver
-104.8837163,39.7838264,9014,E 48th Ave,Unit 2-306,,,,,,26b62337c228c915,America/Denver
-104.8832433,39.7833847,9064,E 48th Ave,Unit 3-103,,,,,,828aecd883525613,America/Denver
-104.8842536,39.7834147,8956,E 48th Ave,Unit 11-204,,,,,,ee63d22920733a13,America/Denver
-104.8837222,39.7839582,9014,E 48th Ave,Unit 2-207,,,,,,4dd7ebaf10df556c,America/Denver
-104.8836108,39.7832714,9044,E 48th Ave,Unit 4-101,,,,,,2841d6a3f6b3b4d7,America/Denver
-104.8843453,39.783105,8975,E 47th Ave,Unit 13-201,,,,,,67f9c0bb473d7ef6,America/Denver
-104.8846017,39.7830761,8945,E 47th Ave,Unit 14-201,,,,,,7ef6e728a0ad257a,America/Denver
-104.9555708,39.7247128,526,N Clayton St,,,,,,,baf4968464cae7ac,America/Denver
-105.0079938,39.7346071,1151,N Quivas St,,,,,,,004de8397fe9e26b,America/Denver
-104.9462573,39.7313294,935,N Madison St,,,,,,,b1ce47bc8b7ee9cf,America/Denver
-104.9429693,39.7312151,939,N Jackson St,,,,,,,94a452f7d34246d1,America/Denver
-105.0405479,39.702306,4033,W Ohio Ave,,,,,,,3344ad912ae40d6d,America/Denver
-105.0082638,39.7341388,1145,N Quivas St,,,,,,,91fe1b842e2e8b00,America/Denver
-104.9920434,39.752713,1251,20th St,,,,,,,95a44cabd594fa4e,America/Denver
-104.9368162,39.7509545,4340,E 23rd Ave,,,,,,,8a4aca900e020388,America/Denver
-105.0419135,39.7430045,1611,N Raleigh St,,,,,,,88a8c60ad9cbfbb8,America/Denver
-104.9553782,39.7247888,534,N Clayton St,,,,,,,d5acb2b16aa315b4,America/Denver
-105.0248991,39.6818846,1920,S Federal Blvd,,,,,,,73e4ffe49d399121,America/Denver
-104.9554673,39.7247672,532,N Clayton St,,,,,,,c420b645b757a25a,America/Denver
-104.9896293,39.705201,655,S Broadway,# 3,,,,,,cec5809d05233640,America/Denver
-104.7554902,39.7833079,4805,N Himalaya Rd,,,,,,,6a84b34e5c138d9d,America/Denver
-104.7667561,39.8070646,6025,N Ceylon St,Bldg 8,,,,,,30c3b834c0a48ebb,America/Denver
-104.96603,39.7504291,2251,N Williams St,,,,,,,e636adf35d8dc53d,America/Denver
-104.9893698,39.7051998,655,S Broadway,# 2,,,,,,ed47fd6112295a0c,America/Denver
-104.7660474,39.8067582,6025,N Ceylon St,Bldg 10,,,,,,c2ee283b14f16aba,America/Denver
-104.6745296,39.8739486,9725,N Riverwood St,Unit C,,,,,,2b15989574f12d5d,America/Denver
-104.9860223,39.71629,12,S Lincoln St,,,,,,,a7fc45ca794d77a0,America/Denver
-104.9860261,39.7162571,14,S Lincoln St,,,,,,,00f45b298308cd46,America/Denver
-104.9867177,39.7640854,2888,N Broadway,,,,,,,d66c279fe38d0a7a,America/Denver
-104.9652386,39.7506643,1856,E 23rd Ave,,,,,,,ceda21ab77cf1db2,America/Denver
-104.9872832,39.7577765,2480,N Broadway,,,,,,,aeced0a47489f745,America/Denver
-104.9876753,39.7187158,101,N Broadway,Ste 11,,,,,,3f46abe25c9ca2d2,America/Denver
-104.8463417,39.7822001,12110,E Albrook Dr,,,,,,,0ecd6128f1f3d215,America/Denver
-104.9416798,39.7422395,1612,N Harrison St,,,,,,,dce15ed1043fa14c,America/Denver
-104.674604,39.8745861,9773,N Riverwood St,Unit A,,,,,,c038227926de16af,America/Denver
-104.9566221,39.7363192,1265,N Elizabeth St,Apt 203,,,,,,255bdd9bf105a2d2,America/Denver
-104.9572043,39.7373596,1326,N Columbine St,Apt 4,,,,,,f8ff167d3c9a5450,America/Denver
-104.9565009,39.7363571,1265,N Elizabeth St,Apt 406,,,,,,7da2ea611ea4778c,America/Denver
-104.9583682,39.7376697,1350,N Josephine St,Apt 201,,,,,,80a759b443a9856b,America/Denver
-104.9577101,39.7377134,1365,N Columbine St,Apt 201,,,,,,0f247b5ece5b342d,America/Denver
-104.9583713,39.7377329,1350,N Josephine St,Apt 310,,,,,,54226ddc4e4e2656,America/Denver
-104.9583673,39.7377905,1350,N Josephine St,Apt 409,,,,,,3b730e442cef8022,America/Denver
-104.996746,39.7466552,1040,15th St,,,,,,,24682804774908aa,America/Denver
-104.9571986,39.7371784,1316,N Columbine St,Apt 4,,,,,,45bfb605d9aa0932,America/Denver
-105.0661495,39.6519855,3550,S Kendall St,Unit 10-205,,,,,,47d5fadb5f75fa57,America/Denver
-105.0653041,39.6525863,3550,S Kendall St,Unit 3-201,,,,,,9ffe7f487657df04,America/Denver
-105.0656478,39.6515718,3550,S Kendall St,Unit 6-205,,,,,,0a12426644f99994,America/Denver
-105.0656606,39.6512259,3550,S Kendall St,Unit 8-301,,,,,,c0ede6784a2136d3,America/Denver
-104.9863248,39.7317802,975,N Lincoln St,,,,,,,6286ab9b867cb2ad,America/Denver
-105.0315112,39.7202108,211,N Julian St,Unit D,,,,,,c3506d7f385c1037,America/Denver
-104.9844735,39.762099,2813,Blake St,Ste 170,,,,,,0edf56d9a44525e3,America/Denver
-105.028772,39.7702513,3140,W Denver Pl,,,,,,,f05086e88b65c197,America/Denver
-105.0342405,39.7803234,3595,W 46th Ave,,,,,,,386e917934c5bd5b,America/Denver
-104.8565107,39.7787285,11192,E 45th Ave,,,,,,,891a8616259522e9,America/Denver
-105.0872261,39.6377499,4380,S Ammons St,,,,,,,5d0c5278d8cec5fa,America/Denver
-105.0065116,39.775969,4333,N Pecos St,,,,,,,e6221b975603ac33,America/Denver
-105.0344483,39.6676169,3582,W Yale Ave,,,,,,,1ba39a05d6f44c37,America/Denver
-105.0032781,39.7507953,1400,Wewatta St,Ste 340,,,,,,4b214520804c1c80,America/Denver
-105.0460987,39.778772,4518,N Vrain St,,,,,,,388f1d627fe0228b,America/Denver
-105.0417557,39.7410273,1545,N Raleigh St,,,,,,,e2fe01fa624208ce,America/Denver
-105.0534266,39.6449536,3953,S Sheridan Blvd,,,,,,,dcd176f5a9200c27,America/Denver
-104.988777,39.6997341,945,S Bannock Way,,,,,,,229a3f8560198058,America/Denver
-105.031582,39.7420964,1571,N Julian St,,,,,,,5b6969deebf95b24,America/Denver
-105.0350213,39.6738868,2359,S Lowell Blvd,,,,,,,dcae518445450c4e,America/Denver
-105.0281366,39.7584141,3152,W 29th Ave,,,,,,,b7bb193f8a24a51d,America/Denver
-105.0493675,39.7440436,4861,W 17th Ave,,,,,,,f54c825893abd657,America/Denver
-105.0280227,39.6294858,3188,W Layton Ave,,,,,,,82a397404c5a3255,America/Denver
-104.9776586,39.7653852,3235,Larimer St,Unit 518,,,,,,afd2403c04a2ff18,America/Denver
-104.977457,39.7652223,3235,Larimer St,Unit 111,,,,,,c84bc0c6b850c934,America/Denver
-104.9783796,39.7650535,3235,Larimer St,Unit 436,,,,,,e5715d8465146ede,America/Denver
-104.9775348,39.7652803,3235,Larimer St,Unit 513,,,,,,90b42f29d70a3825,America/Denver
-104.977622,39.7650391,3235,Larimer St,Unit 406,,,,,,973f8a360daae686,America/Denver
-104.9786125,39.7648322,3235,Larimer St,Unit 240,,,,,,e3a204c2a9637cc0,America/Denver
-104.9775648,39.7650773,3235,Larimer St,Unit 508,,,,,,ab0a5b12c67ab573,America/Denver
-104.9782764,39.7645754,3235,Larimer St,Unit 446,,,,,,177ffa63c601aad9,America/Denver
-104.9594485,39.7114709,295,S University Blvd,,,,,,,0c3bd0200ce065a4,America/Denver
-104.9781095,39.7650193,3235,Larimer St,Unit 132,,,,,,f8322170abcb4882,America/Denver
-104.9777383,39.7647102,3235,Larimer St,Unit 353,,,,,,9da72bd4ae238478,America/Denver
-104.9775706,39.7652503,3235,Larimer St,Unit 114,,,,,,209d8fd3f31ec807,America/Denver
-104.977659,39.7653248,3235,Larimer St,Unit 417,,,,,,3d14626ad76bf291,America/Denver
-104.9784745,39.7647272,3235,Larimer St,Unit 442,,,,,,24ffddbeb1aaa2fe,America/Denver
-104.9780084,39.7652248,3235,Larimer St,Unit 127,,,,,,b2866882e8ca4d2e,America/Denver
-104.9780353,39.7644727,3235,Larimer St,Unit 249,,,,,,a697d9bd9f46c211,America/Denver
-105.0104396,39.7621934,1925,W 32nd Ave,Unit 101,,,,,,4bba71693b9ec3f5,America/Denver
-104.8571068,39.6582619,3320,S Kenton St,Apt 1-1302,,,,,,601ad7be99fa56ee,America/Denver
-104.9513664,39.7204436,255,N Saint Paul St,Apt 511,,,,,,d781b379e8c1ea3b,America/Denver
-104.9513398,39.7202046,255,N Saint Paul St,Apt 701,,,,,,22a3a6bd3b613e3c,America/Denver
-104.9045656,39.7157631,7108,E Lowry Blvd,Unit 1134,,,,,,08b58d9538c152d8,America/Denver
-104.9588915,39.734828,1175,N Josephine St,Apt 9,,,,,,b8441cc506388084,America/Denver
-104.9040784,39.7153653,7108,E Lowry Blvd,Unit 3156,,,,,,bfe394c85868168e,America/Denver
-104.9045691,39.7161941,7108,E Lowry Blvd,Unit 1123,,,,,,da8367876af66246,America/Denver
-104.9513648,39.7201992,255,N Saint Paul St,Apt 306,,,,,,0cbb69a91f8b128d,America/Denver
-104.8905512,39.6832086,1885,S Quebec Way,Apt J103,,,,,,e8bce963a4623d1f,America/Denver
-104.9663456,39.7496069,1733,E 22nd Ave,,,,,,,084d3b89f03c7732,America/Denver
-104.8908949,39.6829084,1885,S Quebec Way,Apt H22,,,,,,720d8c139b0c9fb4,America/Denver
-104.8902035,39.6827374,1885,S Quebec Way,Apt C23,,,,,,bde35bdb5f45defd,America/Denver
-104.8906121,39.682734,1885,S Quebec Way,,,,,,,a2ac53315120d224,America/Denver
-104.9369376,39.7132513,4351,E Cedar Ave,,,,,,,e06dd248aef762db,America/Denver
-104.9513398,39.7202019,255,N Saint Paul St,Apt 601,,,,,,1b66c63b93f107d4,America/Denver
-104.9043863,39.7159434,7108,E Lowry Blvd,Unit 3175,,,,,,6032938e2d879ba1,America/Denver
-104.9513699,39.7204436,255,N Saint Paul St,Apt 211,,,,,,2c28ba894248a627,America/Denver
-104.9040785,39.7166144,7108,E Lowry Blvd,Unit 1189,,,,,,6ccbd5f0e0d69629,America/Denver
-104.8895072,39.6823137,1885,S Quebec Way,Apt A29,,,,,,3e1d0c2bb91d32fd,America/Denver
-104.9662317,39.7496201,1737,E 22nd Ave,Apt 7,,,,,,f0f06a0d70f3a158,America/Denver
-104.9258835,39.7244509,500,N Glencoe St,,,,,,,bd6c30328fbb3dd9,America/Denver
-104.8902212,39.6823312,1885,S Quebec Way,Apt B15,,,,,,6c21c3b0ffc65bc4,America/Denver
-104.8901611,39.6827125,1885,S Quebec Way,Apt C24,,,,,,6906d6ec7f380a71,America/Denver
-104.9045992,39.7155711,7108,E Lowry Blvd,Unit 3145,,,,,,63eced11b61dd601,America/Denver
-104.9042312,39.7153798,7108,E Lowry Blvd,Unit 4155,,,,,,2a6f5ea5012e5f6e,America/Denver
-104.9041123,39.7155604,7108,E Lowry Blvd,Unit 3160,,,,,,345758e97f474cf5,America/Denver
-104.9041167,39.7154616,7108,E Lowry Blvd,Unit 2158,,,,,,a5885b951cb241a1,America/Denver
-104.9513711,39.7207456,255,N Saint Paul St,Apt 219,,,,,,1e676a46400b94df,America/Denver
-104.9045562,39.7160294,7108,E Lowry Blvd,Unit 2129,,,,,,f7f48338ef1f2361,America/Denver
-104.9045598,39.7160294,7108,E Lowry Blvd,Unit 4129,,,,,,2d4145c20d210e1b,America/Denver
-104.9046897,39.7153767,7108,E Lowry Blvd,Unit 2149,,,,,,c7cce688ce53f754,America/Denver
-104.9045758,39.7166609,7108,E Lowry Blvd,Unit 3112,,,,,,bd1014905474e49a,America/Denver
-104.904448,39.7153782,7108,E Lowry Blvd,Unit 3153,,,,,,bcddda36e2e437cd,America/Denver
-104.9045036,39.7159467,7108,E Lowry Blvd,Unit 3176,,,,,,9a596f5ed5a06d1c,America/Denver
-104.9514234,39.7381537,1374,N Milwaukee St,Apt 2,,,,,,bca8b624eca7d03a,America/Denver
-104.9497896,39.7370095,1313,N Steele St,Apt 205,,,,,,6b9a80c047a77d50,America/Denver
-104.9498338,39.7372678,1327,N Steele St,Apt 104,,,,,,9ce3aeeea24d149a,America/Denver
-104.9947952,39.7883964,5050,N Fox St,Ste A,,,,,,3b4242a4689b6fdd,America/Denver
-104.9498338,39.7372678,1327,N Steele St,Apt 204,,,,,,bc0ac4fffc7509fb,America/Denver
-104.9497007,39.7370091,1313,N Steele St,Apt 504,,,,,,48e529ac5517a695,America/Denver
-104.9577996,39.7390068,1431,N Columbine St,Apt 6,,,,,,de95d44f312acc93,America/Denver
-104.9514525,39.7376212,1342,N Milwaukee St,Apt 5,,,,,,c0d1d1365bffb10f,America/Denver
-104.9576221,39.7389703,1431,N Columbine St,,,,,,,008e125e024c90a5,America/Denver
-104.9531771,39.7385324,1401,N Fillmore St,Apt 2,,,,,,293a90899c2a57cc,America/Denver
-104.9498683,39.7369495,1313,N Steele St,Apt 201,,,,,,026d92811933a020,America/Denver
-104.9496384,39.7372504,1327,N Steele St,,,,,,,dda1d4ef39cb739d,America/Denver
-104.9429282,39.7122119,245,S Jackson St,,,,,,,8f7b0406c0076e58,America/Denver
-104.9430193,39.7119378,257,S Jackson St,Bldg C,,,,,,df54de082599e354,America/Denver
-104.9514557,39.7376706,1342,N Milwaukee St,Apt 2,,,,,,b593c04349f953ea,America/Denver
-104.9498683,39.7369495,1313,N Steele St,Apt 601,,,,,,10fb2519a2635242,America/Denver
-104.9498714,39.7370071,1313,N Steele St,Apt 306,,,,,,536c34e963131fbc,America/Denver
-104.9565576,39.7382214,2530,E 14th Ave,Apt 4,,,,,,310536dfce29cf18,America/Denver
-104.9531771,39.7385324,1401,N Fillmore St,Apt 5,,,,,,d86aa3580fc30fd4,America/Denver
-104.9585364,39.7389223,1420,N Josephine St,,,,,,,8e335c6d8fff15f8,America/Denver
-104.8751364,39.7991051,9637,E 56th Pl,,,,,,,499015b58ab88b34,America/Denver
-105.0311289,39.6572016,3400,S Lowell Blvd,Apt 7-106,,,,,,8a5698134f6aac2a,America/Denver
-105.0179012,39.7535684,2496,N Alcott St,,,,,,,1e6bad9ffdbaf6e5,America/Denver
-105.0302448,39.6571597,3400,S Lowell Blvd,Apt 6-306,,,,,,b520b9609170a3be,America/Denver
-105.0307435,39.6590724,3400,S Lowell Blvd,Apt 13-208,,,,,,8df9164e29e90017,America/Denver
-105.0299627,39.6589814,3400,S Lowell Blvd,Apt 1-208,,,,,,22d7893ee075afed,America/Denver
-104.8729867,39.7991184,9815,E 56th Pl,,,,,,,646552248fb0019f,America/Denver
-105.0317783,39.6572948,3400,S Lowell Blvd,Apt 8-105,,,,,,e1ca0c9632b0b386,America/Denver
-105.0307435,39.6590724,3400,S Lowell Blvd,Apt 13-308,,,,,,333ba6e50807ac86,America/Denver
-105.0301206,39.6582024,3400,S Lowell Blvd,Apt 3-302,,,,,,3b71d7d6be6ee262,America/Denver
-104.8738266,39.7991146,9787,E 56th Pl,,,,,,,67552cd2f8d9aa75,America/Denver
-105.0302563,39.6586285,3400,S Lowell Blvd,Apt 2-206,,,,,,eedc8924a0f5425a,America/Denver
-105.0304895,39.6577454,3400,S Lowell Blvd,Apt 5-106,,,,,,26e8390c73d6c420,America/Denver
-105.0311213,39.6572785,3400,S Lowell Blvd,Apt 7-201,,,,,,d3dfc502b56f5af4,America/Denver
-105.0308216,39.6590727,3400,S Lowell Blvd,Apt 13-306,,,,,,d56816e83aaf9849,America/Denver
-105.0326513,39.6574081,3400,S Lowell Blvd,Apt 9-304,,,,,,f418b7e12d5fe6e7,America/Denver
-105.0308037,39.6590946,3400,S Lowell Blvd,Apt 13-305,,,,,,4a10ea9c7444ac37,America/Denver
-104.8743818,39.7991121,9707,E 56th Pl,,,,,,,d5ca3c74cf30d7b9,America/Denver
-105.0316217,39.6573436,3400,S Lowell Blvd,Apt 8-104,,,,,,a16525562eef66ee,America/Denver
-105.0307579,39.6590505,3400,S Lowell Blvd,Apt 13-207,,,,,,7c1492c5db2f2f02,America/Denver
-105.0304858,39.6577728,3400,S Lowell Blvd,Apt 5-105,,,,,,027981fd7ef9748b,America/Denver
-105.0311506,39.6576794,3400,S Lowell Blvd,,,,,,,a02a3111ac7d7821,America/Denver
-105.030861,39.659029,3400,S Lowell Blvd,Apt 13-302,,,,,,cebe32a4ec222567,America/Denver
-105.0310871,39.658673,3400,S Lowell Blvd,Apt 12-203,,,,,,1fe23a2cc01b6695,America/Denver
-105.0310089,39.6586946,3400,S Lowell Blvd,Apt 12-301,,,,,,11731fe2c0d3d54b,America/Denver
-105.0299621,39.6590775,3400,S Lowell Blvd,Apt 1-206,,,,,,d36ec05cc6295a36,America/Denver
-104.9462775,39.6639128,2959,S Madison St,,,,,,,364a51cd06519cd4,America/Denver
-104.9700246,39.7856356,5004,Packing House Rd,,,,,,,2cab47283855f286,America/Denver
-104.8917834,39.6529475,8402,E Hampden Ave,,,,,,,34ee356c1eac1d44,America/Denver
-104.8733642,39.6689468,2630,S Dayton Way,,,,,,,f1bb02940119ff72,America/Denver
-104.933919,39.6935063,1274,S Cherry St,,,,,,,07111f03dc944ea4,America/Denver
-104.7719485,39.78967,5104,N Tower Rd,,,,,,,525e3680ac7a50e7,America/Denver
-104.7659976,39.7717613,4006,N Argonne St,,,,,,,a85fba9fd056e69b,America/Denver
-104.9877425,39.6686141,2653,S Broadway,,,,,,,9d5ab0eb6df3497e,America/Denver
-105.0142831,39.7578114,2830,N Wyandot St,Apt A,,,,,,545fdc68916d1224,America/Denver
-104.7558075,39.7829173,20098,Green Valley Ranch Blvd,,,,,,,99071b6d3020b05a,America/Denver
-104.9734575,39.7563758,2733,N Downing St,,,,,,,69bad46ebfd01b30,America/Denver
-104.9125038,39.745422,1818,N Monaco Street Pkwy,,,,,,,fde415cf2ce52834,America/Denver
-104.9307891,39.7302151,859,N Eudora St,,,,,,,3ae4d0436398c2ec,America/Denver
-105.0142832,39.7577977,2830,N Wyandot St,Apt B,,,,,,aad94f92ae3ab83e,America/Denver
-104.9419066,39.7655753,3457,N Harrison St,,,,,,,ad37e7802fa11850,America/Denver
-104.7377803,39.7886,5142,N Orleans St,,,,,,,c9b60d0335cff649,America/Denver
-104.9419106,39.7655204,3455,N Harrison St,,,,,,,37fb58d03b325213,America/Denver
-104.7658314,39.7957841,19046,E Maxwell Pl,,,,,,,009c85837b05541c,America/Denver
-104.8906964,39.7524378,2475,N Central Park Blvd,,,,,,,d503f3c233b5cde4,America/Denver
-104.9195628,39.7304101,895,N Jersey St,,,,,,,d3650714f0c4fa8b,America/Denver
-104.8853325,39.7646703,3496,N Xenia St,,,,,,,4ba58883d559e302,America/Denver
-105.0155193,39.7580499,2880,N Zuni St,Unit 201,,,,,,d649a769b805ef1d,America/Denver
-105.0154507,39.7581951,2880,N Zuni St,Unit 405,,,,,,b3954c3ece590fdf,America/Denver
-105.0153265,39.7581424,2880,N Zuni St,Unit 408,,,,,,a37bf7ef3f4a90f6,America/Denver
-104.9330216,39.7302561,853,N Dexter St,,,,,,,a23ec5916646ea32,America/Denver
-105.0152975,39.7582301,2880,N Zuni St,Unit 210,,,,,,b3e06fff8c968ac0,America/Denver
-105.0153265,39.7581424,2880,N Zuni St,Unit 208,,,,,,fe34bb1e134e99ac,America/Denver
-104.95876,39.668476,2660,S University Blvd,Unit L,,,,,,333d848ad0d9a3ca,America/Denver
-105.0194149,39.6837154,1827,S Canosa Ct,,,,,,,88a4679ce14ec761,America/Denver
-104.9111474,39.6960437,6620,E Mississippi Ave,,,,,,,9a1c9f9566daf2d0,America/Denver
-104.8752866,39.6696791,2525,S Dayton Way,Apt 1711,,,,,,f7bbfd52019645b3,America/Denver
-104.9110742,39.6958841,6640,E Mississippi Ave,Apt 9,,,,,,5e2c39408a1ead1c,America/Denver
-104.9793104,39.750365,317,24th St,,,,,,,263e766a018ebc46,America/Denver
-104.9795103,39.7497839,2349,Court Pl,# 105,,,,,,153ccae33ca15c8b,America/Denver
-104.8759943,39.6707947,2525,S Dayton Way,Apt 1509,,,,,,a22961a58839e2b5,America/Denver
-104.8756931,39.6711088,2525,S Dayton Way,Apt 1402,,,,,,4063a593ca6d11e5,America/Denver
-105.0205769,39.6837009,1829,S Clay St,,,,,,,dae09d2d7d0fc6f9,America/Denver
-104.9320372,39.7306302,875,N Dahlia St,Unit 203,,,,,,30a2ae32468e1e5d,America/Denver
-104.8760027,39.6706437,2525,S Dayton Way,Apt 1510,,,,,,360f419f103796d9,America/Denver
-104.9906882,39.7615441,2520,Wewatta Way,Unit 215,,,,,,d16af7118563ed02,America/Denver
-104.9907236,39.7615689,2520,Wewatta Way,Unit 214,,,,,,9a4b3ecf4e9491e2,America/Denver
-104.9906892,39.7614095,2520,Wewatta Way,Unit 611,,,,,,bfb71cb74a729331,America/Denver
-104.9905235,39.7616971,2520,Wewatta Way,Unit 424,,,,,,83bc33f9c8c376d0,America/Denver
-104.9192275,39.739564,1454,N Jersey St,Apt 201,,,,,,f14c5f152e02119c,America/Denver
-104.9901877,39.7614074,2520,Wewatta Way,Unit 333,,,,,,f7e4ae14aabe7c6d,America/Denver
-104.9907313,39.7614866,2520,Wewatta Way,Unit 612,,,,,,e30946c86f4a3ede,America/Denver
-104.9903065,39.7616934,2520,Wewatta Way,Unit 730,,,,,,d2e9ce5a43273800,America/Denver
-104.9907281,39.7614372,2520,Wewatta Way,Unit 310,,,,,,c67bb8bfadc00ee8,America/Denver
-105.0328241,39.7061656,3461.0 1/2,W Center Ave,,,,,,,45a84e3d5381c548,America/Denver
-104.9907155,39.7617089,2520,Wewatta Way,Unit 818,,,,,,8148181d39ced8ea,America/Denver
-104.9901805,39.7614101,2520,Wewatta Way,Unit 733,,,,,,9f7fe4725da5beed,America/Denver
-104.9907155,39.7617089,2520,Wewatta Way,Unit 618,,,,,,73563ed5fb5b44a4,America/Denver
-104.990181,39.761347,2520,Wewatta Way,Unit 435,,,,,,4440d764575ad7dd,America/Denver
-104.9901886,39.7612784,2520,Wewatta Way,Unit 837,,,,,,3d9ac1b2edf8acc1,America/Denver
-104.9906877,39.7616209,2520,Wewatta Way,Unit 817,,,,,,7a82e8028b704c05,America/Denver
-104.9901859,39.7611603,2520,Wewatta Way,Unit 341,,,,,,2f47dcbe6a1c087e,America/Denver
-104.9900227,39.7611047,2520,Wewatta Way,Unit 749,,,,,,8429d5577896425e,America/Denver
-104.9897914,39.7611202,2520,Wewatta Way,Unit 253,,,,,,a10d39c50cf7c9dd,America/Denver
-104.9904882,39.7616612,2520,Wewatta Way,Unit 223,,,,,,2059b237b50eae14,America/Denver
-104.9901039,39.7616788,2520,Wewatta Way,Unit 634,,,,,,b3d803bf6716b454,America/Denver
-104.9753491,39.7597884,3087,Stout St,,,,,,,2935d1a23d240ccf,America/Denver
-104.9763561,39.7592548,819,30th St,Unit 200,,,,,,3c2f647d85c69db4,America/Denver
-104.9762075,39.7591498,805,30th St,Unit 200,,,,,,1953cb7e653b6ea2,America/Denver
-104.9592706,39.6681352,2674,S University Blvd,,,,,,,01579eae73477072,America/Denver
-104.8214619,39.7753444,14604,E Andrews Dr,,,,,,,a066a64a6d2a2471,America/Denver
-104.9752379,39.7599087,804,31st St,Unit 200,,,,,,4da3d265658317b3,America/Denver
-104.976289,39.7592023,811,30th St,Unit 200,,,,,,8c4d96bb9c850a28,America/Denver
-104.9512744,39.7367501,3042,E 13th Ave,,,,,,,2814b51e9971557c,America/Denver
-104.97625,39.7591747,807,30th St,,,,,,,08e66e39c7ef6a14,America/Denver
-104.9760791,39.7592041,3011,Stout St,Ste 100,,,,,,84763c1b1fc57693,America/Denver
-104.9760456,39.7593961,3029,Stout St,Unit 200,,,,,,e5030cb9705e1bf9,America/Denver
-104.9889463,39.7433492,370,17th St,Ste 400,,,,,,07d1737e73e0baad,America/Denver
-104.9889463,39.7433492,370,17th St,Ste 300,,,,,,970492a617604d24,America/Denver
-105.0406872,39.7336961,1037,N Quitman St,,,,,,,b1093c47ae02f841,America/Denver
-104.9762783,39.759194,809,30th St,,,,,,,2b9e2d36d874607a,America/Denver
-104.9127644,39.7049631,618,S Monaco Street Pkwy,,,,,,,745f8bc6f657230c,America/Denver
-104.9760315,39.7593878,3027,Stout St,Unit 200,,,,,,6a7968d3c855ccf8,America/Denver
-104.9773997,39.7500024,2227.0 1/2,N Clarkson St,,,,,,,4cde206cc5a7b9e8,America/Denver
-104.9224139,39.7213921,321,N Holly St,,,,,,,04ff83a8a44b192f,America/Denver
-105.0801328,39.6357701,4760,S Wadsworth Blvd,Spc PK303,,,,,,39ce3d9c3b65399f,America/Denver
-104.983261,39.7726574,3459,Ringsby Ct,Ste 304,,,,,,e1c645e7d271db49,America/Denver
-104.9766693,39.7597119,3012,Champa St,,,,,,,3ca4285fa28c64ce,America/Denver
-104.9984822,39.772424,4055,N Inca St,Unit 419,,,,,,3c78314a16359e79,America/Denver
-104.998539,39.7724297,4055,N Inca St,Unit 418,,,,,,ca9f6bce170312b7,America/Denver
-104.9833215,39.7726576,3459,Ringsby Ct,Ste 303,,,,,,dccd28f311530c67,America/Denver
-104.9762901,39.7599957,3052,Champa St,,,,,,,323fc84bbf22a193,America/Denver
-104.9756357,39.7595206,3051,Stout St,,,,,,,8b252bc8b84129cf,America/Denver
-104.9755784,39.7595643,3053,Stout St,,,,,,,d0b77d8a0769cd12,America/Denver
-104.9833326,39.7725973,3459,Ringsby Ct,Ste 300,,,,,,74a3dea2b379e913,America/Denver
-104.9831927,39.7727504,3459,Ringsby Ct,Ste 205,,,,,,0e822539df965794,America/Denver
-104.9985411,39.7726411,4055,N Inca St,Unit 410,,,,,,c69369dea4f4e667,America/Denver
-104.9833999,39.7726388,3459,Ringsby Ct,Ste 301,,,,,,4f5a207f4452fd19,America/Denver
-104.9987363,39.7727105,4055,N Inca St,Unit 404,,,,,,6de1b3b68469b32a,America/Denver
-104.9596125,39.7381696,1370,N York St,,,,,,,cba6ee18940f7c59,America/Denver
-104.9226867,39.6882465,1585,S Holly St,,,,,,,8d54fa07d44b960e,America/Denver
-104.9226597,39.6880625,1585,S Holly St,Apt 219,,,,,,2a81494ec8945d7d,America/Denver
-104.8502423,39.7821037,12000,E 47th Ave,Ste 402,,,,,,2edd250faa4600d0,America/Denver
-104.9703242,39.7393933,1450,N Lafayette St,Apt 3,,,,,,b13b5e6f4cad6d3b,America/Denver
-104.9709083,39.7355086,1205,N Lafayette St,Apt 8,,,,,,f30f34c08e6cfc0d,America/Denver
-104.9700403,39.7393179,1441,N Humboldt St,Spc PK31,,,,,,de492b989f052c9f,America/Denver
-104.9699057,39.7392514,1441,N Humboldt St,Apt 201,,,,,,d58f49dff17d00d5,America/Denver
-104.9698275,39.739251,1441,N Humboldt St,Apt 702,,,,,,ea4845501f225ff6,America/Denver
-104.9699057,39.7392514,1441,N Humboldt St,Apt 401,,,,,,a653bc5e996a2ea1,America/Denver
-104.96884,39.7292455,1515,E 8th Ave,,,,,,,f55117a5e923b722,America/Denver
-104.9700396,39.7394112,1441,N Humboldt St,Spc PK35,,,,,,085732af0ae0475c,America/Denver
-104.9696998,39.7396732,1475,N Humboldt St,Apt 25,,,,,,844b95ae1b8ba066,America/Denver
-104.9697741,39.7392508,1441,N Humboldt St,Apt 403,,,,,,1dacbc063e2669da,America/Denver
-104.9699152,39.7394107,1441,N Humboldt St,Apt 208,,,,,,ff94b185ff1d2c1c,America/Denver
-104.9699922,39.7391035,1441,N Humboldt St,Spc PK03,,,,,,64db29f770497541,America/Denver
-104.9698071,39.7395941,1475,N Humboldt St,Apt 16,,,,,,a58a4fc629d76f00,America/Denver
-104.9698002,39.7390999,1441,N Humboldt St,Spc PK09,,,,,,15311407eb205994,America/Denver
-104.9699571,39.7395097,1441,N Humboldt St,Spc PK41,,,,,,506b8e6edc7d6e10,America/Denver
-104.9697056,39.7398544,1475,N Humboldt St,Apt 1,,,,,,8c8a5ce1ce0edde1,America/Denver
-105.0395109,39.7357586,1251,N Perry St,,,,,,,e279127d03bbf6aa,America/Denver
-104.9040781,39.7158265,7108,E Lowry Blvd,Unit 2169,,,,,,1d5e5a10da7cb861,America/Denver
-104.9045633,39.7156176,7108,E Lowry Blvd,Unit 4144,,,,,,920ffd6fd4ffdfd4,America/Denver
-104.9513091,39.720037,255,N Saint Paul St,Apt 603,,,,,,b4072076f490c21d,America/Denver
-104.9046465,39.7158651,7108,E Lowry Blvd,Unit 3130,,,,,,fa9f4991d716f453,America/Denver
-104.9048494,39.7158304,7108,E Lowry Blvd,Unit 1127,,,,,,bc5a541be8df272b,America/Denver
-104.9046355,39.7167435,7108,E Lowry Blvd,Unit 4110,,,,,,04c2eca0503e730b,America/Denver
-104.9045619,39.7157851,7108,E Lowry Blvd,Unit 1133,,,,,,c6548b14649653a7,America/Denver
-104.9049234,39.716745,7108,E Lowry Blvd,Unit 3104,,,,,,c1c9a9dad8a3182b,America/Denver
-104.9045673,39.7155627,7108,E Lowry Blvd,Unit 3146,,,,,,0ba2a3b124d5866c,America/Denver
-104.8913338,39.6822738,1885,S Quebec Way,Apt G107,,,,,,cec0577d0a9f44c3,America/Denver
-104.9669631,39.7502521,2240,N Gilpin St,,,,,,,ed53c213a26b7632,America/Denver
-104.8913247,39.6825071,1885,S Quebec Way,Apt G101,,,,,,cbf78963666520b8,America/Denver
-104.9590046,39.7349191,2330,E 12th Ave,,,,,,,c5511cacafa7b327,America/Denver
-104.8905685,39.6824373,1885,S Quebec Way,Apt E27,,,,,,84aabb8b207cff92,America/Denver
-104.8908758,39.6834711,1885,S Quebec Way,Apt L102,,,,,,0f70148fa564359f,America/Denver
-104.9590158,39.7348561,2330,E 12th Ave,Apt 17,,,,,,57b6badcf8333ca9,America/Denver
-104.9041224,39.7156236,7108,E Lowry Blvd,Unit 4162,,,,,,3929c54f3c7e855f,America/Denver
-104.9513699,39.7204436,255,N Saint Paul St,Apt 411,,,,,,f81b16507d036f8f,America/Denver
-105.0069964,39.6959108,1145,S Quivas St,Apt 103,,,,,,5f546f818b2bfcd4,America/Denver
-105.0071954,39.6959117,1145,S Quivas St,Apt 207,,,,,,ee69d3fb4958c62b,America/Denver
-105.0511585,39.7664845,5014,W 36th Ave,Unit 2,,,,,,516952e0125f70e1,America/Denver
-105.0071065,39.695914,1145,S Quivas St,Apt 105,,,,,,339e46c3a72c8086,America/Denver
-105.0512509,39.7664931,5018,W 36th Ave,,,,,,,c0128ae40ec31516,America/Denver
-105.0071954,39.6959117,1145,S Quivas St,Apt 107,,,,,,727ddcf0c1b09549,America/Denver
-105.0072015,39.6960517,1145,S Quivas St,Apt 108,,,,,,dc3303cc3f0e17ee,America/Denver
-105.0069076,39.6959104,1145,S Quivas St,Apt 201,,,,,,0f923d8a32ace21a,America/Denver
-105.0510448,39.7664594,5012,W 36th Ave,Unit 1,,,,,,80d1159f7454e5af,America/Denver
-105.0072015,39.6960517,1145,S Quivas St,Apt 208,,,,,,c94bc24071bdad97,America/Denver
-105.0069919,39.6960508,1145,S Quivas St,Apt 104,,,,,,fd338f457ab63fcf,America/Denver
-105.0511691,39.7664846,5014,W 36th Ave,,,,,,,912a2648cd9b8e4a,America/Denver
-105.0069964,39.6959108,1145,S Quivas St,Apt 303,,,,,,b36408a94d6352f6,America/Denver
-105.0511484,39.7663884,5014,W 36th Ave,Unit 5,,,,,,01e245efeb319d18,America/Denver
-105.0071056,39.696054,1145,S Quivas St,Apt 306,,,,,,1f48288a446fd892,America/Denver
-104.9387045,39.7336546,1155,N Ash St,Apt 501,,,,,,d0996a549670a023,America/Denver
-104.9396812,39.7333517,1121,N Albion St,,,,,,,ba218c474c2f0ee7,America/Denver
-104.9387045,39.7336546,1155,N Ash St,Apt 701,,,,,,573d6b67ad8b9302,America/Denver
-104.9397557,39.7333631,1121,N Albion St,Apt 206,,,,,,c8f3c2b7a8657725,America/Denver
-104.9387026,39.7338852,1155,N Ash St,Apt 407,,,,,,86fce631b8dc6813,America/Denver
-105.0072015,39.6960517,1145,S Quivas St,Apt 308,,,,,,436099062a61b861,America/Denver
-105.0310292,39.6572507,3400,S Lowell Blvd,Apt 7-303,,,,,,1b20c9e34c38a9ae,America/Denver
-105.0300124,39.6589871,3400,S Lowell Blvd,Apt 1-107,,,,,,636851320ffc606f,America/Denver
-105.0303935,39.6577697,3400,S Lowell Blvd,Apt 5-308,,,,,,5d983fb8c807af41,America/Denver
-105.0316789,39.6572862,3400,S Lowell Blvd,Apt 8-307,,,,,,a781b78457976299,America/Denver
-105.0301452,39.657184,3400,S Lowell Blvd,Apt 6-307,,,,,,5d6ed1fa172f5e29,America/Denver
-105.0304759,39.6576548,3400,S Lowell Blvd,Apt 5-301,,,,,,b319222099080af2,America/Denver
-104.8742145,39.799114,9737,E 56th Pl,,,,,,,ed38512131f8c14e,America/Denver
-105.0300745,39.6582022,3400,S Lowell Blvd,Apt 3-106,,,,,,cf228aa1b9961ffd,America/Denver
-105.0317783,39.6572948,3400,S Lowell Blvd,Apt 8-305,,,,,,6d13e190b471b0f2,America/Denver
-105.0301206,39.6582024,3400,S Lowell Blvd,Apt 3-102,,,,,,e05171b66b3bc546,America/Denver
-104.8673918,39.7991352,10337,E 56th Pl,,,,,,,f66e93708b691aa9,America/Denver
-105.0308187,39.6589766,3400,S Lowell Blvd,Apt 13-304,,,,,,2c89770e09e674a7,America/Denver
-104.9001441,39.7339859,1145,N Rosemary St,Unit 103,,,,,,02165c70564b9ae0,America/Denver
-105.030224,39.6586833,3400,S Lowell Blvd,Apt 2-102,,,,,,7848634b9d591b25,America/Denver
-105.0301642,39.6585979,3400,S Lowell Blvd,Apt 2-108,,,,,,bdca6160031ce131,America/Denver
-105.0300354,39.6582021,3400,S Lowell Blvd,Apt 3-205,,,,,,d6ac43db53c4966d,America/Denver
-105.0306051,39.6579984,3400,S Lowell Blvd,Apt 4-304,,,,,,0dfe1dcf89e41978,America/Denver
-105.0310442,39.658714,3400,S Lowell Blvd,Apt 12-302,,,,,,53fc8448fb2107cf,America/Denver
-105.0300745,39.6582022,3400,S Lowell Blvd,Apt 3-306,,,,,,f95a032135888f4c,America/Denver
-105.0323161,39.6576044,3400,S Lowell Blvd,Apt 10-301,,,,,,ff8325df55415893,America/Denver
-105.030861,39.659029,3400,S Lowell Blvd,Apt 13-102,,,,,,9ba9ffd0853f2d81,America/Denver
-105.032319,39.6577005,3400,S Lowell Blvd,Apt 10-107,,,,,,94d0b5791f3d85ef,America/Denver
-105.0299195,39.6590719,3400,S Lowell Blvd,Apt 1-305,,,,,,b55fdb8a7bb362b4,America/Denver
-104.8753042,39.669292,2525,S Dayton Way,Apt 1806,,,,,,1707f6206a99623d,America/Denver
-105.0217646,39.6835575,1831,S Dale Ct,,,,,,,21d40fc61605e9c7,America/Denver
-104.8757599,39.6703844,2525,S Dayton Way,Apt 1606,,,,,,4cf2d11fd8b5ef66,America/Denver
-104.9112133,39.6958244,6640,E Mississippi Ave,Apt 2,,,,,,80bc819d523b97e1,America/Denver
-105.0199524,39.6814884,1950,S Clay St,,,,,,,c65295414501216a,America/Denver
-104.9324048,39.7300198,836,N Dexter St,Apt 304,,,,,,7aa4ec5436dc3fef,America/Denver
-104.9107635,39.696061,6660,E Mississippi Ave,Apt 2,,,,,,137edac792c7a1cc,America/Denver
-104.948767,39.7196243,3235,E 2nd Ave,,,,,,,0ea0616609e486ad,America/Denver
-105.0178242,39.6830335,1864,S Bryant St,,,,,,,8e7d243a1dc615f5,America/Denver
-105.0140552,39.6829164,1865,S Wyandot St,,,,,,,9eab05e3db35b809,America/Denver
-104.9326321,39.7300593,836,N Dexter St,Apt 301,,,,,,698239eabaca0408,America/Denver
-105.0140337,39.6834627,1835,S Wyandot St,,,,,,,eac30fcdcb3c2137,America/Denver
-104.8751691,39.6697059,2525,S Dayton Way,Apt 1706,,,,,,5ebc52d9125f49ba,America/Denver
-105.0217663,39.6838293,1811,S Dale Ct,,,,,,,2e0a4659b6d146b2,America/Denver
-104.9778832,39.7600549,2980,Curtis St,,,,,,,002e05e573220094,America/Denver
-104.9112128,39.6958821,6640,E Mississippi Ave,Apt 3,,,,,,c157f8670b5e0aab,America/Denver
-104.9107614,39.6958935,6680,E Mississippi Ave,Apt 2,,,,,,5ecdc38f36ca65cd,America/Denver
-105.0140196,39.6839595,1805,S Wyandot St,,,,,,,cf55310303a9662f,America/Denver
-104.8745525,39.6695324,2525,S Dayton Way,Apt 2009,,,,,,011b091d4f3e3b04,America/Denver
-104.9111597,39.6958488,6640,E Mississippi Ave,,,,,,,3ddd08cbc65d610b,America/Denver
-104.9906841,39.7616209,2520,Wewatta Way,Unit 217,,,,,,e28fc032b9aa74a8,America/Denver
-104.9901806,39.7614073,2520,Wewatta Way,Unit 433,,,,,,537ec9ca7c04bff1,America/Denver
-104.99073,39.7611791,2520,Wewatta Way,Unit 303,,,,,,b83a2ed8f67d4a7e,America/Denver
-104.9907265,39.7611764,2520,Wewatta Way,Unit 103,,,,,,b022de46074dfc2d,America/Denver
-104.9907654,39.7612012,2520,Wewatta Way,Unit 704,,,,,,fde567781137d050,America/Denver
-104.9901851,39.7612728,2520,Wewatta Way,Unit 437,,,,,,ee3a3a1591f8f2ed,America/Denver
-104.990769,39.7612013,2520,Wewatta Way,Unit 604,,,,,,4adfffa6bf330788,America/Denver
-104.9901075,39.7616761,2520,Wewatta Way,Unit 134,,,,,,84e32f2f95668d9c,America/Denver
-104.9901782,39.7612371,2520,Wewatta Way,Unit 239,,,,,,c461219f1595616b,America/Denver
-104.9907388,39.76144,2520,Wewatta Way,Unit 710,,,,,,030ee206096802c5,America/Denver
-104.9906892,39.7614095,2520,Wewatta Way,Unit 311,,,,,,a0f2e6af98b10d63,America/Denver
-104.9897949,39.7611202,2520,Wewatta Way,Unit 653,,,,,,efd3895c0b8a4b82,America/Denver
-104.9898442,39.7616804,2520,Wewatta Way,Unit 638,,,,,,93e63a39f2e09ef8,America/Denver
-104.9906882,39.7615441,2520,Wewatta Way,Unit 315,,,,,,8fbb2107fa228164,America/Denver
-104.9907119,39.7612175,2520,Wewatta Way,Unit 505,,,,,,ec44e59bba5ad90e,America/Denver
-104.9615301,39.7838923,2199,E 48th Ave,,,,,,,bf1d81e50cd2a3ce,America/Denver
-104.7708313,39.7828109,4772,N Tower Ct,,,,,,,1aad992855a7dde1,America/Denver
-105.001092,39.73863,1045,W 14th Ave,Apt 205,,,,,,0222afe3d1b91814,America/Denver
-105.0013694,39.7386257,1045,W 14th Ave,Apt 201,,,,,,74f16dd6cb1ea543,America/Denver
-104.7696927,39.7817881,4726,N Tower Dr,,,,,,,fe7544b85a9d7061,America/Denver
-105.0012485,39.738628,1045,W 14th Ave,Apt 203,,,,,,bf46bda05d682be5,America/Denver
-104.7689154,39.7822829,4750,N Tower Dr,,,,,,,614ccb6ff7ba1635,America/Denver
-104.77047,39.7812905,4664,N Tower Dr,,,,,,,c53d3b86ad3a293a,America/Denver
-104.7702193,39.7814482,4694,N Tower Dr,,,,,,,d1bb619537e86b42,America/Denver
-104.7683029,39.7826717,4768,N Tower Dr,,,,,,,a0387245730848ef,America/Denver
-104.9691827,39.7295353,820,N Humboldt St,Apt 2,,,,,,4853b1f8047dfa66,America/Denver
-104.9699057,39.7392514,1441,N Humboldt St,Apt 101,,,,,,949dde5b67b574b2,America/Denver
-104.9697869,39.7394375,1441,N Humboldt St,Apt 506,,,,,,af2ca2351c2308ac,America/Denver
-104.9711266,39.734373,1131,N Lafayette St,Apt 106,,,,,,3ab0e813d6bef297,America/Denver
-104.9698022,39.7397753,1475,N Humboldt St,Apt 4,,,,,,e3140d0a42315430,America/Denver
-104.9699152,39.7394107,1441,N Humboldt St,Apt 608,,,,,,a3d7d82209ef70d6,America/Denver
-104.9697338,39.7394153,1441,N Humboldt St,Apt 205,,,,,,9d0e845171717941,America/Denver
-104.9711832,39.7353588,1321,E 12th Ave,Apt 2,,,,,,ca0e013fc0420947,America/Denver
-104.9700313,39.739101,1441,N Humboldt St,Spc PK02,,,,,,ff2026deef93d0c0,America/Denver
-104.9958881,39.7210491,625,W 3rd Ave,,,,,,,744920445a1b91c5,America/Denver
-104.9696933,39.7395936,1475,N Humboldt St,Apt 28,,,,,,2aa5d52fdcb0ac3b,America/Denver
-104.9700363,39.7393837,1441,N Humboldt St,Spc PK34,,,,,,400d58c52eaa77e0,America/Denver
-105.0110588,39.7641917,3342,N Tejon St,,,,,,,5dc6f834fe4aca70,America/Denver
-104.6739934,39.8740931,9736,N Riverwood St,Unit B,,,,,,95ae18f839f0b29b,America/Denver
-104.6783216,39.8541273,26490,E 88th Ave,,,,,,,aace90bb30508154,America/Denver
-104.9961297,39.7210748,302,N Galapago St,,,,,,,d8989173fd6c6259,America/Denver
-104.6740108,39.873525,9710,N Riverwood St,Unit C,,,,,,90b64a995933d22f,America/Denver
-104.677812,39.8541457,26560,E 88th Ave,,,,,,,401d2a98670928dd,America/Denver
-104.6794507,39.8541214,26380,E 88th Ave,,,,,,,18505c1322ed96ea,America/Denver
-105.0397573,39.7751593,4010,W 43rd Ave,,,,,,,3bea2063185c08f5,America/Denver
-104.6808396,39.8541393,26250,E 88th Ave,,,,,,,cf69f6a4cb4d4bf0,America/Denver
-104.9046854,39.7163045,7108,E Lowry Blvd,Unit 3117,,,,,,d42f46ffb6ab3d79,America/Denver
-104.9045691,39.7161914,7108,E Lowry Blvd,Unit 3126,,,,,,becb9e711287f65c,America/Denver
-104.9040753,39.7161477,7108,E Lowry Blvd,Unit 1181,,,,,,03c3de69de282974,America/Denver
-104.9041167,39.7154589,7108,E Lowry Blvd,Unit 4158,,,,,,286ecdf0cb73092b,America/Denver
-104.904121,39.7157993,7108,E Lowry Blvd,Unit 1172,,,,,,8e4edcf699841a5d,America/Denver
-104.9043272,39.7153748,7108,E Lowry Blvd,Unit 3154,,,,,,21d7ba461939a517,America/Denver
-104.9045036,39.715944,7108,E Lowry Blvd,Unit 4176,,,,,,7785d03c468da09b,America/Denver
-104.9043009,39.7159567,7108,E Lowry Blvd,Unit 4174,,,,,,55a57ab170a31a9a,America/Denver
-104.9049271,39.7163085,7108,E Lowry Blvd,Unit 2121,,,,,,ace9429a1fa146b0,America/Denver
-104.9046021,39.7156535,7108,E Lowry Blvd,Unit 2143,,,,,,0b8090255163ead4,America/Denver
-104.9047709,39.715863,7108,E Lowry Blvd,Unit 4132,,,,,,8ad61a815430109f,America/Denver
-104.9045756,39.71542,7108,E Lowry Blvd,Unit 1142,,,,,,247863cceb62d5bd,America/Denver
-104.9513091,39.720037,255,N Saint Paul St,Apt 403,,,,,,05aa58c75832f88b,America/Denver
-104.9048134,39.7163052,7108,E Lowry Blvd,Unit 3119,,,,,,7dbbe7556e6d86d2,America/Denver
-104.9365135,39.7133838,185,S Birch St,,,,,,,30125e0e5c80b37a,America/Denver
-104.9514441,39.7200514,255,N Saint Paul St,Apt 305,,,,,,ca0d21a88047a0a5,America/Denver
-104.9048488,39.7167419,7108,E Lowry Blvd,Unit 4106,,,,,,47871f435da29e9e,America/Denver
-104.9052614,39.7167138,7108,E Lowry Blvd,Unit 4100,,,,,,51fd398d27c97b61,America/Denver
-104.9397492,39.7332889,1121,N Albion St,Apt 504,,,,,,e29a4ad321756c25,America/Denver
-104.9654511,39.7811155,4650,N Williams St,,,,,,,6ab2998ca18cd972,America/Denver
-104.9652084,39.7812132,4658,N Williams St,,,,,,,a95c83290ef38379,America/Denver
-105.0075186,39.695946,1725,W Mosier Pl,Unit 101,,,,,,832e2b637ce6de26,America/Denver
-104.9398168,39.7332838,1121,N Albion St,Apt 403,,,,,,6542008232ccfd4b,America/Denver
-104.9398168,39.7332838,1121,N Albion St,Apt 503,,,,,,3a0aadcc93a56199,America/Denver
-104.9386608,39.7337779,1155,N Ash St,Apt 1404,,,,,,a50001d4388e1f9b,America/Denver
-104.9398086,39.7334182,1121,N Albion St,Apt 907,,,,,,a23f92f7c8724593,America/Denver
-104.9397517,39.7334207,1121,N Albion St,Apt 308,,,,,,988c0b95823d0526,America/Denver
-104.9387035,39.7337781,1155,N Ash St,Apt 1203,,,,,,385d0cf90760f19f,America/Denver
-104.9386563,39.7339014,1155,N Ash St,Apt 1504,,,,,,9255384b0d5e4a8f,America/Denver
-104.9386608,39.7337779,1155,N Ash St,Apt 204,,,,,,b815ae2ef5f384ec,America/Denver
-104.9387045,39.7336546,1155,N Ash St,Apt 301,,,,,,edbfff3e79b05781,America/Denver
-104.9397604,39.7332286,1121,N Albion St,Apt 402,,,,,,a82e4b46863d4a23,America/Denver
-104.9873183,39.7203806,250,N Broadway,Unit 110,,,,,,23c4186d4e3388e3,America/Denver
-105.0071056,39.696054,1145,S Quivas St,Apt 106,,,,,,972d1fcd8ca5e883,America/Denver
-105.0069919,39.6960508,1145,S Quivas St,Apt 304,,,,,,902f1552baa864ff,America/Denver
-105.0071056,39.696054,1145,S Quivas St,Apt 206,,,,,,b4ae69200ebcb88b,America/Denver
-104.9398045,39.7334896,1121,N Albion St,Apt 101,,,,,,540f5c0b32455e32,America/Denver
-105.0304793,39.657685,3400,S Lowell Blvd,Apt 5-202,,,,,,51f12ae3f62e9dfe,America/Denver
-105.0311256,39.6571742,3400,S Lowell Blvd,Apt 7-205,,,,,,561944748bdd2d90,America/Denver
-105.0327229,39.6573123,3400,S Lowell Blvd,Apt 9-108,,,,,,b0ef36dde09d71c9,America/Denver
-105.0302132,39.6587052,3400,S Lowell Blvd,Apt 2-201,,,,,,6cfe82eb08b810fc,America/Denver
-104.8729084,39.7991152,9817,E 56th Pl,,,,,,,be467eade60fb024,America/Denver
-104.8724599,39.7991211,9835,E 56th Pl,,,,,,,b0c2a0b903a3735b,America/Denver
-105.0305617,39.6581053,3400,S Lowell Blvd,Apt 4-308,,,,,,57202da3966607f3,America/Denver
-105.0306433,39.6581221,3400,S Lowell Blvd,Apt 4-105,,,,,,edfc6a4b65026145,America/Denver
-105.0310442,39.658714,3400,S Lowell Blvd,Apt 12-102,,,,,,b393a897fc2cc630,America/Denver
-105.0311256,39.6571742,3400,S Lowell Blvd,Apt 7-105,,,,,,39aeabd6e5169717,America/Denver
-105.0326692,39.6573807,3400,S Lowell Blvd,Apt 9-303,,,,,,7cc01c7da1477581,America/Denver
-105.0301589,39.6572664,3400,S Lowell Blvd,Apt 6-304,,,,,,ba6135750c97070c,America/Denver
-105.0305617,39.6581053,3400,S Lowell Blvd,Apt 4-108,,,,,,49ef0c3c796fc688,America/Denver
-104.8679043,39.7991297,10257,E 56th Pl,,,,,,,6baf04887b26b9ba,America/Denver
-105.0113653,39.7646103,3403,N Tejon St,,,,,,,77462eba1c816e1a,America/Denver
-105.0300082,39.6590887,3400,S Lowell Blvd,Apt 1-202,,,,,,19684f54fc6baf57,America/Denver
-105.0300082,39.6590887,3400,S Lowell Blvd,Apt 1-302,,,,,,6185c894873bbd96,America/Denver
-105.0324043,39.6576981,3400,S Lowell Blvd,Apt 10-105,,,,,,7826d40a0bba5b8a,America/Denver
-105.0302455,39.6586449,3400,S Lowell Blvd,Apt 2-305,,,,,,e277264cd938b928,America/Denver
-105.0326943,39.6573424,3400,S Lowell Blvd,Apt 9-107,,,,,,440d9f7688adf4a3,America/Denver
-104.8746737,39.7991137,9697,E 56th Pl,,,,,,,c4abc112d5ba0941,America/Denver
-105.0322767,39.6576482,3400,S Lowell Blvd,Apt 10-203,,,,,,0ef4745bfbc17304,America/Denver
-105.0090022,39.7622423,1845,W 32nd Ave,Unit A,,,,,,8fb47d26c2995290,America/Denver
-105.0323228,39.6576704,3400,S Lowell Blvd,Bldg 10,,,,,,2ba174d22f6c4d40,America/Denver
-104.911308,39.6963959,6600,E Mississippi Ave,Apt 10,,,,,,aaca89b091872126,America/Denver
-105.0154151,39.6825377,1880,S Zuni St,,,,,,,1242b59d4fa45a85,America/Denver
-104.8763695,39.671343,2525,S Dayton Way,Apt 1302,,,,,,13217b01e4ddc414,America/Denver
-104.8755985,39.67096,2525,S Dayton Way,Apt 1404,,,,,,cf9ae310ed1f7f9d,America/Denver
-105.0217673,39.6836811,1821,S Dale Ct,,,,,,,2246a6ee843e4e82,America/Denver
-105.0192409,39.6821471,2616,W Jewell Ave,,,,,,,885546c4c28791ca,America/Denver
-104.8759679,39.6705639,2525,S Dayton Way,Apt 1506,,,,,,1ba4b92405072a4a,America/Denver
-105.0213062,39.6835584,1830,S Dale Ct,,,,,,,a59febee03649fec,America/Denver
-104.8764292,39.6714202,2525,S Dayton Way,Apt 1301,,,,,,20470a7fbc45ca7e,America/Denver
