lon,lat,number,street,unit,city,district,region,postcode,id,hash,tz
-122.8077278,45.4715614,6635,SW JUNIPER TER,,,,,97008,,b6a8d42425fde548,America/Los_Angeles
-122.8356634,45.4385864,11225,SW PINTAIL LOOP,,,,,97007,,08ae3df798df8b90,America/Los_Angeles
-122.8252379,45.4481709,9930,SW WRANGLER PL,,,,,97008,,1c7e1f7df752663e,America/Los_Angeles
-122.8354211,45.4535977,9174,SW PLATINUM PL,,,,,97007,,b364854408ee431e,America/Los_Angeles
-122.8315771,45.4949449,15040,SW MILLIKAN WAY,# 233,,,,97003,,0e97796ba31ba3b4,America/Los_Angeles
-122.7950339,45.4470259,10006,SW CONESTOGA DR,# 113,,,,97008,,2b5307be5bfeb026,America/Los_Angeles
-122.8072836,45.4908594,12600,SW CRESCENT ST,# 126,,,,97005,,4d74167f00f63f50,America/Los_Angeles
-122.8211801,45.4689303,7100,SW 140TH PL,,,,,97008,,c5568631f0b9de9c,America/Los_Angeles
-122.831154,45.4317057,15050,SW MALLARD DR,# 101,,,,97007,,dbd1321080ce9682,America/Los_Angeles
-122.8162856,45.4442878,10460,SW 136TH PL,,,,,97008,,008faab8a9a3e519,America/Los_Angeles
-122.829839,45.4311545,12305,SW HORIZON BLVD,# 205,,,,97007,,d36fdfed788b5d1a,America/Los_Angeles
-122.8075119,45.4871265,4545,SW ANGEL AVE,# 424,,,,97005,,6af2dfcbfbcb2a06,America/Los_Angeles
-122.8155235,45.4614481,8080,SW 135TH AVE,,,,,97008,,6d1b66fae3903bc7,America/Los_Angeles
-122.7959156,45.5260782,766,NW 118TH AVE,# 101,,,,97229,,190a773ececc80a4,America/Los_Angeles
-122.7983339,45.5175662,11790,SW BARNES RD,# 330,,,,97225,,a8db68f86a70455c,America/Los_Angeles
-122.8283106,45.4689302,7055,SW TIERRA DEL MAR DR,,,,,97007,,2596e6ec3bbaaa76,America/Los_Angeles
-122.7936699,45.4480901,9916,SW CONESTOGA DR,# 235,,,,97008,,4ded88958fd89f3c,America/Los_Angeles
-122.8033458,45.4630264,7823,SW HEWITT PL,,,,,97008,,00bcac8a37a47f68,America/Los_Angeles
-122.8064462,45.4897716,4145,SW WATSON AVE,# 400,,,,97005,,8a8b5cc42e036261,America/Los_Angeles
-122.8433748,45.4338078,16170,SW WHITEBIRD ST,,,,,97007,,793c66d392053c20,America/Los_Angeles
-122.7983711,45.5264492,11735,NW WINTER PARK TER,# 304,,,,97229,,70a60221a0347330,America/Los_Angeles
-122.834416,45.4348648,11633,SW TEAL BLVD,# H,,,,97007,,fb2dbcb379867952,America/Los_Angeles
-122.7918414,45.4847176,4801,SW LARCH DR,,,,,97005,,37c57f190d8ff69a,America/Los_Angeles
-122.7786555,45.4829412,5125,SW CHESTNUT AVE,,,,,97005,,a72bb84e16a55ae2,America/Los_Angeles
-122.8160947,45.4625016,13535,SW HARGIS RD,,,,,97008,,47e687aad7c7580e,America/Los_Angeles
-122.8101067,45.4911624,12900,SW CRESCENT ST,# 410,,,,97005,,7ccb8a6f8cc3712b,America/Los_Angeles
-122.7959912,45.4470083,10216,SW CONESTOGA DR,# 85,,,,97008,,e28a7dee09eb4109,America/Los_Angeles
-122.8400822,45.5253708,810,NW ISLAND TER,,,,,97006,,b1ac1a6b1b46620a,America/Los_Angeles
-122.8647753,45.5275618,18265,NW SEDGEWICK CT,,,,,97006,,f2331ebbf007b198,America/Los_Angeles
-122.8454887,45.5203505,16375,NW SCHENDEL AVE,# A,,,,97006,,32427b7a0360a375,America/Los_Angeles
-122.8325229,45.4990881,2868,SW 153RD DR,# 205,,,,97003,,f51d6c12d5a22a11,America/Los_Angeles
-122.8401192,45.5270905,1115,NW 158TH AVE,# 211,,,,97006,,b821a20d5adc628d,America/Los_Angeles
-122.8299175,45.4407295,15242,SW TEAL BLVD,# F,,,,97007,,267e253380d64ca5,America/Los_Angeles
-122.8443604,45.428143,12635,SW NIGHT HERON LN,,,,,97007,,75ec904d0d8f9113,America/Los_Angeles
-122.8081058,45.4899761,12725,SW MILLIKAN WAY,# 333,,,,97005,,5954225882df52ff,America/Los_Angeles
-122.7845938,45.4675383,7275,SW 105TH AVE,,,,,97008,,17ada375910d2a05,America/Los_Angeles
-122.8208416,45.4861669,4656,SW 141ST AVE,,,,,97005,,c9007dd193049be9,America/Los_Angeles
-122.8302751,45.4318679,14800,SW SANDHILL LOOP,# 101,,,,97007,,f05d5dac63079ee1,America/Los_Angeles
-122.8234455,45.4384765,11215,SW DAVIES RD,# 616,,,,97007,,b43ff82b64398f10,America/Los_Angeles
-122.8047037,45.4913968,12396,SW CENTER ST,# 180,,,,97005,,9fc525cc0305c2eb,America/Los_Angeles
-122.8153349,45.4617197,13465,SW LANCEWOOD ST,,,,,97008,,3140f4fd8fff7eaf,America/Los_Angeles
-122.8350147,45.4763446,6080,SW GLENBROOK RD,,,,,97007,,f978ee56d499f0ff,America/Los_Angeles
-122.8176782,45.4836094,5025,SW MENLO DR,# 5,,,,97005,,2559ad48ddc9552b,America/Los_Angeles
-122.8253966,45.4669114,7290,SW WILSON CT,,,,,97008,,8740a13e099f6028,America/Los_Angeles
-122.7628529,45.5017308,2510,SW 84TH AVE,,,,,97225,,6f580e8b5dfff4d3,America/Los_Angeles
-122.8432095,45.5117139,1118,SW 162ND AVE,,,,,97006,,17871357a8b70704,America/Los_Angeles
-122.8523363,45.5201462,55,SW WALLINGFORD WAY,,,,,97006,,cc0ec1d70017ed9d,America/Los_Angeles
-122.7994304,45.4927487,3737,SW 117TH AVE,# 34,,,,97005,,fd40d8faf73feb23,America/Los_Angeles
-122.8438245,45.5144923,16360,SW ESTUARY DR,# 104,,,,97006,,a6fb887027af55c8,America/Los_Angeles
-122.8286338,45.4363203,14700,SW SCHOLLS FERRY RD,# 113,,,,97007,,43e1cfe971ed6c16,America/Los_Angeles
-122.810848,45.4590172,8430,SW MONTICELLO CT,,,,,97008,,b8ed99ed31df586e,America/Los_Angeles
-122.7903696,45.4745158,6220,SW 112TH AVE,# 100,,,,97008,,3fdf871de5ce1388,America/Los_Angeles
-122.8122963,45.4816101,13120,SW HAZEL ST,,,,,97005,,6bf2e258c07f62d6,America/Los_Angeles
-122.7905101,45.5189598,11057,SW WASHINGTON ST,,,,,97225,,b4905fe3ba9ac3fc,America/Los_Angeles
-122.7856796,45.5167419,434,SW VALERIA VIEW DR,# 304,,,,97225,,178dbcc2b18d96f5,America/Los_Angeles
-122.8479582,45.5145984,700,SW 166TH AVE,,,,,97006,,8ee639d5d8adba8e,America/Los_Angeles
-122.8057522,45.4950459,3455,SW 125TH AVE,,,,,97005,,b2e440c96060f67e,America/Los_Angeles
-122.7967651,45.5221066,385,NW 116TH AVE,# 401,,,,97229,,b7d1d3c635d18c1a,America/Los_Angeles
-122.8211947,45.4417918,14015,SW TEAL BLVD,,,,,97008,,98c905ef4456979a,America/Los_Angeles
-122.8115272,45.4744471,13010,SW 17TH ST,,,,,97008,,20ff9acfa31a2795,America/Los_Angeles
-122.8444206,45.452466,16450,SW GOLD VIEW WAY,,,,,97007,,e386ad37f6e98569,America/Los_Angeles
-122.7984762,45.4636774,11785,SW TIMBERLINE DR,,,,,97008,,c27e8499f42cb4e1,America/Los_Angeles
-122.7991051,45.4615679,8045,SW HALL BLVD,# 28,,,,97008,,4d7186bdc3642b40,America/Los_Angeles
-122.832972,45.4498371,15190,SW SAPPHIRE DR,,,,,97007,,462677754d61df45,America/Los_Angeles
-122.7493712,45.5036072,7021,SW CANYON RD,,,,,97225,,17ddb122a13831fa,America/Los_Angeles
-122.7990866,45.4584825,11895,SW MURPHY LN,,,,,97008,,5b2d8dffad694a3a,America/Los_Angeles
-122.7919679,45.466171,11170,SW BLAKENEY ST,,,,,97008,,749e1fedfa4bbec9,America/Los_Angeles
-122.8436769,45.4923365,16205,SW AUDUBON ST,# 203,,,,97003,,e5a104c2b6c4c87d,America/Los_Angeles
-122.8603397,45.5221381,351,NW KOTRIK PL,,,,,97006,,7095a6f875593c61,America/Los_Angeles
-122.8328192,45.4942079,15110,SW MILLIKAN WAY,# 1128,,,,97003,,a0ecb42fa66cc965,America/Los_Angeles
-122.8457993,45.4747484,16425,SW IVY GLENN ST,,,,,97007,,23ce44d30842329c,America/Los_Angeles
-122.790967,45.4618547,8079,SW CIRRUS DR,,,,,97008,,5037fa5654a599ee,America/Los_Angeles
-122.7621336,45.4838476,8330,SW APPLE WAY,# 201,,,,97225,,75f384408ed3fb54,America/Los_Angeles
-122.7613806,45.4859663,8225,SW APPLE WAY,# 103,,,,97225,,c3c251fc222e1fbb,America/Los_Angeles
-122.8370931,45.45014,15575,SW BRECCIA DR,,,,,97007,,26fb3abb5e71dc86,America/Los_Angeles
-122.8287283,45.452038,14704,SW BEARD RD,# 136,,,,97007,,a2fce28f3e57d9d6,America/Los_Angeles
-122.7886929,45.4824489,10950,SW 5TH ST,# 245,,,,97005,,c7c83c8b7dd678a9,America/Los_Angeles
-122.7967471,45.4652047,11625,SW RIDGEVIEW TER,,,,,97008,,9fa1b85bf61afbb3,America/Los_Angeles
-122.814863,45.476878,5972,SW MENLO DR,,,,,97005,,b774e75ec5c29430,America/Los_Angeles
-122.8314168,45.4492609,9785,SW 151ST AVE,,,,,97007,,ad2d8a6aee9d2816,America/Los_Angeles
-122.7974348,45.4593457,8320,SW GREENWAY,,,,,97008,,3484137476e13d64,America/Los_Angeles
-122.8066875,45.4855813,4705,SW WATSON AVE,,,,,97005,,179f8fe3c0a93356,America/Los_Angeles
-122.8276284,45.4807195,5335,SW MURRAY BLVD,# 102,,,,97005,,3a6a44284b11934b,America/Los_Angeles
-122.7975283,45.4505668,11740,SW ROBBINS DR,,,,,97008,,6b4b3c5ffca62445,America/Los_Angeles
-122.825454,45.4571877,8695,SW MAVERICK TER,# 110,,,,97008,,6398c4c53708a677,America/Los_Angeles
-122.8283219,45.4506076,14720,SW BEARD RD,# 103,,,,97007,,5a0bd75fba208583,America/Los_Angeles
-122.8250711,45.478149,14390,SW LISA LN,,,,,97005,,665f5d25fbd90c45,America/Los_Angeles
-122.8301323,45.460386,8225,SW GEARHART DR,,,,,97007,,2eead7674ee0728b,America/Los_Angeles
-122.8225561,45.4836644,5022,SW ROCKLYNN PL,,,,,97005,,1e3211ba0a4e088d,America/Los_Angeles
-122.8275039,45.4569025,8700,SW 147TH TER,# 104,,,,97007,,6b12c466d3c80884,America/Los_Angeles
-122.808517,45.4910157,12875,SW CRESCENT ST,# 624,,,,97005,,663c9ea29b4e066d,America/Los_Angeles
-122.839842,45.4332182,12015,SW TURNSTONE AVE,,,,,97007,,de7e6902ef3f09e0,America/Los_Angeles
-122.8303457,45.4977522,14827,SW MILLIKAN WAY,,,,,97003,,f1dbd2be17cd1e7d,America/Los_Angeles
-122.8450095,45.4674051,7265,SW 163RD PL,,,,,97007,,4cc3cff4820d069f,America/Los_Angeles
-122.813001,45.4662711,7415,SW HART PL,,,,,97008,,f87d10c081a0371b,America/Los_Angeles
-122.8480324,45.522228,16605,NW TORREY PINES CT,,,,,97006,,3a8b88a5e9799ea3,America/Los_Angeles
-122.827708,45.4951854,14641,SW MILLIKAN WAY,,,,,97003,,6c3fbd3a944c31df,America/Los_Angeles
-122.8644214,45.5183989,158,SW SALIX TER,,,,,97006,,1f1975798b1dab1d,America/Los_Angeles
-122.826616,45.435667,14540,SW QUAIL LN,# 207,,,,97007,,78053c194fbc75f1,America/Los_Angeles
-122.8285779,45.484776,14640,SW FARMINGTON RD,# 52,,,,97007,,990522009c7f7634,America/Los_Angeles
-122.8319833,45.43297,12053,SW HORIZON BLVD,,,,,97007,,16c853aefc2ff168,America/Los_Angeles
-122.8375679,45.4538526,15595,SW REDSTONE DR,,,,,97007,,fdcc04d15be64e8a,America/Los_Angeles
-122.8305016,45.4972037,14929,SW MILLIKAN WAY,# 1113,,,,97003,,37c4d62a42e82db5,America/Los_Angeles
-122.8276964,45.4436029,14675,SW OSPREY DR,# 422,,,,97007,,72344cc77fe25caa,America/Los_Angeles
-122.7721598,45.4818709,5270,SW SPRUCE AVE,,,,,97005,,e6a93eca01f2e7e9,America/Los_Angeles
-122.8306723,45.5156817,630,SW 150TH AVE,# 211,,,,97006,,acefb6d41d8c7dee,America/Los_Angeles
-122.8377889,45.4386827,15816,SW BOBWHITE CIR,,,,,97007,,df4436894acaf208,America/Los_Angeles
-122.7984977,45.4616722,8095,SW HALL BLVD,# 31,,,,97008,,1866f7144fc68853,America/Los_Angeles
-122.8170761,45.4568153,8740,SW BRIDLETRAIL AVE,,,,,97008,,dc97e8a8efd052c5,America/Los_Angeles
-122.8111011,45.4773568,5920,SW ERICKSON AVE,# 19,,,,97005,,7300d6ed063a585c,America/Los_Angeles
-122.8134248,45.4499277,9775,SW HIALEAH DR,,,,,97008,,60a2bdee2802e567,America/Los_Angeles
-122.8355669,45.465826,7490,SW 154TH PL,,,,,97007,,36f71d58e2065ff2,America/Los_Angeles
-122.8390731,45.431699,12200,SW 158TH AVE,,,,,97007,,76b9dd15f69fa9e2,America/Los_Angeles
-122.7793499,45.4827921,5170,SW ELM AVE,,,,,97005,,149fe9c8ef9b9675,America/Los_Angeles
-122.8052365,45.4777878,5890,SW HALL BLVD,# 3,,,,97005,,dc31cf677ed8ec42,America/Los_Angeles
-122.8248843,45.443787,14320,SW COUGAR RIDGE DR,,,,,97008,,8d47d9f6c474b2d5,America/Los_Angeles
-122.7802766,45.4575721,8703,SW BRIGHTFIELD CIR,,,,,97223,,f570d5aad147bc25,America/Los_Angeles
-122.8324299,45.4411144,15208,SW TEAL BLVD,# E,,,,97007,,6829ab662a05e7e5,America/Los_Angeles
-122.8423312,45.5207971,16055,NW SCHENDEL AVE,# G,,,,97006,,72331263760ce4b8,America/Los_Angeles
-122.8634014,45.5255073,18104,NW WALKER RD,# A,,,,97006,,e652a7f3f2379b04,America/Los_Angeles
-122.8034695,45.4443082,12270,SW PIONEER LN,# 155,,,,97008,,89ce236ece5ee1c1,America/Los_Angeles
-122.8178005,45.4826931,13720,SW 6TH ST,# 1,,,,97005,,cd81a4886092fffd,America/Los_Angeles
-122.818441,45.4820775,13735,SW HAZEL ST,# 104,,,,97005,,189f69c17f733533,America/Los_Angeles
-122.8125036,45.4760461,6075,SW ERICKSON AVE,,,,,97008,,2118d41c87a2ad00,America/Los_Angeles
-122.8405528,45.5274742,1115,NW 158TH AVE,# 405,,,,97006,,b42c8621064550b6,America/Los_Angeles
-122.816588,45.4916965,13605,SW ELECTRIC ST,,,,,97005,,791f928cee0a908e,America/Los_Angeles
-122.7813941,45.4750322,10140,SW ALLEN BLVD,# B,,,,97005,,2533717c56ac475c,America/Los_Angeles
-122.8296535,45.4299096,14925,SW BARROWS RD,# 105,,,,97007,,0ec42c7ec7ac7709,America/Los_Angeles
-122.8407781,45.5274303,1115,NW 158TH AVE,# 406,,,,97006,,be9435dfdfaa7986,America/Los_Angeles
-122.8640133,45.525407,18090,NW WALKER RD,# C,,,,97006,,829673d1e90d448d,America/Los_Angeles
-122.7894715,45.4543972,8910,SW GEMINI DR,,,,,97008,,98ad8384cf40b1bd,America/Los_Angeles
-122.8139805,45.461878,13325,SW LANCEWOOD ST,,,,,97008,,b179f461b4bdb7e7,America/Los_Angeles
-122.8214364,45.4419083,14025,SW TEAL BLVD,,,,,97008,,7fdcf7c0cd0b6313,America/Los_Angeles
-122.8509954,45.5128152,16942,SW STEELE WAY,,,,,97006,,85c59f39e751443c,America/Los_Angeles
-122.7996222,45.4864433,11900,SW BEAVERTON HILLSDALE HWY,,,,,97005,,956354fe6bf38723,America/Los_Angeles
-122.775789,45.4755155,9610,SW SUNSHINE CT,# 100,,,,97005,,cefbe07faa9acc40,America/Los_Angeles
-122.7955771,45.4801855,5472,SW ALGER AVE,# B14,,,,97005,,f1ae48ec325081ba,America/Los_Angeles
-122.8058464,45.4650465,7600,SW ESCALON PL,,,,,97008,,56457a9a88f9d9f6,America/Los_Angeles
-122.833773,45.4942749,15150,SW MILLIKAN WAY,# 837,,,,97003,,7176b75cb533e6b5,America/Los_Angeles
-122.8598313,45.5240176,17790,NW CAMBRAY ST,,,,,97006,,fb3bedd809996641,America/Los_Angeles
-122.7937485,45.4752984,6150,SW KING BLVD,# 64,,,,97008,,feb86bae218f3e33,America/Los_Angeles
-122.8279474,45.4812128,5335,SW MURRAY BLVD,# 238,,,,97005,,b2f552de11011f66,America/Los_Angeles
-122.8354622,45.4318867,15445,SW SPARROW LOOP,,,,,97007,,d1376a0cd7dc4e83,America/Los_Angeles
-122.8247672,45.4394649,14350,SW TEAL BLVD,# F,,,,97008,,0758b611a11ad923,America/Los_Angeles
-122.7566768,45.4649214,7700,SW GARDEN HOME RD,# 31,,,,97223,,bdae825064e3b497,America/Los_Angeles
-122.8280353,45.4827561,14665,SW REDBUD WAY,,,,,97007,,fe0b398c5c645edd,America/Los_Angeles
-122.8209174,45.4768938,13985,SW ALLEN BLVD,# 8,,,,97005,,e6d08106f04619f0,America/Los_Angeles
-122.8093045,45.4825792,5155,SW MAIN AVE,,,,,97005,,f64097451cea5975,America/Los_Angeles
-122.8021007,45.4485857,12195,SW SPUR CT,,,,,97008,,37040a4c6b7f3a73,America/Los_Angeles
-122.7891375,45.4938453,3630,SW 110TH AVE,,,,,97005,,979b34aa6b1e567e,America/Los_Angeles
-122.807556,45.4900465,12725,SW MILLIKAN WAY,# 313,,,,97005,,4879cf31c9f4db9f,America/Los_Angeles
-122.8443969,45.4930154,16133,SW AUDUBON ST,,,,,97003,,6ff38179d62b4315,America/Los_Angeles
-122.811569,45.4740464,13080,SW 17TH ST,,,,,97008,,e10bfcf2a85e5b58,America/Los_Angeles
-122.8024877,45.4898602,4125,SW LOMBARD AVE,,,,,97005,,48d234d3272707cf,America/Los_Angeles
-122.8312963,45.4406794,15226,SW TEAL BLVD,# B,,,,97007,,4d0ddcade9ac7e7e,America/Los_Angeles
-122.8012216,45.4880796,4352,SW LOMBARD AVE,,,,,97005,,51331a7663f89f36,America/Los_Angeles
-122.773985,45.4736134,6455,SW CHESTNUT LN,,,,,97005,,d6581af14822f7c6,America/Los_Angeles
-122.7841515,45.5165266,466,SW VALERIA VIEW DR,# 203,,,,97225,,1e968051987f9076,America/Los_Angeles
-122.7949927,45.4470057,10006,SW CONESTOGA DR,# 115,,,,97008,,c6b176d700cc72b4,America/Los_Angeles
-122.7960612,45.5255773,736,NW 118TH AVE,# 104,,,,97229,,afbf1bc5f646bd88,America/Los_Angeles
-122.8010905,45.4895942,4130,SW LOMBARD AVE,# 110,,,,97005,,70fe3c8426ed4eff,America/Los_Angeles
-122.8531958,45.5268012,948,NW 170TH DR,,,,,97006,,d27473c8a23a7524,America/Los_Angeles
-122.8311971,45.4564717,14955,SW ONYX CT,,,,,97007,,b07cbc21a50447eb,America/Los_Angeles
-122.8033616,45.52238,315,NW LOST SPRINGS TER,# 404,,,,97229,,99fac7e552abe290,America/Los_Angeles
-122.8088269,45.4916944,3800,SW CEDAR HILLS BLVD,# 241,,,,97005,,0f50ce7e204c448b,America/Los_Angeles
-122.7997397,45.4837854,4875,SW PACIFIC AVE,,,,,97005,,8c4f89ad78b30363,America/Los_Angeles
-122.8082329,45.4760395,12800,SW ALLEN BLVD,# C,,,,97005,,9b30ab0e5c9296c0,America/Los_Angeles
-122.8000976,45.5246792,620,NW LOST SPRINGS TER,# 301,,,,97229,,de7d532fec726e89,America/Los_Angeles
-122.7971564,45.4928872,3670,SW 117TH AVE,# 137,,,,97005,,b2b534259e9a33c4,America/Los_Angeles
-122.7778055,45.4664318,7405,SW SCHOLLS FERRY RD,# 3,,,,97008,,5fae20eb80fc021d,America/Los_Angeles
-122.8145006,45.4733085,13405,SW WHISTLING WAY,,,,,97008,,2e8e8ff3997ed912,America/Los_Angeles
-122.8282393,45.4837434,5005,SW MURRAY BLVD,# 602,,,,97005,,daa0f9acede1877e,America/Los_Angeles
-122.8435616,45.4281359,16260,SW WHISTLING SWAN LN,,,,,97007,,db020b070587b8e7,America/Los_Angeles
-122.8140495,45.4486228,9895,SW PIMLICO TER,,,,,97008,,eb49fe1bf6081e56,America/Los_Angeles
-122.8073875,45.4564073,12745,SW JENNETT CT,,,,,97008,,e012e43e95a33dc5,America/Los_Angeles
-122.8446025,45.4492987,9785,SW 163RD AVE,,,,,97007,,4457e46231f1bacf,America/Los_Angeles
-122.8523339,45.5256379,833,NW 170TH DR,,,,,97006,,6feca0be5ec4dc0d,America/Los_Angeles
-122.8258372,45.4641047,7690,SW MURRAY BLVD,,,,,97008,,828494fcba6c3e92,America/Los_Angeles
-122.7861158,45.4855549,10700,SW BEAVERTON HILLSDALE HWY,# 215,,,,97005,,dc1861c1089dcae7,America/Los_Angeles
-122.8189109,45.4625316,13800,SW HARGIS RD,,,,,97008,,fafb50feb67c7d4f,America/Los_Angeles
-122.8134775,45.4612488,13225,SW BLUEBELL LN,,,,,97008,,0d53ae5cb27d3f34,America/Los_Angeles
-122.8069045,45.4947418,3479,SW 126TH AVE,,,,,97005,,7ca6045569771327,America/Los_Angeles
-122.8508272,45.5119034,1100,SW 170TH AVE,,,,,97003,,0ef0da988f669063,America/Los_Angeles
-122.8317913,45.4281401,15140,SW BARROWS RD,,,,,97007,,40e5a79e83df21f5,America/Los_Angeles
-122.83897,45.4279334,15740,SW KINGFISHER LN,,,,,97007,,e84ac43761d25ed0,America/Los_Angeles
-122.8426324,45.4939849,16015,SW AUDUBON ST,# 102,,,,97003,,c019426c42a49f62,America/Los_Angeles
-122.793926,45.4787144,11375,SW 12TH ST,,,,,97005,,68e7b426a83d831e,America/Los_Angeles
-122.8058047,45.4984952,12520,SW GEM LN,# 302,,,,97005,,bd0bb3916b8d2704,America/Los_Angeles
-122.8175709,45.4818906,13655,SW HAZEL ST,# 101,,,,97005,,6d8ffb8283567a93,America/Los_Angeles
-122.829824,45.4586502,15025,SW TELLURIDE TER,,,,,97007,,3eab476c08048d65,America/Los_Angeles
-122.8227005,45.4475536,10020,SW 141ST AVE,,,,,97008,,9bd9070d86264fb3,America/Los_Angeles
-122.8223739,45.4423699,14155,SW TEAL BLVD,# F,,,,97008,,420194f5e812725a,America/Los_Angeles
-122.8051431,45.4981348,12520,SW GEM LN,# 1101,,,,97005,,664f313ec01f2f59,America/Los_Angeles
-122.7850074,45.4728924,6600,SW 105TH AVE,,,,,97008,,d035a9346568368d,America/Los_Angeles
-122.8015245,45.4707477,6805,SW SUSSEX ST,,,,,97008,,3c1823b4cdf2d782,America/Los_Angeles
-122.820988,45.4830259,14035,SW 6TH ST,,,,,97005,,1d483bbab095c51f,America/Los_Angeles
-122.7730437,45.4784855,9350,SW PINE ST,,,,,97005,,5f41050356bdfb9d,America/Los_Angeles
-122.8422673,45.4385109,11275,SW TANAGER TER,,,,,97007,,cf7004c92a0287a5,America/Los_Angeles
-122.7473099,45.506466,2130,SW CAMELOT CT,# 48,,,,97225,,f2484f9ff76c758e,America/Los_Angeles
-122.7987302,45.4945959,11895,SW CENTER ST,# 97,,,,97005,,424ca8c2453a8b43,America/Los_Angeles
-122.8296099,45.4684733,7135,SW PALMER WAY,,,,,97007,,f21fb8ca470e35bd,America/Los_Angeles
-122.8013617,45.4934972,12270,SW CENTER ST,# 56,,,,97005,,b837375d6484fd20,America/Los_Angeles
-122.8073997,45.4867152,4545,SW ANGEL AVE,# 313,,,,97005,,6a8f07780dcac463,America/Los_Angeles
-122.8048055,45.4877327,12475,SW BROADWAY ST,,,,,97005,,6a30d8d8cee74c2f,America/Los_Angeles
-122.775547,45.4853602,9580,SW DUNCAN LN,,,,,97005,,6aec0f50f4c75442,America/Los_Angeles
-122.8274163,45.4509784,9515,SW 146TH TER,# 1,,,,97007,,0e7d6620bf5d67d2,America/Los_Angeles
-122.7518493,45.5027331,7265,SW BENZ PARK CT,,,,,97225,,1b5b48096214a8b8,America/Los_Angeles
-122.8561465,45.4311164,12315,SW 174TH TER,,,,,97007,,bda847901b104506,America/Los_Angeles
-122.8590977,45.5270808,17729,NW DOGWOOD CT,,,,,97006,,74726c0e29c1972e,America/Los_Angeles
-122.8102434,45.4696832,6920,SW 130TH AVE,,,,,97008,,4e62fb8a414c612c,America/Los_Angeles
-122.7923244,45.4672543,11225,SW CLIFFORD ST,,,,,97008,,1a0a091d58c28011,America/Los_Angeles
-122.7949433,45.4610615,8102,SW HALL BLVD,,,,,97008,,3820ea0eba5c325a,America/Los_Angeles
-122.8562102,45.5344578,1945,NW 173RD AVE,# 1902,,,,97006,,73762af2a98e3136,America/Los_Angeles
-122.7796418,45.455887,8930,SW HALL BLVD,# 4,,,,97223,,a298a44d39519035,America/Los_Angeles
-122.8217284,45.4468539,10038,SW STEEPLECHASE CIR,,,,,97008,,72c21a648769ce93,America/Los_Angeles
-122.8556215,45.5347725,1935,NW 173RD AVE,# 1810,,,,97006,,f68e9b53976daba2,America/Los_Angeles
-122.8404154,45.4283915,12675,SW 159TH CT,,,,,97007,,f43aea0ac0a6842f,America/Los_Angeles
-122.8154298,45.4588719,8350,SW 135TH AVE,,,,,97008,,aa3c01a5ee3c0997,America/Los_Angeles
-122.795199,45.4932288,3745,SW 114TH AVE,# 9,,,,97005,,94dfd8fd6dee8533,America/Los_Angeles
-122.8264927,45.4634171,7810,SW ALAMEDA LN,,,,,97007,,3b03474df43144cf,America/Los_Angeles
-122.856325,45.5326243,1777,NW 173RD AVE,# 607,,,,97006,,873ee545c3e7d5b4,America/Los_Angeles
-122.7998526,45.5240164,11830,NW HOLLY SPRINGS LN,# 204,,,,97229,,cc1dc93be1f21825,America/Los_Angeles
-122.8278026,45.4842419,5005,SW MURRAY BLVD,# 724,,,,97005,,5626c473babf672f,America/Los_Angeles
-122.8111357,45.4962805,3205,SW CEDAR HILLS BLVD,# 52,,,,97005,,468d1cac6582460c,America/Los_Angeles
-122.825534,45.4403291,14480,SW TEAL BLVD,# E,,,,97008,,091c09a7124c584f,America/Los_Angeles
-122.8231178,45.441072,14215,SW TEAL BLVD,# H,,,,97008,,f415d98c2a9183a3,America/Los_Angeles
-122.8347524,45.447378,15375,SW SANDPIPER LN,,,,,97007,,1501ff1bc8e382c2,America/Los_Angeles
-122.8257608,45.4774749,5870,SW MURRAY BLVD,# 7,,,,97005,,c7a2e7c4751f86f2,America/Los_Angeles
-122.8025944,45.4898158,4125,SW LOMBARD AVE,# 10,,,,97005,,6aff1a3800df85a1,America/Los_Angeles
-122.7802904,45.4681893,10100,SW CYNTHIA ST,,,,,97008,,60681a7e35e8e92c,America/Los_Angeles
-122.7755553,45.4868018,9575,SW BEAVERTON HILLSDALE HWY,# 110,,,,97005,,7715ac3de65e8bab,America/Los_Angeles
-122.7855303,45.5160586,474,SW VALERIA VIEW DR,# 204,,,,97225,,a30cad719d41a6ee,America/Los_Angeles
-122.858961,45.5260426,17718,NW SUE CT,,,,,97006,,4eb11d044a1882dc,America/Los_Angeles
-122.8262543,45.4339315,14748,SW SCHOLLS FERRY RD,# 914,,,,97007,,42a48f1622a8ec88,America/Los_Angeles
-122.8366635,45.4741522,6313,SW 154TH PL,,,,,97007,,5b058dbe4578422c,America/Los_Angeles
-122.8287697,45.4634788,7810,SW CALAVERAS CT,,,,,97007,,d825da4b82ebe27b,America/Los_Angeles
-122.8212968,45.4868868,14025,SW FARMINGTON RD,# 160,,,,97005,,230ec000c3237c62,America/Los_Angeles
-122.8411415,45.4358761,15957,SW THRUSH LN,,,,,97007,,b5afd52ef931cb96,America/Los_Angeles
-122.8313065,45.4960935,14923,SW MILLIKAN WAY,# 822,,,,97003,,e102c47f2236dc66,America/Los_Angeles
-122.8043409,45.4935396,12350,SW CENTER ST,# 7,,,,97005,,f89b1344ce9cf469,America/Los_Angeles
-122.8194867,45.4423513,10660,SW DAVIES RD,# 46,,,,97008,,e7b3642277fe76a9,America/Los_Angeles
-122.8541448,45.5129803,17246,SW WHITLEY WAY,,,,,97006,,9fca50c95597237c,America/Los_Angeles
-122.8412114,45.4441689,10550,SW 161ST CT,,,,,97007,,a6195c2c765f78ef,America/Los_Angeles
-122.7908417,45.5182828,10982,SW CELESTE LN,# 104,,,,97225,,0b05c9576def0945,America/Los_Angeles
-122.8549659,45.5333823,1805,NW 173RD AVE,# 1413,,,,97006,,1b0fbf9907ae1b71,America/Los_Angeles
-122.8544152,45.5176026,330,SW 173RD AVE,,,,,97006,,75199b7fa3cde4f0,America/Los_Angeles
-122.8243503,45.4356565,11620,SW AUKLET LOOP,,,,,97007,,e55e138c8de292d8,America/Los_Angeles
-122.7997261,45.4777387,11970,SW 13TH ST,,,,,97005,,1c6b838eca6822cd,America/Los_Angeles
-122.8401064,45.45671,8755,SW IRONSTONE PL,,,,,97007,,598fa7e08edc96a0,America/Los_Angeles
-122.84364,45.514385,16352,SW ESTUARY DR,# 204,,,,97006,,9c48ae2f745fa5fe,America/Los_Angeles
-122.8009388,45.4603288,12035,SW STEAMBOAT DR,,,,,97008,,d5ca11930c641b97,America/Los_Angeles
-122.8292838,45.4430602,14795,SW OSPREY DR,# 915,,,,97007,,5f600e934d421a3b,America/Los_Angeles
-122.835222,45.4349345,11657,SW TEAL BLVD,# F,,,,97007,,3860a8c9df3fd011,America/Los_Angeles
-122.7970531,45.483114,11685,SW 5TH ST,# 1,,,,97005,,59af4c6a88d3d48d,America/Los_Angeles
-122.8138399,45.468499,7075,SW HEATH PL,,,,,97008,,316f5aba871bae7d,America/Los_Angeles
-122.828329,45.4517447,14708,SW BEARD RD,# 126,,,,97007,,132bc7c93848e2e7,America/Los_Angeles
-122.8060328,45.4801908,5450,SW WATSON AVE,,,,,97005,,ce99131aede758d7,America/Los_Angeles
-122.8060315,45.4981408,12520,SW GEM LN,# 704,,,,97005,,82e6c8f0de877134,America/Los_Angeles
-122.8287319,45.4436136,14765,SW OSPREY DR,# 631,,,,97007,,176b4b07e44a3510,America/Los_Angeles
-122.8268143,45.4347266,14730,SW SCHOLLS FERRY RD,# 628,,,,97007,,92ba7d8d2ce1deb7,America/Los_Angeles
-122.8004791,45.4630635,7860,SW HALL BLVD,# 3,,,,97008,,75f7ec626960f739,America/Los_Angeles
-122.8423067,45.5112843,16067,SW GAGE LN,,,,,97006,,311f509f4d2f7501,America/Los_Angeles
-122.8376759,45.4482739,15660,SW TALUS WAY,,,,,97007,,9e52834fd2529253,America/Los_Angeles
-122.850123,45.4964804,3280,SW 170TH AVE,# 2310,,,,97003,,06c0f89220560a3b,America/Los_Angeles
-122.8485579,45.5324352,1800,NW 167TH PL,# 115,,,,97006,,aa22be2c56a4deed,America/Los_Angeles
-122.8173884,45.4800648,5475,SW MENLO DR,,,,,97005,,a9951d5ebaccebda,America/Los_Angeles
-122.7485027,45.5061435,6960,SW POINTER RD,# 303,,,,97225,,f2893b023154f4e8,America/Los_Angeles
-122.7843159,45.517159,446,SW VALERIA VIEW DR,# 202,,,,97225,,c5db2dbb4ab8298f,America/Los_Angeles
-122.8331684,45.4318751,15175,SW WARBLER WAY,,,,,97007,,919d7df9b803fdeb,America/Los_Angeles
-122.8513783,45.5174449,16870,SW SPRINGWATER LN,,,,,97006,,45693731706660fe,America/Los_Angeles
-122.821306,45.4428248,14075,SW TEAL BLVD,# C,,,,97008,,b0665d5fed69c907,America/Los_Angeles
-122.7970101,45.4716245,11675,SW BAKER ST,,,,,97008,,086f17f449ddf09b,America/Los_Angeles
-122.8103349,45.4609084,8145,SW FOXGLOVE PL,,,,,97008,,a53f4abd3c2bdeb6,America/Los_Angeles
-122.8331066,45.4399648,15290,SW TEAL BLVD,# I,,,,97007,,6e5d7b690ea2d195,America/Los_Angeles
-122.8246723,45.5059904,1885,SW 144TH AVE,,,,,97005,,6a63ea4901fb3949,America/Los_Angeles
-122.7782868,45.5118896,9755,SW BARNES RD,# 690,,,,97225,,d4d23de1b7dcecb4,America/Los_Angeles
-122.8121425,45.4769071,13155,SW ALLEN BLVD,# 7,,,,97005,,a6a17f1370c5b238,America/Los_Angeles
-122.8187078,45.4395668,13800,SW SCHOLLS FERRY RD,# 103,,,,97007,,2f0d8789fecafc68,America/Los_Angeles
-122.8238356,45.5060313,14307,SW COMPASS DR,,,,,97005,,25d6563cd572e661,America/Los_Angeles
-122.8241843,45.4461759,14315,SW EQUESTRIAN LN,,,,,97008,,c501d729ed94b310,America/Los_Angeles
-122.8104185,45.4962593,3205,SW CEDAR HILLS BLVD,# 90,,,,97005,,e3a0e2a83426e5fd,America/Los_Angeles
-122.8111818,45.4813043,5332,SW ERICKSON AVE,,,,,97005,,413427fdb8c3dcc6,America/Los_Angeles
-122.8365587,45.4673447,7275,SW 155TH AVE,,,,,97007,,22d154896014c5d4,America/Los_Angeles
-122.8045015,45.4655754,7535,SW HALL BLVD,,,,,97008,,c5901a97f8b1aa68,America/Los_Angeles
-122.8111399,45.4502092,9760,SW NEW FOREST DR,,,,,97008,,1ea5562f53c842b4,America/Los_Angeles
-122.8002747,45.4567993,11940,SW BEAVERWOOD CT,,,,,97008,,08b2adc3899e9c16,America/Los_Angeles
-122.7829818,45.460098,10290,SW CRESTWOOD CT,,,,,97008,,030f06c048a32775,America/Los_Angeles
-122.8300082,45.4577502,14833,SW CITRINE LOOP,,,,,97007,,8ffc8860c2f52b5b,America/Los_Angeles
-122.8440165,45.4919097,16245,SW AUDUBON ST,# 201,,,,97003,,389fb23cc7e80af8,America/Los_Angeles
-122.801322,45.5238387,565,NW LOST SPRINGS TER,# 402,,,,97229,,b29673683d3a8a8b,America/Los_Angeles
-122.8305246,45.4338665,14924,SW SCHOLLS FERRY RD,,,,,97007,,5b9570bfe8c161ed,America/Los_Angeles
-122.7927988,45.4616135,8196,SW HALL BLVD,# 217,,,,97008,,a3e5828d19046477,America/Los_Angeles
-122.8010965,45.4604733,12121,SW STEAMBOAT DR,,,,,97008,,1ad7642c9fabdc17,America/Los_Angeles
-122.7994421,45.4527465,9295,SW TEMPLAR PL,,,,,97008,,4024c373473da8aa,America/Los_Angeles
-122.8128423,45.4429256,10635,SW COTTONTAIL PL,,,,,97008,,5deaa7bf40204616,America/Los_Angeles
-122.835763,45.4366032,11669,SW TEAL BLVD,# F,,,,97007,,97a47bf02703e86a,America/Los_Angeles
-122.7815699,45.4574914,8600,SW SCHOLLS FERRY RD,# 84,,,,97008,,5557eafbbb3b60ac,America/Los_Angeles
-122.8082873,45.4753577,12820,SW DALE CIR,,,,,97008,,86618ffb9a5f7b89,America/Los_Angeles
-122.7880454,45.51805,10926,SW CELESTE LN,# 302,,,,97225,,d7d00b6acd733766,America/Los_Angeles
-122.8366433,45.4660456,15530,SW NEPTUNE LN,,,,,97007,,6b7ae2229aaef980,America/Los_Angeles
-122.7966625,45.492041,3820,SW 117TH AVE,# 71,,,,97005,,d85c092353f8744e,America/Los_Angeles
-122.7825186,45.460087,10270,SW CRESTWOOD CT,,,,,97008,,35e24e996950a8d7,America/Los_Angeles
-122.8233256,45.4808716,14195,SW WINDJAMMER WAY,,,,,97005,,19e8c8590f44300b,America/Los_Angeles
-122.8336206,45.4498311,15240,SW SAPPHIRE DR,,,,,97007,,056c992f51d29f00,America/Los_Angeles
-122.8039993,45.4732038,6494,SW 124TH AVE,,,,,97008,,f8ca971990a56dbb,America/Los_Angeles
-122.8123234,45.4746837,6283,SW ERICKSON AVE,,,,,97008,,426b72a94f1e2f95,America/Los_Angeles
-122.8032125,45.4791137,12275,SW 12TH ST,# 3,,,,97005,,5c964d4dfeea4174,America/Los_Angeles
-122.8118702,45.4884262,13095,SW CANYON RD,,,,,97005,,fba5cfe446e8d0bf,America/Los_Angeles
-122.8207705,45.4675889,13950,SW 27TH ST,,,,,97008,,3e8dc30eb3b2efac,America/Los_Angeles
-122.8213481,45.4768325,5940,SW 141ST AVE,# 101,,,,97005,,d19f7ab5de2b05a7,America/Los_Angeles
-122.8191412,45.4831633,13775,SW 6TH ST,# C,,,,97005,,d2da6212c72892de,America/Los_Angeles
-122.8626144,45.5288447,17990,NW FIELDSTONE DR,,,,,97006,,61fd5a54d96fac98,America/Los_Angeles
-122.7959545,45.5263941,772,NW 118TH AVE,,,,,97229,,d1b8a6274a03ddd2,America/Los_Angeles
-122.824462,45.4768305,14335,SW ALLEN BLVD,# 204,,,,97005,,8910943ae7b784e9,America/Los_Angeles
-122.8338335,45.4281269,15305,SW MALLARD DR,# 101,,,,97007,,508e9b83c3125af3,America/Los_Angeles
-122.805761,45.4960793,3329,SW 125TH AVE,,,,,97005,,31fb08a516c1404d,America/Los_Angeles
-122.8183718,45.477874,5815,SW MENLO DR,# 50,,,,97005,,1a0ac5de0eef5730,America/Los_Angeles
-122.838592,45.4628306,7860,SW BARNARD DR,,,,,97007,,14a832edc1812fba,America/Los_Angeles
-122.8263258,45.4367038,14505,SW QUAIL LN,# 303,,,,97007,,9beaceb2ed0a23e5,America/Los_Angeles
-122.7445754,45.4802847,5375,SW DOVER LN,,,,,97225,,ce5bfd495aad268a,America/Los_Angeles
-122.8429103,45.5112233,16133,SW GAGE LN,,,,,97006,,6c46e6ff92052731,America/Los_Angeles
-122.8002961,45.5238243,590,NW LOST SPRINGS TER,# 301,,,,97229,,e82af139ae9be26e,America/Los_Angeles
-122.8158327,45.4815844,13500,SW HAZEL ST,,,,,97005,,f0bb3a322a7af1f2,America/Los_Angeles
-122.8062344,45.4869551,12610,SW FARMINGTON RD,# 5,,,,97005,,c90b149d9d1e733d,America/Los_Angeles
-122.8410891,45.512284,1050,SW 160TH AVE,# 411,,,,97006,,635cd582f8239f55,America/Los_Angeles
-122.8093219,45.4626752,12840,SW BARBERRY DR,,,,,97008,,25b73bc6ed55f851,America/Los_Angeles
-122.828469,45.4361774,14700,SW SCHOLLS FERRY RD,# 117,,,,97007,,c1f348cc2a0ded12,America/Los_Angeles
-122.7981667,45.4453587,11790,SW BOONES BEND DR,,,,,97008,,e5b7bdd67da485fb,America/Los_Angeles
-122.7999973,45.4519941,11995,SW BURNETT LN,,,,,97008,,d5efe6d7b2b53910,America/Los_Angeles
-122.7959309,45.4837831,4915,SW GRIFFITH DR,# 100,,,,97005,,5a6488fda3036b35,America/Los_Angeles
-122.7911977,45.4611351,8223,SW CIRRUS DR,,,,,97008,,29e9ccf356ddbe49,America/Los_Angeles
-122.8352083,45.4572164,8555,SW TURQUOISE LOOP,,,,,97007,,c2db0c96d88530ae,America/Los_Angeles
-122.8305585,45.4958635,14921,SW MILLIKAN WAY,# 925,,,,97003,,c806ea4d31810ac9,America/Los_Angeles
-122.8240266,45.4368002,11417,SW DAVIES RD,# 1316,,,,97007,,65f2ef5cb629dc6d,America/Los_Angeles
-122.8073002,45.4909747,12600,SW CRESCENT ST,# 422,,,,97005,,2007e194a1c045b8,America/Los_Angeles
-122.7629377,45.483828,8370,SW APPLE WAY,# 101,,,,97225,,c7142f0b0f376a93,America/Los_Angeles
-122.7801615,45.5026142,10100,SW INGLEWOOD ST,,,,,97225,,ae2009d0846b6cea,America/Los_Angeles
-122.799588,45.493572,3737,SW 117TH AVE,# 24,,,,97005,,d89b2364b9416507,America/Los_Angeles
-122.7968051,45.5254851,712,NW 118TH AVE,,,,,97229,,17b010fb75755ec3,America/Los_Angeles
-122.8289156,45.4357625,14706,SW SCHOLLS FERRY RD,# 228,,,,97007,,a14220a89250f8d0,America/Los_Angeles
-122.8222197,45.4826458,14140,SW 6TH ST,,,,,97005,,798030ea0fbcd4e5,America/Los_Angeles
-122.7459771,45.4830513,5110,SW DOVER LN,,,,,97225,,63cb056e696f319c,America/Los_Angeles
-122.8315856,45.464564,7635,SW EVERETT PL,,,,,97007,,dc1cfb881a0e602f,America/Los_Angeles
-122.8454211,45.505031,2032,SW MERLO CT,# 221,,,,97003,,cba5efa951fb7535,America/Los_Angeles
-122.7895855,45.4822155,10950,SW 5TH ST,# 330,,,,97005,,f97569c3d2d2ab68,America/Los_Angeles
-122.8565387,45.534365,1865,NW 173RD AVE,# 2101,,,,97006,,21d1a73749d528f9,America/Los_Angeles
-122.8315017,45.4737768,15055,SW DAPHNE CT,,,,,97007,,9266fbffd63d3803,America/Los_Angeles
-122.8224097,45.4826168,14150,SW 6TH ST,,,,,97005,,6ffc14514ab6d4b6,America/Los_Angeles
-122.8183679,45.4882537,13787,SW FARMINGTON RD,# 267,,,,97005,,43579045594f6357,America/Los_Angeles
-122.7943653,45.4802554,5478,SW ALGER AVE,# D8,,,,97005,,70fc266062b2cae4,America/Los_Angeles
-122.8663042,45.5247572,750,NW 185TH AVE,# 204,,,,97006,,33265cf416fdd7e2,America/Los_Angeles
-122.8269329,45.433803,14754,SW SCHOLLS FERRY RD,# 1013,,,,97007,,8c5cdff6edd0120e,America/Los_Angeles
-122.782617,45.4618102,8050,SW 103RD AVE,,,,,97008,,8dd21137063af630,America/Los_Angeles
-122.8339932,45.4510238,9528,SW 153RD AVE,,,,,97007,,e81115ee0d088ef1,America/Los_Angeles
-122.8632741,45.5260113,18085,NW WALKER RD,,,,,97006,,2a5e923be8bd1415,America/Los_Angeles
-122.7925531,45.4696132,6970,SW KING BLVD,# 19,,,,97008,,7003cddec1fa9988,America/Los_Angeles
-122.8006053,45.5218994,430,NW LOST SPRINGS TER,# 208,,,,97229,,a148794cc9b7e7c7,America/Los_Angeles
-122.8213185,45.4474351,10010,SW STEEPLECHASE CIR,,,,,97008,,019b1030cf573053,America/Los_Angeles
-122.8295623,45.443255,14865,SW OSPREY DR,# 821,,,,97007,,7758191ff72bda7e,America/Los_Angeles
-122.7620095,45.4848391,8250,SW APPLE WAY,# 202,,,,97225,,39eda19c04e51fc1,America/Los_Angeles
-122.7528492,45.504096,7335,SW CANYON LN,,,,,97225,,675349932690ab7f,America/Los_Angeles
-122.8353996,45.436134,11665,SW TEAL BLVD,# J,,,,97007,,58b84a4cd08f6cd2,America/Los_Angeles
-122.8161109,45.4860009,4720,SW FAIRMOUNT DR,,,,,97005,,599a067a2a9b0d3f,America/Los_Angeles
-122.809728,45.4653484,7575,SW ERICA PL,,,,,97008,,af653b6c0c020bf0,America/Los_Angeles
-122.7979641,45.4815588,11750,SW 7TH ST,,,,,97005,,68a577acdc82e430,America/Los_Angeles
-122.8095666,45.4908071,12900,SW CRESCENT ST,# 230,,,,97005,,43aa93a2ff739a41,America/Los_Angeles
-122.8311227,45.4743691,14985,SW DAPHNE CT,,,,,97007,,9f293d88981b9e3b,America/Los_Angeles
-122.8636434,45.5229732,18142,NW CAMBRAY ST,,,,,97006,,d5874823e438bb72,America/Los_Angeles
-122.8336072,45.4545636,15210,SW EMERALD ST,,,,,97007,,857954e65e1eb8ec,America/Los_Angeles
-122.8426748,45.4675562,7240,SW 161ST PL,,,,,97007,,46b7f7ba35d56f75,America/Los_Angeles
-122.8291855,45.485776,14825,SW FARMINGTON RD,# 205,,,,97078,,b1b64cd4ab5f9ac0,America/Los_Angeles
-122.8272586,45.4589073,14600,SW SEXTON MOUNTAIN DR,,,,,97007,,28b9758a3795a5ef,America/Los_Angeles
-122.7983893,45.5201552,233,NW 117TH LOOP,,,,,97229,,f0b6c38230982917,America/Los_Angeles
-122.7997682,45.5251175,645,NW FALLING WATERS LN,,,,,97229,,4cbac1561074238d,America/Los_Angeles
-122.8306472,45.4330991,14940,SW SCHOLLS FERRY RD,# 303,,,,97007,,d149e699fcb3b275,America/Los_Angeles
-122.8511264,45.5123103,1070,SW 170TH AVE,# 100,,,,97003,,ee2ad4548305a296,America/Los_Angeles
-122.8359191,45.4563759,15480,SW EMERALD ST,,,,,97007,,5603db09845bfc44,America/Los_Angeles
-122.7734929,45.4545893,9115,SW OLESON RD,# 106,,,,97223,,6560323abd2425dc,America/Los_Angeles
-122.796489,45.5260453,724,NW 118TH AVE,# 101,,,,97229,,87e90ca1cbb941e6,America/Los_Angeles
-122.8009866,45.5250576,635,NW LOST SPRINGS TER,# 404,,,,97229,,f7aef1c483cf77f7,America/Los_Angeles
-122.8400069,45.4634798,15865,SW BRIDLE HILLS DR,,,,,97007,,5acafffa3509ae01,America/Los_Angeles
-122.8178824,45.4842089,4905,SW SPENCER AVE,# 37,,,,97005,,066a61b13f4e6aa3,America/Los_Angeles
-122.8103191,45.4545381,9010,SW 130TH AVE,,,,,97008,,b04196bb79dd8bbe,America/Los_Angeles
-122.8438706,45.5139801,16356,SW ESTUARY DR,# 101,,,,97006,,e9ce243e12752a45,America/Los_Angeles
-122.8182058,45.4818694,13727,SW HAZEL ST,# 101,,,,97005,,93b6e95a3f340b72,America/Los_Angeles
-122.8237625,45.487334,4505,SW 142ND AVE,# 139,,,,97005,,9530742541f5b914,America/Los_Angeles
-122.8082806,45.4695404,6970,SW DALE AVE,,,,,97008,,2572397afc6390e7,America/Los_Angeles
-122.7570809,45.5017259,7805,SW CANYON LN,,,,,97225,,01041ced907132f9,America/Los_Angeles
-122.819881,45.4852743,4820,SW 139TH AVE,,,,,97005,,3239ccb51a60deb9,America/Los_Angeles
-122.8443311,45.4334932,16240,SW BLACKBIRD DR,,,,,97007,,337ba2af69900585,America/Los_Angeles
-122.8612878,45.5279467,1185,NW 178TH AVE,,,,,97006,,a7298a9cbf1d793d,America/Los_Angeles
-122.7973957,45.4916396,3880,SW 117TH AVE,# 80,,,,97005,,f7f62a63ab7b01fc,America/Los_Angeles
-122.8044738,45.4752548,6200,SW HALL BLVD,# 118,,,,97008,,b8e5d1d9102f9eaa,America/Los_Angeles
-122.7994152,45.4820637,11875,SW 7TH ST,# 15,,,,97005,,c6927ba12a56fa33,America/Los_Angeles
-122.8404487,45.5247969,720,NW ISLAND TER,# A12,,,,97006,,99c70fa7d32c5a7f,America/Los_Angeles
-122.8006604,45.4614376,12034,SW WINDMILL DR,,,,,97008,,e557b9575f80f46e,America/Los_Angeles
-122.8427039,45.4923409,16224,SW AUDUBON ST,# 202,,,,97003,,119dcd5b6c67f26b,America/Los_Angeles
-122.8486286,45.5163144,16675,SW ESTUARY DR,,,,,97006,,2370360457fbff3c,America/Los_Angeles
-122.8122371,45.4441368,13160,SW SNOWSHOE LN,,,,,97008,,97f1e180bbbcdf66,America/Los_Angeles
-122.8010242,45.4613886,12027,SW WALDEN LN,,,,,97008,,bd6fb39b1baf0be6,America/Los_Angeles
-122.835184,45.4330337,12041,SW SAGEHEN ST,,,,,97007,,d0b847279b6c6ad3,America/Los_Angeles
-122.8410286,45.5106265,15927,SW KAYLYNN LN,,,,,97006,,272aa2167789faaf,America/Los_Angeles
-122.7631823,45.5022681,2440,SW 84TH AVE,,,,,97225,,51b445be34a0d74f,America/Los_Angeles
-122.7974669,45.4770672,11655,SW ALLEN BLVD,# 16,,,,97005,,ff41fb5b871f2546,America/Los_Angeles
-122.8042439,45.4866813,4505,SW HALL BLVD,,,,,97005,,ccbc1adf4afc0ac3,America/Los_Angeles
-122.8280109,45.4367798,14645,SW QUAIL LN,# 103,,,,97007,,fc8a7b767743efac,America/Los_Angeles
-122.8307882,45.4398423,15266,SW TEAL BLVD,# A,,,,97007,,3f093de30aeed182,America/Los_Angeles
-122.798627,45.4942754,11855,SW CENTER ST,# 116,,,,97005,,8baa530221b1f2d3,America/Los_Angeles
-122.8288176,45.4321179,14600,SW MAGPIE LN,# 202,,,,97007,,2f069dea8a3f222c,America/Los_Angeles
-122.8233818,45.4783974,14250,SW BONNIE BRAE ST,,,,,97005,,c54594ec8a0249b2,America/Los_Angeles
-122.8198924,45.4413636,10880,SW DAVIES RD,# 3027,,,,97008,,32f5ede0a40687bd,America/Los_Angeles
-122.8295306,45.4670038,7335,SW PALMER WAY,,,,,97007,,549c7dae60b20680,America/Los_Angeles
-122.8472168,45.469313,6967,SW 166TH TER,,,,,97007,,cfe5a04c6c906b73,America/Los_Angeles
-122.8296536,45.4859776,14825,SW FARMINGTON RD,# 118,,,,97078,,431356863bd62833,America/Los_Angeles
-122.8029649,45.4846885,4820,SW TUCKER AVE,# 412,,,,97005,,511f285303d7bc0c,America/Los_Angeles
-122.8177327,45.4812434,5355,SW MENLO DR,,,,,97005,,04009b7dcb3f9b19,America/Los_Angeles
-122.820014,45.4805897,13865,SW BERTHOLD ST,,,,,97005,,495ecafc321c3f6d,America/Los_Angeles
-122.8337447,45.4951159,15214,SW MILLIKAN WAY,# 725,,,,97003,,d1a312cea0f5ffd1,America/Los_Angeles
-122.8567619,45.5324543,1755,NW 173RD AVE,# 501,,,,97006,,7bb9fe70a94d2796,America/Los_Angeles
-122.8152922,45.4747269,13448,SW 17TH ST,,,,,97008,,78f2e598be4c1c70,America/Los_Angeles
-122.795694,45.4626632,11525,SW BEL AIRE LN,,,,,97008,,de8ae81cc2af9e84,America/Los_Angeles
-122.7968802,45.4762437,11700,SW ALLEN BLVD,# 30,,,,97005,,348755bea44e62b7,America/Los_Angeles
-122.8489131,45.5242748,623,NW PACIFIC GROVE DR,,,,,97006,,b5b148011dc556cd,America/Los_Angeles
-122.8149544,45.4448579,10390,SW 135TH AVE,,,,,97008,,4bcf66102a18ec06,America/Los_Angeles
-122.7997335,45.5222806,500,NW LOST SPRINGS TER,# 303,,,,97229,,9fc35c5f23399b2b,America/Los_Angeles
-122.8509412,45.4738591,16925,SW FERRELO PL,,,,,97007,,bbfd81b758b2bf46,America/Los_Angeles
-122.8097212,45.4767041,12955,SW ALLEN BLVD,# 2,,,,97005,,98e4598155f3a762,America/Los_Angeles
-122.7984762,45.4616857,8095,SW HALL BLVD,# 30,,,,97008,,a6ef8cd0d47de269,America/Los_Angeles
-122.8542296,45.5267653,980,NW 170TH DR,,,,,97006,,11556b77b21890fd,America/Los_Angeles
-122.8189884,45.4770847,13795,SW ALLEN BLVD,# 28,,,,97005,,36251f37372eb4ab,America/Los_Angeles
-122.845203,45.5195331,16335,NW SCHENDEL AVE,# H,,,,97006,,5d6ebc0114e65c1a,America/Los_Angeles
-122.7749155,45.4847522,4925,SW JAMIESON RD,# 3,,,,97005,,0fc0570f94712b8d,America/Los_Angeles
-122.8402988,45.4370964,15890,SW CARDINAL LOOP,,,,,97007,,f16276eaae50ac1a,America/Los_Angeles
-122.8092714,45.4911284,12875,SW CRESCENT ST,# 506,,,,97005,,092aa3d9d03d05c1,America/Los_Angeles
-122.8220409,45.4421991,14135,SW TEAL BLVD,# B,,,,97008,,ea6002eb3945ccf9,America/Los_Angeles
-122.8509135,45.4952121,3280,SW 170TH AVE,# 601,,,,97003,,f71cd61589f9296b,America/Los_Angeles
-122.8423385,45.4324788,16100,SW BOBOLINK ST,,,,,97007,,6985611335f2acce,America/Los_Angeles
-122.8232662,45.434091,14403,SW BARROWS RD,,,,,97007,,4e8735465fbddd63,America/Los_Angeles
-122.8530117,45.4299961,12410,SW 171ST TER,,,,,97007,,6072bcabd7ce4633,America/Los_Angeles
-122.7744741,45.454262,9180,SW HALL BLVD,,,,,97223,,a454648272240155,America/Los_Angeles
-122.8009694,45.461781,12068,SW WINDMILL DR,,,,,97008,,dcc57f2bbd6709c2,America/Los_Angeles
-122.7673886,45.4942311,8805,SW WILLOW LN,,,,,97225,,ad3b80813c40d649,America/Los_Angeles
-122.8273573,45.4830401,5005,SW MURRAY BLVD,# 210,,,,97005,,a7482dfa4a86e363,America/Los_Angeles
-122.8299029,45.4345129,14878,SW SCHOLLS FERRY RD,# 303,,,,97007,,aedc511570783ee3,America/Los_Angeles
-122.7760784,45.4825827,5195,SW CHERRY AVE,,,,,97005,,a8e9cd39b4064251,America/Los_Angeles
-122.8083958,45.4891765,4250,SW ROSE BIGGI AVE,# 7,,,,97005,,f7020d5cd801e19d,America/Los_Angeles
-122.8277293,45.4827514,14637,SW REDBUD WAY,,,,,97007,,29b62a5f04bf1f96,America/Los_Angeles
-122.7982564,45.4615664,11849,SW WINDMILL DR,,,,,97008,,a7d9991edb9ef0d4,America/Los_Angeles
-122.8022647,45.4606551,12161,SW STEAMBOAT DR,,,,,97008,,a7119a15ac2d008b,America/Los_Angeles
-122.8544986,45.430024,17231,SW GOLDCREST LN,,,,,97007,,7e3905a03805cf28,America/Los_Angeles
-122.7939033,45.4735739,6455,SW KING BLVD,,,,,97008,,2d65ee7d290c77d2,America/Los_Angeles
-122.8352525,45.4481978,9930,SW HALITE CT,,,,,97007,,84d04822b0a1172d,America/Los_Angeles
-122.7905026,45.4636696,7759,SW CIRRUS DR,,,,,97008,,fd36b7cf1a8b8f5c,America/Los_Angeles
-122.847347,45.4713302,16441,SW TIMBERLAND DR,,,,,97007,,d713de03eb9f6546,America/Los_Angeles
-122.8424265,45.4280301,16101,SW BLUE GOOSE LN,,,,,97007,,f2c8e324a7d32a37,America/Los_Angeles
-122.8136814,45.4636579,13295,SW HANSON RD,,,,,97008,,311b696f895bcf08,America/Los_Angeles
-122.809349,45.4680611,7150,SW SORRENTO RD,,,,,97008,,48b705a53039fc82,America/Los_Angeles
-122.8421526,45.4382504,11295,SW TANAGER TER,,,,,97007,,799f7573db6034d4,America/Los_Angeles
-122.8100899,45.4759878,12960,SW ALLEN BLVD,,,,,97005,,91458140a1544e24,America/Los_Angeles
-122.7998203,45.4609198,11918,SW WINDMILL DR,,,,,97008,,367619a7023fd014,America/Los_Angeles
-122.7807364,45.4572812,8600,SW SCHOLLS FERRY RD,# 65,,,,97008,,88f7ef125b6148e8,America/Los_Angeles
-122.8283107,45.4505617,14720,SW BEARD RD,# 301,,,,97007,,fe61771716f47017,America/Los_Angeles
-122.8552577,45.5123038,17320,W BASELINE RD,,,,,97003,,1e2f0509b8cc9879,America/Los_Angeles
-122.8215134,45.4663457,7420,SW 140TH AVE,,,,,97008,,2d803c6eab0972ed,America/Los_Angeles
-122.7997583,45.4530449,11940,SW SETTLER WAY,,,,,97008,,f8a718c2596e979e,America/Los_Angeles
-122.8243092,45.4384842,11235,SW DAVIES RD,,,,,97007,,9d66c46ca99066ce,America/Los_Angeles
-122.8257941,45.4778896,5820,SW MURRAY BLVD,# 17,,,,97005,,001752d765dcebbd,America/Los_Angeles
-122.8250975,45.4864322,4650,SW MURRAY BLVD,# 60,,,,97005,,150e650c53a6e387,America/Los_Angeles
-122.8390059,45.4704083,15695,SW BEVERLY BEACH CT,,,,,97007,,97305086b6b98dd3,America/Los_Angeles
-122.8155775,45.4809386,13495,SW BERTHOLD ST,,,,,97005,,57e6241a2907791c,America/Los_Angeles
-122.8195611,45.4505835,13880,SW HARNESS LN,,,,,97008,,077a77c65284a2f0,America/Los_Angeles
-122.8100245,45.4735552,12975,SW 19TH ST,,,,,97008,,378b47e2558e63f9,America/Los_Angeles
-122.8624721,45.5240345,18017,NW DUSTIN LN,,,,,97006,,5c18bd426956c02c,America/Los_Angeles
-122.8383433,45.4269688,15684,SW SORA CT,,,,,97007,,be2d4f86c2dc5b73,America/Los_Angeles
-122.8424277,45.4935028,16000,SW AUDUBON ST,# 101,,,,97003,,88a4c4de0955b6e7,America/Los_Angeles
-122.8454978,45.5182281,16475,SW ESTUARY DR,# 202,,,,97006,,e69c8dc2a6ce4eb6,America/Los_Angeles
-122.7836432,45.5172314,458,SW VALERIA VIEW DR,# 202,,,,97225,,4983316166461ad4,America/Los_Angeles
-122.7947323,45.4770721,11450,SW 14TH ST,,,,,97005,,effaafc0b7b73ec5,America/Los_Angeles
-122.827113,45.4662932,14525,SW FOREST DR,,,,,97007,,7f47ad6c9730d8af,America/Los_Angeles
-122.8352499,45.4349066,11657,SW TEAL BLVD,# C,,,,97007,,54c123324f1bd0ee,America/Los_Angeles
-122.7645016,45.5033126,2290,SW 85TH AVE,,,,,97225,,f9539ba67760b68e,America/Los_Angeles
-122.8143523,45.4906795,4150,SW HOCKEN AVE,# 29,,,,97005,,0b322b4679787594,America/Los_Angeles
-122.8342896,45.4549105,15230,SW EMERALD ST,,,,,97007,,e4690e1020d06c1b,America/Los_Angeles
-122.805774,45.4514803,9495,SW 125TH AVE,# 66,,,,97008,,42cfe91a174abd1d,America/Los_Angeles
-122.8109027,45.4799617,5450,SW ERICKSON AVE,# B215,,,,97005,,e5f44955f03e5f86,America/Los_Angeles
-122.7959471,45.4627418,11570,SW CARDINAL TER,,,,,97008,,93deeaf1cdcce510,America/Los_Angeles
-122.8124934,45.4748851,6217,SW ERICKSON AVE,,,,,97008,,3580735c6ebac92e,America/Los_Angeles
-122.84163,45.4930895,16020,SW AUDUBON ST,# 104,,,,97003,,a74911c594e0a676,America/Los_Angeles
-122.7966111,45.4715818,11625,SW BAKER ST,,,,,97008,,31edca458459f6a2,America/Los_Angeles
-122.8287886,45.4420823,14780,SW OSPREY DR,# 250,,,,97007,,9e3ab248d41ab2d3,America/Los_Angeles
-122.8033668,45.4742899,6120,SW 124TH AVE,# 36,,,,97008,,fd15859aba91a540,America/Los_Angeles
-122.8104226,45.4806623,5450,SW ERICKSON AVE,# A108,,,,97005,,886868ae1d03b774,America/Los_Angeles
-122.8387073,45.4308524,15745,SW HARLEQUIN DR,,,,,97007,,fc84e5089b30804c,America/Los_Angeles
-122.8069277,45.4922725,3841,SW HALL BLVD,,,,,97005,,04249d56bcd7d03a,America/Los_Angeles
-122.7779285,45.4700672,9827,SW DENNEY RD,,,,,97008,,2d3bf3e7cf28137b,America/Los_Angeles
-122.7961546,45.5217318,310,NW 116TH AVE,# 105,,,,97229,,98c7a83c23bf1f09,America/Los_Angeles
-122.8049868,45.4490164,12480,SW GINGHAM LN,# D,,,,97008,,703865769bc028e6,America/Los_Angeles
-122.8559861,45.5166941,17395,SW LISA ST,,,,,97006,,bad643e426380853,America/Los_Angeles
-122.7809651,45.4672635,7290,SW 102ND AVE,,,,,97008,,c22b93ea57e87756,America/Los_Angeles
-122.8340035,45.4317416,15285,SW WARBLER WAY,# 102,,,,97007,,eea35386ab752ad0,America/Los_Angeles
-122.7903471,45.4604616,8285,SW NIMBUS AVE,# 164,,,,97008,,b3a184cbf6f5b10e,America/Los_Angeles
-122.8319106,45.4281382,15140,SW BARROWS RD,# 305,,,,97007,,4d2ce4029c73198a,America/Los_Angeles
-122.8317072,45.4410595,15220,SW TEAL BLVD,# E,,,,97007,,27c1fa0b09c2c224,America/Los_Angeles
-122.8280782,45.4676846,14680,SW TIERRA DEL MAR DR,,,,,97007,,947935d002e2fda3,America/Los_Angeles
-122.8430727,45.5129268,950,SW 163RD AVE,# 522,,,,97006,,a384dccc8b3bf186,America/Los_Angeles
-122.8277713,45.4319187,12260,SW HORIZON BLVD,,,,,97007,,965b8c0e3d1ea902,America/Los_Angeles
-122.8132173,45.4612517,13215,SW BLUEBELL LN,,,,,97008,,18f0cd2d8c1310ba,America/Los_Angeles
-122.844368,45.4385487,16250,SW FALCON DR,,,,,97007,,1e130a7b577eef0b,America/Los_Angeles
-122.8052315,45.4747558,6230,SW HALL BLVD,# 1,,,,97008,,7b7d304493e1d4a4,America/Los_Angeles
-122.8428475,45.5154027,16324,SW ESTUARY DR,# 103,,,,97006,,338d88d10a44d996,America/Los_Angeles
-122.8137594,45.452557,9515,SW NEW FOREST DR,,,,,97008,,c1318c81b99f9507,America/Los_Angeles
-122.7487603,45.5061628,6960,SW POINTER RD,# 402,,,,97225,,023d21607ebd7175,America/Los_Angeles
-122.8531582,45.5317087,1815,NW 169TH PL,# 4060,,,,97006,,ab544fee1cdc7f06,America/Los_Angeles
-122.8535353,45.448312,9906,SW 172ND AVE,,,,,97007,,0eecc8a89be3e038,America/Los_Angeles
-122.8022282,45.4721657,6640,SW SUSSEX ST,,,,,97008,,257f32e5b5c13f2d,America/Los_Angeles
-122.8396829,45.4622481,15850,SW BARNARD CT,,,,,97007,,147f6af67b173799,America/Los_Angeles
-122.7997568,45.4534904,11925,SW SETTLER WAY,,,,,97008,,f401f2ab0612ab80,America/Los_Angeles
-122.7979518,45.5263435,11725,NW WINTER PARK TER,# 202,,,,97229,,722307781dd23e68,America/Los_Angeles
-122.8415949,45.434118,16035,SW WHITEBIRD ST,,,,,97007,,b52f3cc8efaccc56,America/Los_Angeles
-122.8116077,45.4513516,13145,SW DARTMOOR CT,,,,,97008,,225c492c5a0a2985,America/Los_Angeles
-122.8173333,45.4828047,13620,SW 6TH ST,,,,,97005,,67816b3813e283ea,America/Los_Angeles
-122.8569129,45.5228224,17451,NW BERNARD PL,,,,,97006,,4bab58a64b15468a,America/Los_Angeles
-122.8589165,45.528146,1176,NW FALL AVE,,,,,97006,,894fe093235f6cd9,America/Los_Angeles
-122.822768,45.451202,9480,SW SADDLE DR,,,,,97008,,b00cad7ff8207cbd,America/Los_Angeles
-122.7921558,45.4728079,6550,SW IMPERIAL DR,,,,,97008,,d4c7da770dcca78f,America/Los_Angeles
-122.8304635,45.497262,14929,SW MILLIKAN WAY,# 1115,,,,97003,,e5571634416a0c3c,America/Los_Angeles
-122.807248,45.4699663,12680,SW BARLOW RD,,,,,97008,,45ea89c800d99782,America/Los_Angeles
-122.8222694,45.4850381,4863,SW 141ST AVE,,,,,97005,,a7a763fd422d1668,America/Los_Angeles
-122.7722616,45.477267,5920,SW SPRUCE AVE,,,,,97005,,65077755395d650a,America/Los_Angeles
-122.8310907,45.4521571,14995,SW OPAL DR,,,,,97007,,5db66fe5a08737e8,America/Los_Angeles
-122.8452402,45.5165883,16405,SW ESTUARY DR,# 202,,,,97006,,ceb8385c6e594146,America/Los_Angeles
-122.8449444,45.5043978,2054,SW MERLO CT,,,,,97003,,518b8f261bbdbcd8,America/Los_Angeles
-122.8589487,45.5263737,17711,NW SUE CT,,,,,97006,,c1561e8edcd329d4,America/Los_Angeles
-122.8270094,45.4937017,3601,SW MURRAY BLVD,# 10,,,,97005,,4db3545215750402,America/Los_Angeles
-122.8551151,45.53002,17325,NW BRICKSTONE CT,,,,,97006,,520423e7c549cbfb,America/Los_Angeles
-122.8473428,45.5113135,1174,SW KILEY WAY,# 95,,,,97006,,d890e798512dfc8b,America/Los_Angeles
-122.8566425,45.5312174,1590,NW 175TH PL,,,,,97006,,1b3da89bd007b7e9,America/Los_Angeles
-122.8204323,45.4679116,13925,SW 27TH ST,,,,,97008,,4698cb6f32ac9c58,America/Los_Angeles
-122.8329169,45.4542162,9080,SW GRAPHITE TER,,,,,97007,,769b060386309917,America/Los_Angeles
-122.7996847,45.4635574,7860,SW HALL BLVD,# 14,,,,97008,,a045f6e18d4d207a,America/Los_Angeles
-122.8277483,45.4363531,14655,SW QUAIL LN,# 101,,,,97007,,e6119c69e72790ba,America/Los_Angeles
-122.8326112,45.4730932,15100,SW IVY GLENN CT,,,,,97007,,22bd00b3dc6c5328,America/Los_Angeles
-122.8067752,45.4629287,7847,SW RAINTREE DR,,,,,97008,,b7e11bf7153e065f,America/Los_Angeles
-122.8232195,45.4432856,14239,SW DEER LN,,,,,97008,,dd356a49bbc9b45d,America/Los_Angeles
-122.8291251,45.4773322,14820,SW VILLAGE LN,,,,,97007,,d89cd8bd84f99eef,America/Los_Angeles
-122.8276889,45.4807677,5335,SW MURRAY BLVD,# 101,,,,97005,,f0996d5eaf00e3bb,America/Los_Angeles
-122.8194828,45.441025,10880,SW DAVIES RD,# 18,,,,97008,,f94999109982595c,America/Los_Angeles
-122.8071617,45.4658891,7455,SW TRILLIUM CT,,,,,97008,,bfab0ec5f6f490cd,America/Los_Angeles
-122.7968562,45.4623018,11650,SW BEL AIRE LN,,,,,97008,,1bedbc07793ae3b4,America/Los_Angeles
-122.779977,45.4643886,7733,SW SCHOLLS FERRY RD,# 224,,,,97008,,be1a2a18df45a5b0,America/Los_Angeles
-122.7839495,45.5176651,450,SW VALERIA VIEW DR,# 307,,,,97225,,54b02d23b85fe561,America/Los_Angeles
-122.8262646,45.4332147,14766,SW SCHOLLS FERRY RD,# 1215,,,,97007,,8b9135adbb8ffcfb,America/Los_Angeles
-122.8318691,45.4284872,15100,SW BARROWS RD,# 108,,,,97007,,20ecd5b4e81f6ecb,America/Los_Angeles
-122.8413809,45.5122826,1050,SW 160TH AVE,# 408,,,,97006,,c446fc65967c65b0,America/Los_Angeles
-122.7975354,45.4903856,4130,SW 117TH AVE,# A,,,,97005,,e94913431ef97ce7,America/Los_Angeles
-122.8399306,45.4596934,8318,SW 159TH PL,,,,,97007,,65856a3ba6dc6bcc,America/Los_Angeles
-122.8549621,45.533986,1905,NW 173RD AVE,# 1510,,,,97006,,c35831dcc3ce44a4,America/Los_Angeles
-122.8343546,45.4772598,15320,SW VILLAGE LN,,,,,97007,,cbe1b4f1e15201f1,America/Los_Angeles
-122.8488799,45.495372,3280,SW 170TH AVE,# 1101,,,,97003,,6f3e184e3c2b6846,America/Los_Angeles
-122.7979481,45.5199121,236,NW 117TH LOOP,,,,,97229,,77591438029ee31f,America/Los_Angeles
-122.8413035,45.5120283,1050,SW 160TH AVE,# 201,,,,97006,,8b2193d59e0fed97,America/Los_Angeles
-122.8329559,45.4456942,10255,SW 152ND AVE,,,,,97007,,246f48926a814773,America/Los_Angeles
-122.8204824,45.4911457,13820,SW ELECTRIC ST,# 114,,,,97005,,08670275c05daf6c,America/Los_Angeles
-122.8050476,45.4541768,9165,SW CHELAN PL,,,,,97008,,54922c5ebad9a27e,America/Los_Angeles
-122.8538298,45.5154182,645,SW 171ST AVE,,,,,97006,,75a1980f8363e937,America/Los_Angeles
-122.8052007,45.4999281,2750,SW CEDAR HILLS BLVD,,,,,97005,,9c5e4ba59b71cb94,America/Los_Angeles
-122.8292896,45.4431626,14795,SW OSPREY DR,# 917,,,,97007,,2978ffc46f621588,America/Los_Angeles
-122.7975442,45.488045,11795,SW BEAVERTON HILLSDALE HWY,,,,,97005,,db3bb765905c01d7,America/Los_Angeles
-122.824359,45.441357,14321,SW TEAL BLVD,,,,,97008,,ee2febde5d05ae4c,America/Los_Angeles
-122.8473834,45.4960287,3280,SW 170TH AVE,# 1704,,,,97003,,038c458580988201,America/Los_Angeles
-122.7997626,45.5222481,500,NW LOST SPRINGS TER,# 104,,,,97229,,b31ada4d2e4b0672,America/Los_Angeles
-122.8190254,45.4488576,9900,SW BUCKSKIN TER,,,,,97008,,67ea99b89f83e757,America/Los_Angeles
-122.7984883,45.445087,11832,SW BOONES BEND DR,,,,,97008,,199ced1d62460171,America/Los_Angeles
-122.8428446,45.4924146,16224,SW AUDUBON ST,# 101,,,,97003,,c1b79d15f9ff1c9e,America/Los_Angeles
-122.8404227,45.5223402,380,NW ISLAND CIR,,,,,97006,,112c3d0f6d68554c,America/Los_Angeles
-122.8186684,45.4883797,13787,SW FARMINGTON RD,# 149,,,,97005,,1db0a9f118058d7a,America/Los_Angeles
-122.8450728,45.4527648,16467,SW GOLD VIEW WAY,,,,,97007,,d0d330b28a554b13,America/Los_Angeles
-122.7945478,45.4853843,4800,SW GRIFFITH DR,# 102,,,,97005,,a52c861e91a5092e,America/Los_Angeles
-122.8427712,45.5240038,625,NW WATERHOUSE AVE,,,,,97006,,d4ee6c7ddbaac6e2,America/Los_Angeles
-122.8441799,45.4926943,16151,SW AUDUBON ST,# 101,,,,97003,,507cafb1ef752771,America/Los_Angeles
-122.7999902,45.4739857,11930,SW IRON HORSE LN,,,,,97008,,539adbbc4d4ab8eb,America/Los_Angeles
-122.8132849,45.4753232,13307,SW 17TH ST,,,,,97008,,29f03b35b27c7dc6,America/Los_Angeles
-122.7911299,45.5194988,23,SW 111TH TER,,,,,97225,,9b360d06f92bac35,America/Los_Angeles
-122.8198281,45.440686,10880,SW DAVIES RD,# 120,,,,97008,,885a5fbec27bc6ba,America/Los_Angeles
-122.7890513,45.5178891,10942,SW CELESTE LN,# 404,,,,97225,,aadf6ec008c479e0,America/Los_Angeles
-122.8305007,45.432714,14815,SW SANDHILL LOOP,# 101,,,,97007,,fcf2191cd3987d89,America/Los_Angeles
-122.7977213,45.445405,11772,SW BOONES BEND DR,,,,,97008,,5dbbbf1556fd11b4,America/Los_Angeles
-122.8428853,45.5160644,16320,SW ESTUARY DR,# 203,,,,97006,,ea5474e8b07b4075,America/Los_Angeles
-122.8318063,45.4481427,15195,SW BASALT CT,,,,,97007,,0d47e5fff2615922,America/Los_Angeles
-122.8279886,45.4831899,5005,SW MURRAY BLVD,# 307,,,,97005,,4d996255687e8ac8,America/Los_Angeles
-122.7966816,45.4940932,11635,SW CENTER ST,# 5,,,,97005,,d3cd5b38906ae885,America/Los_Angeles
-122.7878468,45.4641102,7724,SW NIMBUS AVE,,,,,97008,,2fac306dc57a4976,America/Los_Angeles
-122.827251,45.4537334,14695,SW BEARD RD,# 102,,,,97007,,8ffc942f421ae623,America/Los_Angeles
-122.8406826,45.4924537,15950,SW MILLIKAN WAY,,,,,97003,,dcb98f7d68c7973d,America/Los_Angeles
-122.8186578,45.487733,13787,SW FARMINGTON RD,# 285,,,,97005,,bfb23a9771568102,America/Los_Angeles
-122.8082796,45.4711448,6770,SW VALE CT,,,,,97008,,f3155c18f4cc685b,America/Los_Angeles
-122.847406,45.5113763,1174,SW KILEY WAY,,,,,97006,,b048c17c2b725f60,America/Los_Angeles
-122.8297674,45.4311842,12305,SW HORIZON BLVD,# 201,,,,97007,,a9bc14ed3a5f359a,America/Los_Angeles
-122.8369346,45.4554094,15585,SW ROSE QUARTZ ST,,,,,97007,,a4a60c8b2ced7fcc,America/Los_Angeles
-122.8103764,45.4707507,6770,SW 130TH AVE,,,,,97008,,f7877e92a4a9d0c9,America/Los_Angeles
-122.831977,45.4943139,15080,SW MILLIKAN WAY,# 1221,,,,97003,,516c1c54cfb22942,America/Los_Angeles
-122.8245205,45.4868291,4550,SW MURRAY BLVD,# 84,,,,97005,,bd642df88f831015,America/Los_Angeles
-122.8381592,45.4269612,15676,SW SORA CT,,,,,97007,,13650330344064a9,America/Los_Angeles
-122.8283661,45.4314432,12240,SW HORIZON BLVD,# 302,,,,97007,,c7c7825ecbba9f71,America/Los_Angeles
-122.8372843,45.452764,15611,SW FELDSPAR WAY,,,,,97007,,024337b8903f409f,America/Los_Angeles
-122.751019,45.5026941,7252,SW BENZ PARK CT,,,,,97225,,99c033e95226e0d6,America/Los_Angeles
-122.8067724,45.4471659,12640,SW CONESTOGA DR,,,,,97008,,5c40415bfdcdabfd,America/Los_Angeles
-122.8485874,45.5249701,16650,NW PEBBLE BEACH WAY,,,,,97006,,bc863a1fa0bdb6ed,America/Los_Angeles
-122.8017558,45.5225253,425,NW LOST SPRINGS TER,# 304,,,,97229,,49dd34609eb03812,America/Los_Angeles
-122.802077,45.4622418,12133,SW TESLA TER,,,,,97008,,2777d8cfbc8aa6bb,America/Los_Angeles
-122.8131742,45.4504678,9730,SW HIALEAH DR,,,,,97008,,17deb6e3f63b0b28,America/Los_Angeles
-122.8284067,45.4437291,14725,SW OSPREY DR,# 537,,,,97007,,db8d56f8bc677ab1,America/Los_Angeles
-122.8326517,45.4964174,15121,SW MILLIKAN WAY,# 314,,,,97003,,29e5251ebcde3959,America/Los_Angeles
-122.8017634,45.4766935,12175,SW ALLEN BLVD,# 1,,,,97005,,611ed876268856e7,America/Los_Angeles
-122.8320226,45.4971848,3332,SW 153RD DR,,,,,97003,,2aadfa11a3df51db,America/Los_Angeles
-122.8087025,45.4742374,12855,SW 18TH ST,,,,,97008,,ff955f6604ae8a38,America/Los_Angeles
-122.7990617,45.4748056,11850,SW IRON HORSE LN,# 18,,,,97008,,f41fa7a316821fb3,America/Los_Angeles
-122.840555,45.527361,1115,NW 158TH AVE,# 413,,,,97006,,b7275d722811cbaf,America/Los_Angeles
-122.8062554,45.4944252,12540,SW COLONY LN,# 1,,,,97005,,aa56164c2f6cf6f5,America/Los_Angeles
-122.8211154,45.481705,5200,SW 141ST AVE,# 57,,,,97005,,7e3b76b43caa135a,America/Los_Angeles
-122.8431236,45.4482458,16135,SW PEBBLE CT,,,,,97007,,1d6dd9bad911b1e6,America/Los_Angeles
-122.8244668,45.5055386,1920,SW 144TH AVE,,,,,97005,,9d04ecf4a328892b,America/Los_Angeles
-122.8431935,45.529012,16100,NW CORNELL RD,# 210,,,,97006,,8f058a2e97c0f381,America/Los_Angeles
-122.8293474,45.4446851,10415,SW MOCKINGBIRD WAY,,,,,97007,,8e00cf9157c858cd,America/Los_Angeles
-122.801454,45.4762452,12090,SW ALLEN BLVD,,,,,97005,,988912256182d22a,America/Los_Angeles
-122.7959343,45.4470043,10216,SW CONESTOGA DR,# 83,,,,97008,,eb2e1614398257bb,America/Los_Angeles
-122.8426106,45.4697401,6950,SW 161ST PL,,,,,97007,,515a66b7683d4b6d,America/Los_Angeles
-122.7724855,45.4835077,9300,SW JAMIESON CT,,,,,97005,,ce8a9b0b30578555,America/Los_Angeles
-122.8111731,45.4821161,5212,SW ERICKSON AVE,,,,,97005,,b3b526c85f16ea44,America/Los_Angeles
-122.8642874,45.5195565,18085,SW SALIX RDG,,,,,97006,,0671715f4d596d47,America/Los_Angeles
-122.795599,45.4944901,11515,SW CENTER ST,# 12,,,,97005,,dae59a330ff79da7,America/Los_Angeles
-122.8486228,45.5240764,607,NW PACIFIC GROVE DR,,,,,97006,,7da5254dfffa8a2d,America/Los_Angeles
-122.836214,45.4332995,15495,SW BUNTING ST,# 101,,,,97007,,ad190982d27e6ae7,America/Los_Angeles
-122.7962494,45.4464979,10206,SW CONESTOGA DR,# 24,,,,97008,,50d372309174ad68,America/Los_Angeles
-122.82219,45.5055051,14095,SW COMPASS DR,,,,,97005,,e256a4cc004747d0,America/Los_Angeles
-122.816222,45.456587,8785,SW CORTEZ CT,,,,,97008,,e9ab8ccc87417ac5,America/Los_Angeles
-122.8470393,45.5181409,240,SW DELTA DR,,,,,97006,,94bafd77227522df,America/Los_Angeles
-122.8310878,45.4398214,15268,SW TEAL BLVD,# B,,,,97007,,50f25be7b2440af1,America/Los_Angeles
-122.8053399,45.4956561,3394,SW 125TH AVE,,,,,97005,,d879fd4bfe3aaaa4,America/Los_Angeles
-122.7627211,45.4837924,8370,SW APPLE WAY,# 203,,,,97225,,bc61935445370de5,America/Los_Angeles
-122.8625072,45.524964,785,NW 180TH AVE,,,,,97006,,71ff4d17eeca0e34,America/Los_Angeles
-122.7721922,45.4732199,6495,SW OLD SCHOLLS FERRY RD,,,,,97223,,3dc54435b5281bce,America/Los_Angeles
-122.8453426,45.5107025,1225,SW 163RD AVE,# 407,,,,97006,,46d5ab87b16cf9af,America/Los_Angeles
-122.8037886,45.4515623,9495,SW DOWNING DR,,,,,97008,,3b029386d7f0f244,America/Los_Angeles
-122.8343925,45.4319424,15330,SW SPARROW LOOP,,,,,97007,,b4456d2343248fbc,America/Los_Angeles
-122.8255623,45.4537874,14445,SW YEARLING WAY,,,,,97008,,fc8221d353f8e0c4,America/Los_Angeles
-122.8492378,45.5243085,637,NW PACIFIC GROVE DR,,,,,97006,,328c436ce81d1133,America/Los_Angeles
-122.8383223,45.4653648,7540,SW 156TH PL,,,,,97007,,ae030dbc94f4b30c,America/Los_Angeles
-122.8308465,45.4521617,14979,SW OPAL DR,,,,,97007,,d4f072d75a5cb5fe,America/Los_Angeles
-122.825524,45.4567004,8775,SW MAVERICK TER,# 501,,,,97008,,d877641e14770d06,America/Los_Angeles
-122.8400102,45.5260321,850,NW ISLAND TER,# A4,,,,97006,,a7be1fdc3fd67970,America/Los_Angeles
-122.7962184,45.4666514,11555,SW BLAKENEY ST,,,,,97008,,c52504e845ea39bf,America/Los_Angeles
-122.8084891,45.5005365,2725,SW CEDAR HILLS BLVD,# 100,,,,97005,,b77981a8b8b864c4,America/Los_Angeles
-122.8585951,45.5293618,1354,NW FALL AVE,,,,,97006,,ae3b49187c69cc10,America/Los_Angeles
-122.8283068,45.4325084,14525,SW MAGPIE LN,# 204,,,,97007,,1a8b50ad5eaf2238,America/Los_Angeles
-122.8352045,45.4516741,9447,SW MANCHESTER PL,,,,,97007,,2f38dace54c0bd23,America/Los_Angeles
-122.7960491,45.494449,11615,SW CENTER ST,# 25,,,,97005,,e8799a4b0dae17b0,America/Los_Angeles
-122.7990476,45.475417,6170,SW LOMBARD AVE,# 23,,,,97008,,7e8467748a34c199,America/Los_Angeles
-122.787368,45.5187128,10703,SW WASHINGTON ST,,,,,97225,,40d741998fdf049a,America/Los_Angeles
-122.8276894,45.4811224,5335,SW MURRAY BLVD,# 236,,,,97005,,3338b32660cbf902,America/Los_Angeles
-122.8145127,45.4490363,13285,SW AQUADUCT CT,,,,,97008,,4494e7491ff512cf,America/Los_Angeles
-122.8539975,45.5341473,1865,NW 169TH PL,# 120,,,,97006,,ff0aa9944b18bbf9,America/Los_Angeles
-122.8224594,45.4390979,11193,SW DAVIES RD,# 401,,,,97007,,12a4df86bf799b29,America/Los_Angeles
-122.7790317,45.4842656,4937,SW CHESTNUT PL,,,,,97005,,4222218cc596c468,America/Los_Angeles
-122.8181393,45.4573074,8675,SW BRIDLETRAIL AVE,,,,,97008,,625c9f3a4b865a0e,America/Los_Angeles
-122.833578,45.437831,11345,SW PINTAIL LOOP,,,,,97007,,936c090ac7d97420,America/Los_Angeles
-122.8225086,45.442685,14165,SW TEAL BLVD,# A,,,,97008,,8e642e7d73465763,America/Los_Angeles
-122.7731628,45.4871524,9357,SW BEAVERTON HILLSDALE HWY,,,,,97005,,3bcb9fc1dc08779b,America/Los_Angeles
-122.7799553,45.4643711,7733,SW SCHOLLS FERRY RD,# 122,,,,97008,,caa6ca24c8a0fc12,America/Los_Angeles
-122.8634084,45.5246768,18146,NW WALKER RD,,,,,97006,,01826866f1debb3f,America/Los_Angeles
-122.8023866,45.461456,12267,SW STEAMBOAT DR,,,,,97008,,043f48956a9e9af6,America/Los_Angeles
-122.8550647,45.5318967,1705,NW 173RD AVE,# 109,,,,97006,,cb06dcc535eeabf5,America/Los_Angeles
-122.8159476,45.457311,8660,SW CORTEZ CT,,,,,97008,,cebc7ebd768624f3,America/Los_Angeles
-122.8098832,45.493579,3590,SW CEDAR HILLS BLVD,,,,,97005,,ed3f5eae8b23f7cc,America/Los_Angeles
-122.8052092,45.4946169,3496,SW 125TH AVE,,,,,97005,,4ca68f22ff2fc9ce,America/Los_Angeles
-122.864917,45.5243704,18202,NW WALKER RD,,,,,97006,,4b99a783feacf068,America/Los_Angeles
-122.8262314,45.4347763,14736,SW SCHOLLS FERRY RD,# 718,,,,97007,,8fea23620ea1c080,America/Los_Angeles
-122.8283974,45.4762843,14745,SW WHEATON LN,,,,,97007,,0fcb079e6f2ef8c6,America/Los_Angeles
-122.8532191,45.4270954,12745,SW 172ND TER,,,,,97007,,f67026ddc4e3fd10,America/Los_Angeles
-122.7996716,45.5221981,500,NW LOST SPRINGS TER,# 402,,,,97229,,3af5d4396c555778,America/Los_Angeles
-122.8197933,45.488185,13787,SW FARMINGTON RD,# 122,,,,97005,,bba8da6e13e8d26e,America/Los_Angeles
-122.8245062,45.4377852,11265,SW DAVIES RD,# 1101,,,,97007,,a4c13135d1164cb1,America/Los_Angeles
-122.8245059,45.4615968,14375,SW SEXTON MOUNTAIN DR,# L,,,,97008,,28d3ae3644eace13,America/Los_Angeles
-122.809793,45.480567,12900,SW 9TH ST,# 128,,,,97005,,251adf300603dcb2,America/Los_Angeles
-122.8045304,45.4913504,12396,SW CENTER ST,# 176,,,,97005,,6fedbec32cf28322,America/Los_Angeles
-122.8405007,45.4510089,15952,SW BRECCIA DR,,,,,97007,,00d8f5a3b78d1cbc,America/Los_Angeles
-122.8241365,45.4335139,14349,SW BARROWS RD,,,,,97007,,07c280de41884bcd,America/Los_Angeles
-122.7984222,45.4682419,11791,SW CRATER LOOP,,,,,97008,,fa177740a16d7d05,America/Los_Angeles
-122.8253395,45.4426117,14451,SW TEAL BLVD,# H,,,,97008,,6bdd7658ce61d7e5,America/Los_Angeles
-122.7613007,45.49905,8250,SW CANYON LN,,,,,97225,,cb0253c11fd81992,America/Los_Angeles
-122.8208773,45.4792693,13999,SW BONNIE BRAE CT,,,,,97005,,f51561d7d55bdb75,America/Los_Angeles
-122.8123473,45.4517374,9660,SW NEW FOREST DR,,,,,97008,,a398ae6fdb6adef0,America/Los_Angeles
-122.8253341,45.4403536,14480,SW TEAL BLVD,# B,,,,97008,,375ccd0e7a319e6b,America/Los_Angeles
-122.8519242,45.49525,3280,SW 170TH AVE,# 202,,,,97003,,ee2d0bf19679852a,America/Los_Angeles
-122.8038601,45.4497615,9665,SW PRAIRIE TER,# B,,,,97008,,699c0fbce8df6f7a,America/Los_Angeles
-122.8262846,45.4361609,14520,SW QUAIL LN,# 305,,,,97007,,f0d2a51a9eee1c79,America/Los_Angeles
-122.814823,45.4648508,7630,SW HYLAND WAY,,,,,97008,,9fc557dfd74663cd,America/Los_Angeles
-122.8653238,45.5290828,1285,NW 183RD AVE,# 39,,,,97006,,a8ce10c1a821449f,America/Los_Angeles
-122.8394072,45.4793046,15752,SW VILLAGE CIR,,,,,97007,,ec1cff7fe99dc0a0,America/Los_Angeles
-122.7994918,45.5214775,11795,NW CEDAR FALLS DR,# 209,,,,97229,,9f744eeab1f77cda,America/Los_Angeles
-122.7946803,45.4804503,5476,SW ALGER AVE,# C2,,,,97005,,0b0b780af3ffba5f,America/Los_Angeles
-122.7801884,45.4572785,8725,SW BRIGHTFIELD CIR,,,,,97223,,3c846de98eba00d0,America/Los_Angeles
-122.7998437,45.4836119,4930,SW LOMBARD AVE,,,,,97005,,125b68ad8df05fcf,America/Los_Angeles
-122.8233426,45.4866796,4655,SW 142ND AVE,# 203,,,,97005,,af78a142b2ff80d6,America/Los_Angeles
-122.8375409,45.4693887,15570,SW BRIGHTON CT,,,,,97007,,1ddffc632bb3014c,America/Los_Angeles
-122.8452717,45.5123484,1015,SW 163RD AVE,# 102,,,,97006,,525b21c8e15c9e17,America/Los_Angeles
-122.8175086,45.4833722,5055,SW MENLO DR,# 2,,,,97005,,b6c9f792eaf5c8a7,America/Los_Angeles
-122.8044241,45.4655951,7535,SW HALL BLVD,# 36,,,,97008,,d7fb63abba773d07,America/Los_Angeles
-122.8270195,45.4649226,14570,SW HART RD,# 231,,,,97007,,fe0c27ed6fa761fc,America/Los_Angeles
-122.8031354,45.4632243,7801,SW HEWITT PL,,,,,97008,,3173e2b24b0fb662,America/Los_Angeles
-122.8034121,45.4724701,12340,SW JENINE LN,,,,,97008,,65bc8ccb4345b684,America/Los_Angeles
-122.7945275,45.4758611,6155,SW KING BLVD,# 24,,,,97008,,2c3250fec527cd87,America/Los_Angeles
-122.8358164,45.434224,11651,SW TEAL BLVD,# D,,,,97007,,0f7701e4a983a3c9,America/Los_Angeles
-122.8235098,45.438831,11215,SW DAVIES RD,# 610,,,,97007,,058ac25c95e1ad0b,America/Los_Angeles
-122.8214663,45.4571401,14090,SW TENNESSEE LN,,,,,97008,,8ac9d018b1816180,America/Los_Angeles
-122.791971,45.4613917,8329,SW CIRRUS DR,,,,,97008,,a39c52cd75ebc919,America/Los_Angeles
-122.8001766,45.4613654,11962,SW WINDMILL DR,,,,,97008,,0a604dda6cdc46c3,America/Los_Angeles
-122.8145872,45.4442605,13390,SW SNOWSHOE LN,,,,,97008,,cd2d00c73e2f8a33,America/Los_Angeles
-122.8180662,45.4854934,13665,SW LARCH PL,# 8,,,,97005,,c54033bf768db82b,America/Los_Angeles
-122.8256676,45.487272,4470,SW MURRAY BLVD,# 12,,,,97005,,db95cdba7e4c7d56,America/Los_Angeles
-122.8292623,45.4642778,14815,SW CAROLWOOD DR,,,,,97007,,b3695631d347bc56,America/Los_Angeles
-122.8308528,45.4397676,15266,SW TEAL BLVD,,,,,97007,,864455c1d28dc87b,America/Los_Angeles
-122.824136,45.4792986,5610,SW MURRAY BLVD,# 36,,,,97005,,55927f8b4b027cd2,America/Los_Angeles
-122.8453222,45.5203494,16375,NW SCHENDEL AVE,# C,,,,97006,,030fc8bd7090f025,America/Los_Angeles
-122.8539695,45.5188788,130,SW 172ND AVE,,,,,97006,,55b184a5247ad2d8,America/Los_Angeles
-122.8154179,45.4459521,10205,SW 135TH AVE,,,,,97008,,e3f173c7704c55c8,America/Los_Angeles
-122.8268341,45.4365259,14625,SW QUAIL LN,# 304,,,,97007,,6d2f7f9c44213970,America/Los_Angeles
-122.8000211,45.4812524,5270,SW LOMBARD AVE,,,,,97005,,dd9087bbf404450d,America/Los_Angeles
-122.8463031,45.4343746,16475,SW BLACKBIRD DR,,,,,97007,,e4c4661507fbfb4c,America/Los_Angeles
-122.8413563,45.5239907,15970,NW BLUERIDGE DR,,,,,97006,,3e79375112c57f88,America/Los_Angeles
-122.8409391,45.520765,315,NW ISLAND CIR,# A1,,,,97006,,0bfa95c476e3dfb2,America/Los_Angeles
-122.7995636,45.4844177,4775,SW PACIFIC AVE,,,,,97005,,0555ee641bedd437,America/Los_Angeles
-122.8264168,45.445158,10265,SW MURRAY BLVD,# 301,,,,97008,,ebae53fa0ca1e6d7,America/Los_Angeles
-122.8322556,45.4992356,2868,SW 153RD DR,# 204,,,,97003,,a9d0a29a782fff73,America/Los_Angeles
-122.7751265,45.4799247,5520,SW ELM AVE,,,,,97005,,3655f0d979601e28,America/Los_Angeles
-122.8215298,45.5047286,1930,SW LATITUDE WAY,,,,,97005,,45287d209e2b3adb,America/Los_Angeles
-122.8011583,45.493492,12270,SW CENTER ST,# 74,,,,97005,,4f188f03762cd0c4,America/Los_Angeles
-122.8485078,45.4949387,3280,SW 170TH AVE,# 1201,,,,97003,,b2eb84a084f05701,America/Los_Angeles
-122.8453226,45.5203576,16375,NW SCHENDEL AVE,# D,,,,97006,,179b2460058d1126,America/Los_Angeles
-122.8451969,45.4696085,6950,SW NETARTS CT,,,,,97007,,d09722d0e04feea7,America/Los_Angeles
-122.8529897,45.5146421,718,SW 171ST AVE,,,,,97006,,f6b394ce89410ec7,America/Los_Angeles
-122.8253743,45.4671767,7260,SW WILSON CT,,,,,97008,,e7d397ff5d451e94,America/Los_Angeles
-122.8417508,45.4545663,9030,SW 161ST AVE,,,,,97007,,1a02c07e3713b5a7,America/Los_Angeles
-122.8105907,45.4772213,12995,SW ALLEN BLVD,# 14,,,,97005,,1eaf81626d66a14c,America/Los_Angeles
-122.8038617,45.522074,295,NW LOST SPRINGS TER,# 408,,,,97229,,93220a034d649e96,America/Los_Angeles
-122.8274141,45.4651778,14570,SW HART RD,# 108,,,,97007,,f560f3c429efccb6,America/Los_Angeles
-122.8426616,45.4930532,16050,SW AUDUBON ST,# 102,,,,97003,,61bded3e6219dac7,America/Los_Angeles
-122.8417091,45.5296781,1500,NW BETHANY BLVD,# 240,,,,97006,,1e6682134fed2f13,America/Los_Angeles
-122.8351367,45.4690114,15375,SW WOODWIND CT,,,,,97007,,d74068e9b50a0b93,America/Los_Angeles
-122.8017659,45.4768217,12175,SW ALLEN BLVD,# 3,,,,97005,,04c1099b4809f5db,America/Los_Angeles
-122.8508761,45.5235551,16865,NW FIRESTONE CT,,,,,97006,,f0b29427a98b48de,America/Los_Angeles
-122.8550754,45.5160531,535,SW 173RD AVE,,,,,97006,,3b8e02746ebb1bf8,America/Los_Angeles
-122.8439487,45.5204272,16285,NW SCHENDEL AVE,# A,,,,97006,,be3adfeb426b160f,America/Los_Angeles
-122.7997827,45.5251197,645,NW FALLING WATERS LN,# 404,,,,97229,,9eed5560195ceafe,America/Los_Angeles
-122.8205326,45.4690429,13920,SW BARLOW RD,,,,,97008,,9e167b6659087d91,America/Los_Angeles
-122.8038949,45.452883,9315,SW DOWNING DR,# 16,,,,97008,,2c113bf4e1fb4098,America/Los_Angeles
-122.8564735,45.5346102,1865,NW 173RD AVE,# 2115,,,,97006,,3050a99f89f9260c,America/Los_Angeles
-122.8200182,45.4911539,13820,SW ELECTRIC ST,# 108,,,,97005,,622fc63aef07a56a,America/Los_Angeles
-122.8408699,45.5102484,1340,SW 160TH AVE,,,,,97006,,cccaa66a56b15612,America/Los_Angeles
-122.8533109,45.429284,17142,SW WOODPECKER LN,,,,,97007,,c4b4c6f4e416f2b3,America/Los_Angeles
-122.8592126,45.5343975,17700,NW CORNELL RD,# 11,,,,97006,,20f81e5444e4f050,America/Los_Angeles
-122.8346625,45.4509414,15305,SW DIAMOND ST,,,,,97007,,207cc0e88263e877,America/Los_Angeles
-122.8085155,45.4545137,9070,SW QUINT CT,,,,,97008,,10244ef8ff1eff44,America/Los_Angeles
-122.812452,45.4685368,13195,SW GLENN CT,,,,,97008,,b7f321288e143344,America/Los_Angeles
-122.8092571,45.4910173,12875,SW CRESCENT ST,# 108,,,,97005,,430ffebbcc1a4ba4,America/Los_Angeles
-122.8233038,45.4411196,14211,SW TEAL BLVD,,,,,97008,,eeb9a2f6547492a6,America/Los_Angeles
-122.8310328,45.4964659,14925,SW MILLIKAN WAY,# 738,,,,97003,,028c70b4628b206f,America/Los_Angeles
-122.8340625,45.4366427,11693,SW TEAL BLVD,# F,,,,97007,,82c72546e97fc76b,America/Los_Angeles
-122.8500036,45.5170402,355,SW 167TH AVE,,,,,97006,,da8dc39a3727505e,America/Los_Angeles
-122.8407835,45.5274802,1115,NW 158TH AVE,# 402,,,,97006,,7535b349a3ec02de,America/Los_Angeles
-122.804722,45.4625756,7925,SW MATHENY DR,,,,,97008,,1cc8f845622b71ef,America/Los_Angeles
-122.7989734,45.4803346,11870,SW 9TH ST,,,,,97005,,c12695779ce969b6,America/Los_Angeles
-122.8417455,45.5105421,1285,SW 160TH AVE,,,,,97006,,4e03c9770b92c8a5,America/Los_Angeles
-122.8289079,45.4319819,14600,SW MAGPIE LN,# 102,,,,97007,,7131e015e7a7616c,America/Los_Angeles
-122.848838,45.4529892,9275,SW OREGON JADE TER,,,,,97007,,38ac92ad9fc7c183,America/Los_Angeles
-122.798208,45.4950645,3410,SW MERCER TER,,,,,97005,,417e98bcd7d4f6cc,America/Los_Angeles
-122.8326126,45.4976182,3250,SW 153RD DR,,,,,97003,,9fbb710748a32328,America/Los_Angeles
-122.8299276,45.5158137,650,SW 150TH AVE,# 118,,,,97006,,ed088b63dde92ed9,America/Los_Angeles
-122.8321741,45.4987897,3008,SW 153RD DR,,,,,97003,,7763d770008497f1,America/Los_Angeles
-122.8354623,45.43671,11671,SW TEAL BLVD,# C,,,,97007,,db043d9047bf7817,America/Los_Angeles
-122.8268839,45.4347788,14730,SW SCHOLLS FERRY RD,# 627,,,,97007,,ba3a25bfe5565c40,America/Los_Angeles
-122.8423287,45.5210776,16085,NW SCHENDEL AVE,# E,,,,97006,,056a2b0cd96d4121,America/Los_Angeles
-122.8248893,45.4465708,14396,SW RANCHER LN,,,,,97008,,932218aba1ec3e90,America/Los_Angeles
-122.8243279,45.4360694,11602,SW GROSBEAK TER,,,,,97007,,9dd4da99b3efc516,America/Los_Angeles
-122.8385929,45.4319218,12185,SW WINTERHAWK LN,,,,,97007,,5eb59d671f7e60e0,America/Los_Angeles
-122.8439394,45.4274425,12790,SW NIGHT HERON LN,# 100,,,,97007,,ae7d8f190e14413d,America/Los_Angeles
-122.844559,45.5112308,1195,SW 163RD AVE,# 205,,,,97006,,0fcd54c219060483,America/Los_Angeles
-122.8193243,45.4919351,13820,SW ELECTRIC ST,# 15-E,,,,97005,,62a142da6ab18e42,America/Los_Angeles
-122.8294003,45.4338116,14812,SW SCHOLLS FERRY RD,# 301,,,,97007,,405e25449b6a87b6,America/Los_Angeles
-122.8556234,45.5321139,1725,NW 173RD AVE,# 803,,,,97006,,bb572ec52547fa31,America/Los_Angeles
-122.7959429,45.4724052,11550,SW BRUCE DR,,,,,97008,,98b85f35bf6ba7c5,America/Los_Angeles
-122.8333378,45.4478779,9950,SW OBSIDIAN ST,,,,,97007,,40fc7130c2498f2d,America/Los_Angeles
-122.8255528,45.4566999,8775,SW MAVERICK TER,# 502,,,,97008,,9d11cb1c0d832301,America/Los_Angeles
-122.7934562,45.4673914,11355,SW CLIFFORD ST,,,,,97008,,ca4292e486f069b4,America/Los_Angeles
-122.8198539,45.4751655,6200,SW CHERRYHILL DR,,,,,97008,,b422cd7c2443e6e8,America/Los_Angeles
-122.8224409,45.5034588,13915,SW MERIDIAN ST,# 109,,,,97005,,ed450aeead62df67,America/Los_Angeles
-122.8102756,45.4456028,10290,SW 130TH AVE,,,,,97008,,edf1b59403e7bdd2,America/Los_Angeles
-122.8582098,45.5373048,17977,NW EVERGREEN PL,# 203,,,,97006,,5d0176995e5c385f,America/Los_Angeles
-122.7975995,45.5227458,11640,NW STONE MOUNTAIN LN,# 206,,,,97229,,d1fdc3545a33fca3,America/Los_Angeles
-122.8664999,45.518253,18430,SW SALIX RDG,,,,,97006,,edc8a96b105ecaa0,America/Los_Angeles
-122.8400416,45.5248478,720,NW ISLAND TER,,,,,97006,,454c3307e783e8c6,America/Los_Angeles
-122.7607862,45.5006576,8135,SW VALLEY VIEW DR,,,,,97225,,98680b112ddaded2,America/Los_Angeles
-122.7469954,45.5059956,2130,SW CAMELOT CT,# 6,,,,97225,,f83fcdb9d2f5eed9,America/Los_Angeles
-122.8280822,45.4355949,14670,SW QUAIL LN,# 203,,,,97007,,e8ed500dda3c1709,America/Los_Angeles
-122.795762,45.4798002,5486,SW ALGER AVE,# H8,,,,97005,,01b46991226b0f03,America/Los_Angeles
-122.8245783,45.4613887,14375,SW SEXTON MOUNTAIN DR,# I,,,,97008,,2774dc69256d8ea8,America/Los_Angeles
-122.8278993,45.4436702,14675,SW OSPREY DR,,,,,97007,,896d70cc81bb8b29,America/Los_Angeles
-122.8494774,45.5227643,410,NW 167TH AVE,,,,,97006,,690dbccf01802714,America/Los_Angeles
-122.7887038,45.518195,10918,SW CELESTE LN,# 402,,,,97225,,a9546b1ee9b4d3de,America/Los_Angeles
-122.7835969,45.4714912,10405,SW DENNEY RD,# 16,,,,97008,,fca2a55524341197,America/Los_Angeles
-122.7991788,45.4626163,11835,SW RIDGECREST DR,# 18,,,,97008,,c4568b87f6d104f0,America/Los_Angeles
-122.8085116,45.4709235,6780,SW DALE AVE,,,,,97008,,165594ddf88f4084,America/Los_Angeles
-122.8036626,45.4443496,12270,SW PIONEER LN,# 353,,,,97008,,b6de1fe66a291ac9,America/Los_Angeles
-122.7600983,45.4838897,8080,SW LAURELWOOD CT,,,,,97225,,fbfca8f7ebcaf0d9,America/Los_Angeles
-122.8007529,45.4576812,11960,SW BEAVERCREST CT,,,,,97008,,8df89e284003d191,America/Los_Angeles
-122.829067,45.5162185,14878,SW CONOR CIR,,,,,97006,,f48aa158acfa8e54,America/Los_Angeles
-122.83772,45.4311612,12285,SW SHELDRAKE WAY,,,,,97007,,906d01540aa31449,America/Los_Angeles
-122.8551742,45.5225271,17337,NW BERNARD PL,,,,,97006,,32fd482dd4273fe9,America/Los_Angeles
-122.8604575,45.5266162,17825,NW DOGWOOD CT,,,,,97006,,309db5984be4d3c0,America/Los_Angeles
-122.8321781,45.4334971,11959,SW HORIZON BLVD,,,,,97007,,77b375264ff59141,America/Los_Angeles
-122.8045917,45.4471188,10020,SW 125TH AVE,# 305,,,,97008,,479973b9df95ee4e,America/Los_Angeles
-122.8634636,45.5250395,18132,NW WALKER RD,# C,,,,97006,,d46248c8ac0f4c7b,America/Los_Angeles
-122.8142682,45.4809474,13355,SW BERTHOLD ST,,,,,97005,,1a610000f8874573,America/Los_Angeles
-122.8412788,45.5120282,1050,SW 160TH AVE,# 501,,,,97006,,96f6d4fc6703dcd8,America/Los_Angeles
-122.846219,45.4710124,16481,SW TIMBERLAND DR,,,,,97007,,f2a395831b0d5963,America/Los_Angeles
-122.8458594,45.4362896,16420,SW SNOWY OWL LN,,,,,97007,,46e5b228180ff9dc,America/Los_Angeles
-122.8438096,45.5199963,16275,NW SCHENDEL AVE,# G,,,,97006,,cd68e3914b44170d,America/Los_Angeles
-122.8079332,45.5025511,12745,SW WALKER RD,# 400,,,,97005,,0d395706377bbee4,America/Los_Angeles
-122.8123921,45.4656052,7525,SW 131ST AVE,,,,,97008,,6bafa50b15287441,America/Los_Angeles
-122.7946975,45.4469215,10008,SW CONESTOGA DR,# 116,,,,97008,,845e5090c5ece15c,America/Los_Angeles
-122.8522387,45.5337502,1905,NW 169TH PL,# 220,,,,97006,,e1be1f8c326febda,America/Los_Angeles
-122.8303581,45.4331376,14848,SW SCHOLLS FERRY RD,# 301,,,,97007,,e6d1c15cc69288cb,America/Los_Angeles
-122.7960342,45.4837309,4915,SW GRIFFITH DR,# 210,,,,97005,,a569e0afb1b990e8,America/Los_Angeles
-122.8229009,45.4868618,4555,SW 142ND AVE,# 156,,,,97005,,875e7de422c3c8aa,America/Los_Angeles
-122.7806257,45.4712464,10115,SW WINTER LN,,,,,97008,,d87f02aff021705e,America/Los_Angeles
-122.8326998,45.4979015,3128,SW 153RD DR,,,,,97003,,5df917363021b6fb,America/Los_Angeles
-122.801783,45.461429,12172,SW WALDEN LN,,,,,97008,,72cd72ea009b2809,America/Los_Angeles
-122.7748948,45.4727859,9555,SW ALLEN BLVD,# 41,,,,97005,,3f7ab10420144af8,America/Los_Angeles
-122.7861197,45.5170557,384,SW 105TH TER,,,,,97225,,a77531b5a3f99afb,America/Los_Angeles
-122.8304889,45.4342848,14916,SW SCHOLLS FERRY RD,# 301,,,,97007,,833301d58a0eace7,America/Los_Angeles
-122.8121432,45.4805646,5425,SW ERICKSON AVE,,,,,97005,,999a7aed6cfb761c,America/Los_Angeles
-122.8219411,45.4754093,14130,SW ALLEN BLVD,# 79,,,,97005,,7432514ed155dff5,America/Los_Angeles
-122.8198129,45.4416306,10880,SW DAVIES RD,# 3023,,,,97008,,d0f7842f73b79297,America/Los_Angeles
-122.818478,45.4807977,13745,SW BERTHOLD ST,,,,,97005,,483768c9e5596323,America/Los_Angeles
-122.8102971,45.4667667,7350,SW 130TH AVE,,,,,97008,,5039a554b765fb3a,America/Los_Angeles
-122.7485604,45.5057411,1950,SW CAMELOT CT,# 504,,,,97225,,a4553c829a9b9b4c,America/Los_Angeles
-122.8449643,45.5166741,16415,SW ESTUARY DR,# 208,,,,97006,,d07be0398454051e,America/Los_Angeles
-122.8205815,45.4495946,9740,SW DAVIES RD,,,,,97008,,855bad8a19675225,America/Los_Angeles
-122.8064719,45.4567427,8755,SW PACER DR,,,,,97008,,8c9c463affffafa6,America/Los_Angeles
-122.8183403,45.4880527,13787,SW FARMINGTON RD,# 157,,,,97005,,e9ef3db3cdc82ad1,America/Los_Angeles
-122.7938885,45.4652413,11355,SW TIMBERLINE DR,,,,,97008,,f85184c6770c3162,America/Los_Angeles
-122.818494,45.4400079,13740,SW SCHOLLS FERRY RD,# 103,,,,97007,,6af405feb199d706,America/Los_Angeles
-122.8253057,45.486311,4650,SW MURRAY BLVD,# 70,,,,97005,,e6f7f686959a8d66,America/Los_Angeles
-122.8153781,45.4898505,4105,SW HOCKEN AVE,# 207,,,,97005,,7ec5665725979386,America/Los_Angeles
-122.8009092,45.4621866,7935,SW HALL BLVD,,,,,97008,,5620b0e427f3da06,America/Los_Angeles
-122.8453951,45.4509212,9491,SW 164TH AVE,,,,,97007,,e2c83c34b2121fdf,America/Los_Angeles
-122.803692,45.4522667,9385,SW DOWNING DR,# 6,,,,97008,,da5f0a970c88d4c1,America/Los_Angeles
-122.8019899,45.4701744,6949,SW CAMDEN LN,,,,,97008,,fcf1b21a5282b957,America/Los_Angeles
-122.8448141,45.5204937,16355,NW SCHENDEL AVE,# H,,,,97006,,1cfcf9943418cf55,America/Los_Angeles
-122.8039249,45.4707258,6800,SW HALL BLVD,# 7,,,,97008,,0d28252c11e6f64a,America/Los_Angeles
-122.8169312,45.4748246,6220,SW MENLO DR,,,,,97008,,42d36b64df163378,America/Los_Angeles
-122.8483106,45.5260989,860,NW WINGED FOOT TER,,,,,97006,,85555bf01ec187e3,America/Los_Angeles
-122.8328178,45.4944887,15170,SW MILLIKAN WAY,# 1036,,,,97003,,7024658d527f5770,America/Los_Angeles
-122.8216422,45.5028463,13885,SW MERIDIAN ST,# 134,,,,97005,,b1408f91a66af6b7,America/Los_Angeles
-122.7983978,45.522207,11725,NW TIMBERVIEW LN,# 407,,,,97229,,a90c7ed441bd11bb,America/Los_Angeles
-122.7797263,45.4701628,6920,SW ROLLINGWOOD DR,,,,,97008,,d1812545c36d6ab6,America/Los_Angeles
-122.8288983,45.5167932,430,SW 148TH TER,,,,,97006,,9c5eb910e76ce7e9,America/Los_Angeles
-122.8314156,45.4954648,15000,SW MILLIKAN WAY,# 137,,,,97003,,19492f53960a5344,America/Los_Angeles
-122.8319941,45.4952659,15256,SW MILLIKAN WAY,# 336,,,,97003,,2adaa3ccbc62c8e1,America/Los_Angeles
-122.7829223,45.4713183,10405,SW DENNEY RD,# 35,,,,97008,,ece88bb854421a00,America/Los_Angeles
-122.7719299,45.4820873,9205,SW JAMIESON RD,,,,,97005,,27e54aca067c5c53,America/Los_Angeles
-122.8187095,45.476925,13755,SW ALLEN BLVD,# 11,,,,97005,,9015c0d2b2592114,America/Los_Angeles
-122.7982014,45.4825437,11725,SW 6TH ST,,,,,97005,,89d3d22b6cba3b44,America/Los_Angeles
-122.7774624,45.4685176,9785,SW CYNTHIA ST,,,,,97008,,55fa5cd98d4cba75,America/Los_Angeles
-122.7945861,45.4481352,9920,SW CONESTOGA DR,# 203,,,,97008,,fe26d35235e252f9,America/Los_Angeles
-122.7914989,45.4612507,8213,SW CIRRUS DR,,,,,97008,,08acce55c224fe24,America/Los_Angeles
-122.7994032,45.4617394,8015,SW HALL BLVD,# 10,,,,97008,,8879dd612b722ed0,America/Los_Angeles
-122.8041368,45.4502718,9625,SW PRAIRIE TER,# A,,,,97008,,d1c25823119e2c78,America/Los_Angeles
-122.7866262,45.5162609,505,SW VALERIA VIEW DR,# 301,,,,97225,,f53f48866449da1f,America/Los_Angeles
-122.8100003,45.4911702,12900,SW CRESCENT ST,# 412,,,,97005,,b87549fa8e38953e,America/Los_Angeles
-122.8452296,45.5108082,1225,SW 163RD AVE,# 305,,,,97006,,69fa471a175b76a8,America/Los_Angeles
-122.8454209,45.5050151,2032,SW MERLO CT,# 130,,,,97003,,15f1f142f5bfdd34,America/Los_Angeles
-122.8141356,45.4470587,13325,SW THATCHER DR,,,,,97008,,652c7f143fdbacaa,America/Los_Angeles
-122.8575956,45.5366429,17957,NW EVERGREEN PL,# 200,,,,97006,,47aeca48c93d1bb7,America/Los_Angeles
-122.7963529,45.4479364,10016,SW CONESTOGA DR,# 170,,,,97008,,201f994521174430,America/Los_Angeles
-122.8452817,45.5203569,16375,NW SCHENDEL AVE,# F,,,,97006,,bc2e012e1c6111f0,America/Los_Angeles
-122.7964218,45.4719321,6670,SW ALICE CT,,,,,97008,,c0216586b41a2c61,America/Los_Angeles
-122.8400534,45.4641213,7700,SW 158TH PL,,,,,97007,,05448457ff4235a9,America/Los_Angeles
-122.8448641,45.5144423,16380,SW ESTUARY DR,# 203,,,,97006,,f9ab88d1ebc0038d,America/Los_Angeles
-122.8430062,45.4284274,16175,SW WHISTLING SWAN LN,,,,,97007,,9a125e52f3e1fb89,America/Los_Angeles
-122.8662985,45.5245973,750,NW 185TH AVE,# 208,,,,97006,,2eac04d5c24035c6,America/Los_Angeles
-122.8529828,45.5184084,208,SW 171ST PL,,,,,97006,,af2db6066126308e,America/Los_Angeles
-122.8355324,45.4506475,15420,SW MICA LN,,,,,97007,,4a636accb4eb8850,America/Los_Angeles
-122.8499076,45.4744067,6275,SW TILLAMOOK PL,,,,,97007,,783d332671f2814c,America/Los_Angeles
-122.7896587,45.463977,7737,SW NIMBUS AVE,,,,,97008,,6ca60ad1360ca03d,America/Los_Angeles
-122.8423245,45.4475274,16002,SW WEIR RD,,,,,97007,,2d23f82279721154,America/Los_Angeles
-122.8097471,45.4910537,12900,SW CRESCENT ST,# 322,,,,97005,,920f871ae4f73b27,America/Los_Angeles
-122.8076656,45.4867819,4545,SW ANGEL AVE,# 307,,,,97005,,61a6d327657b1bf5,America/Los_Angeles
-122.8379352,45.4640466,7755,SW BARNARD DR,,,,,97007,,a181c96387c360b4,America/Los_Angeles
-122.8105732,45.4891048,4290,SW CEDAR HILLS BLVD,,,,,97005,,2011f11b604e6f1c,America/Los_Angeles
-122.8349667,45.4322931,15485,SW SPARROW LOOP,# 104,,,,97007,,ff5921f11f650368,America/Los_Angeles
-122.8450128,45.4559285,16420,SW SIENNA LN,,,,,97007,,0f8230fa4e3cf527,America/Los_Angeles
-122.8430692,45.4923402,16212,SW AUDUBON ST,# 203,,,,97003,,c46c6c00d1497c9c,America/Los_Angeles
-122.8143474,45.4629571,13345,SW BARBERRY DR,,,,,97008,,738022c432485921,America/Los_Angeles
-122.7774485,45.4853733,4825,SW 98TH AVE,,,,,97005,,1a02015cf565f7a3,America/Los_Angeles
-122.8328004,45.4335267,15110,SW CANYON WREN WAY,,,,,97007,,f085dc47b81e97c9,America/Los_Angeles
-122.8269206,45.4455633,10295,SW MURRAY BLVD,# 108,,,,97008,,383dd1090e3672fd,America/Los_Angeles
-122.84909,45.4954849,3280,SW 170TH AVE,# 1114,,,,97003,,1a7a17515be0e2a4,America/Los_Angeles
-122.8453431,45.4536356,16434,SW CORNELIAN WAY,,,,,97007,,cdd238ae9a0ad74d,America/Los_Angeles
-122.7939044,45.4777223,11370,SW 13TH ST,,,,,97005,,ae6bdb3d14fed420,America/Los_Angeles
-122.8221894,45.439885,14180,SW TEAL BLVD,# C,,,,97008,,b4b1ad3ea3046672,America/Los_Angeles
-122.7807905,45.457668,8600,SW SCHOLLS FERRY RD,# 60,,,,97008,,a61d1db7397d7263,America/Los_Angeles
-122.8024004,45.4843606,4825,SW FRANKLIN AVE,# 232,,,,97005,,34d7c8da8af9b64e,America/Los_Angeles
-122.8319646,45.4943266,15080,SW MILLIKAN WAY,# 1211,,,,97003,,2897bcd9ff577105,America/Los_Angeles
-122.8279283,45.4807224,5335,SW MURRAY BLVD,# 122,,,,97005,,8d33cd43cdbf9f80,America/Los_Angeles
-122.7832001,45.4564062,8795,SW SCHOLLS FERRY RD,# 100,,,,97008,,f096aaf3ce96b8e8,America/Los_Angeles
-122.7971955,45.5260325,830,NW 118TH AVE,# 102,,,,97229,,454a191f8a5f1459,America/Los_Angeles
-122.7917807,45.4616352,7923,SW CIRRUS DR,,,,,97008,,ea01716135783c3c,America/Los_Angeles
-122.857786,45.5341615,17640,NW CORNELL RD,# 2,,,,97006,,f12bfde8f05ec3da,America/Los_Angeles
-122.8212496,45.4762662,6000,SW FISHER AVE,# 2,,,,97008,,965b277e6c42330d,America/Los_Angeles
-122.828024,45.4663748,14615,SW FOREST PL,,,,,97007,,9e2db4c7ff2ff46b,America/Los_Angeles
-122.8174526,45.4432665,13650,SW OTTER LN,,,,,97008,,c8608db7c129c1de,America/Los_Angeles
-122.8105662,45.4798707,5450,SW ERICKSON AVE,# B210,,,,97005,,35bebdb39fec5a0d,America/Los_Angeles
-122.8328975,45.4947056,15170,SW MILLIKAN WAY,# 1021,,,,97003,,cb4f042893918305,America/Los_Angeles
-122.8278119,45.4436858,14675,SW OSPREY DR,# 423,,,,97007,,b4902e960a2c82b5,America/Los_Angeles
-122.8292807,45.4667162,14705,SW FOREST DR,,,,,97007,,aeece5c7393691bb,America/Los_Angeles
-122.7840178,45.459395,10405,SW HOMESTEAD LN,,,,,97008,,1e93bf1e3f0c8528,America/Los_Angeles
-122.8262101,45.4343879,14742,SW SCHOLLS FERRY RD,# 812,,,,97007,,b2371f2bd7c630c3,America/Los_Angeles
-122.8239152,45.4615645,14345,SW SEXTON MOUNTAIN DR,# A,,,,97008,,c2a9dc76cbd63c27,America/Los_Angeles
-122.829622,45.4325956,14705,SW SANDHILL LOOP,# 201,,,,97007,,ca86d3ff10123920,America/Los_Angeles
-122.7975322,45.5210103,240,NW 117TH AVE,# 104,,,,97229,,3894a5af1280a75f,America/Los_Angeles
-122.8231838,45.4589764,8425,SW MAVERICK PL,,,,,97008,,4fce381cadeb8eb3,America/Los_Angeles
-122.8316812,45.4486611,15180,SW OBSIDIAN ST,,,,,97007,,cd9513c7e230b455,America/Los_Angeles
-122.8236163,45.4733416,14270,SW 20TH ST,,,,,97008,,f9fe816c9d38e9b5,America/Los_Angeles
-122.8534099,45.5186949,165,SW 171ST AVE,,,,,97006,,0d6e984c1c152244,America/Los_Angeles
-122.7722417,45.4719532,9225,SW ALLEN BLVD,,,,,97223,,b456419ae3e4c2f3,America/Los_Angeles
-122.8055883,45.5008963,2606,SW CEDAR HILLS BLVD,,,,,97005,,1fac28ae49891fc0,America/Los_Angeles
-122.7751429,45.4847562,4925,SW JAMIESON RD,# 7,,,,97005,,a3e27205a81632ad,America/Los_Angeles
-122.7730673,45.4728048,6575,SW OLD SCHOLLS FERRY RD,# 17,,,,97223,,d79d37024ea822d7,America/Los_Angeles
-122.8285261,45.4826506,14739,SW REDBUD WAY,,,,,97007,,6e3ec6fb8369c98a,America/Los_Angeles
-122.8404306,45.4617134,8043,SW 159TH PL,,,,,97007,,951d1372eb701874,America/Los_Angeles
-122.8420453,45.513569,970,SW 163RD AVE,# 724,,,,97006,,6f43c819d02e5e7d,America/Los_Angeles
-122.8081317,45.4931188,3775,SW HALL BLVD,,,,,97005,,ff38609a8bb3828a,America/Los_Angeles
-122.8170063,45.4717292,13550,SW 22ND ST,,,,,97008,,05e24d4d065d48eb,America/Los_Angeles
-122.8251843,45.5049591,14403,SW MERIDIAN ST,,,,,97005,,daf8684aafa17100,America/Los_Angeles
-122.8317338,45.4975383,3210,SW 153RD DR,,,,,97003,,fef9d7f38d72013c,America/Los_Angeles
-122.8316188,45.4338192,11910,SW HORIZON BLVD,,,,,97007,,17d822da965aa12d,America/Los_Angeles
-122.8064962,45.4536874,12595,SW COLT CT,,,,,97008,,4152cd98d928f3a5,America/Los_Angeles
-122.8066052,45.4789932,12625,SW 12TH ST,,,,,97005,,633bdd8f3caac24d,America/Los_Angeles
-122.8651322,45.5243742,18202,NW WALKER RD,# F,,,,97006,,3604d6c6423a091e,America/Los_Angeles
-122.8591394,45.5343556,17700,NW CORNELL RD,,,,,97006,,2ac7264cc0119877,America/Los_Angeles
-122.7794786,45.4873734,4525,SW 99TH AVE,# 204,,,,97005,,370c640ff5606110,America/Los_Angeles
-122.8033789,45.5223016,315,NW LOST SPRINGS TER,# 303,,,,97229,,cf2858bc389bd0c1,America/Los_Angeles
-122.8253429,45.4390898,14370,SW TEAL BLVD,# C,,,,97008,,af72f2cfea0ddf9d,America/Los_Angeles
-122.8368812,45.4510654,15528,SW STONE RIDGE CIR,,,,,97007,,fe7c2324214ac2df,America/Los_Angeles
-122.8085702,45.4911328,12875,SW CRESCENT ST,# 427,,,,97005,,c6177eb381a9d6c6,America/Los_Angeles
-122.8130524,45.4838073,5070,SW FAIRMOUNT DR,,,,,97005,,ae7de286e5b1fb03,America/Los_Angeles
-122.8233352,45.4866619,4655,SW 142ND AVE,# 194,,,,97005,,7bf9634ca87bb37e,America/Los_Angeles
-122.8044318,45.4478741,12415,SW CONESTOGA DR,# 37,,,,97008,,29b9d5e222a18c08,America/Los_Angeles
-122.8062864,45.4770632,12600,SW DALY LN,,,,,97005,,a7b02881b2a4d747,America/Los_Angeles
-122.8320117,45.44086,15218,SW TEAL BLVD,# A,,,,97007,,dda59d984be4eb6c,America/Los_Angeles
-122.8240721,45.4395626,14320,SW TEAL BLVD,# F,,,,97008,,687865230713579d,America/Los_Angeles
-122.7556111,45.4991829,2900,SW WEST POINT AVE,,,,,97225,,c860a331135ba8c9,America/Los_Angeles
-122.7968717,45.5227025,11610,NW STONE MOUNTAIN LN,# 303,,,,97229,,2f3a617c2d43a558,America/Los_Angeles
-122.8309495,45.4397524,15266,SW TEAL BLVD,# F,,,,97007,,d063342ddc8eea43,America/Los_Angeles
-122.822739,45.4521923,9360,SW PALOMINO PL,,,,,97008,,f98f083b9dda0624,America/Los_Angeles
-122.8535511,45.4485915,9846,SW 172ND AVE,,,,,97007,,423526b331f412be,America/Los_Angeles
-122.8009838,45.4857012,4725,SW LOMBARD AVE,# 502,,,,97005,,e5acf8eaaed604fd,America/Los_Angeles
-122.8019558,45.4442289,12160,SW PIONEER LN,# 343,,,,97008,,83b5c1b1d97bb9d4,America/Los_Angeles
-122.8412973,45.4270709,16000,SW TOWHEE LN,,,,,97007,,b450d09487b28168,America/Los_Angeles
-122.8359183,45.4329711,15480,SW BUNTING ST,# 107,,,,97007,,6f5291826e36c75e,America/Los_Angeles
-122.8358539,45.4663914,7405,SW 154TH PL,,,,,97007,,02e2f9a56951fa7f,America/Los_Angeles
-122.8015583,45.4740634,6371,SW LOMBARD AVE,# 72,,,,97008,,5600c3e733c95e2f,America/Los_Angeles
-122.842669,45.5174412,16055,SW REGATTA LN,,,,,97006,,8a4a33edfab8c0e3,America/Los_Angeles
-122.8447975,45.5189549,16315,NW SCHENDEL AVE,# E,,,,97006,,dd86d84bad865eef,America/Los_Angeles
-122.8342159,45.4358975,11689,SW TEAL BLVD,# C,,,,97007,,ea9efd2a3a8a8946,America/Los_Angeles
-122.8429178,45.5158512,16320,SW ESTUARY DR,# 101,,,,97006,,bd464ecbda6eb36a,America/Los_Angeles
-122.8135291,45.481607,13290,SW HAZEL ST,,,,,97005,,414b7770f1b62d6e,America/Los_Angeles
-122.8040334,45.4916266,12392,SW CENTER ST,# 155,,,,97005,,4bd238ef8dec6d13,America/Los_Angeles
-122.8180203,45.4918359,13751,SW ELECTRIC ST,,,,,97005,,668ef32e7f847f98,America/Los_Angeles
-122.8036869,45.4739097,6350,SW 124TH AVE,# 9,,,,97008,,74e498b5717b9dfa,America/Los_Angeles
-122.8208665,45.479673,5480,SW BRENDON CT,,,,,97005,,5b0bb52fb2f1cd9a,America/Los_Angeles
-122.8274048,45.4651161,14570,SW HART RD,# 106,,,,97007,,e789b3325bf79fde,America/Los_Angeles
-122.7980658,45.4784022,11750,SW 12TH ST,,,,,97005,,992eeaabd2c53a4f,America/Los_Angeles
-122.8416007,45.5202545,15985,NW SCHENDEL AVE,# 200,,,,97006,,9b80e1be2954ae87,America/Los_Angeles
-122.8667711,45.5238909,730,NW 185TH AVE,# 202,,,,97006,,56e09dc4eba04b0b,America/Los_Angeles
-122.8219051,45.4747957,14140,SW ALLEN BLVD,# 64,,,,97005,,14ecf74aec4f935e,America/Los_Angeles
-122.8013061,45.4935296,12270,SW CENTER ST,# 57,,,,97005,,21f6fc3b33a83c49,America/Los_Angeles
-122.8074099,45.4951864,12625,SW COLONY LN,# 16,,,,97005,,128b7276befca1ab,America/Los_Angeles
-122.8504718,45.4723971,6570,SW 169TH AVE,,,,,97007,,8b844d6ad5d4b59b,America/Los_Angeles
-122.7970691,45.4902269,4130,SW 117TH AVE,# J,,,,97005,,79a87e4be86e88d4,America/Los_Angeles
-122.8098818,45.4770531,5925,SW TARALYNN PL,,,,,97005,,9b5a438a7557b6ec,America/Los_Angeles
-122.8060167,45.4474079,12550,SW CONESTOGA DR,,,,,97008,,d56dc4af798120b8,America/Los_Angeles
-122.8287642,45.4421578,14780,SW OSPREY DR,,,,,97007,,b5d70c19c3742ae1,America/Los_Angeles
-122.8277399,45.4662644,14605,SW FOREST PL,,,,,97007,,2abc5537401a351c,America/Los_Angeles
-122.8500863,45.4952405,3280,SW 170TH AVE,# 808,,,,97003,,35204b07f00069f2,America/Los_Angeles
-122.8219305,45.4364503,11519,SW DAVIES RD,# 2404,,,,97007,,e7ef812e82a09276,America/Los_Angeles
-122.7896786,45.484503,10955,SW LARCH LN,,,,,97005,,d923151b81b3ccb8,America/Los_Angeles
-122.7988222,45.4941901,11855,SW CENTER ST,# 119,,,,97005,,a4ce70416177c2f5,America/Los_Angeles
