lon,lat,number,street,unit,city,district,region,postcode,id,hash,tz
-73.5579341,41.1780279,35,BLACK ROCK RD,,,,,,,6b3debddddab4bd8,America/New_York
-73.5597132,41.177148,79,BLACK ROCK RD,,,,,,,12202c4df6e796c8,America/New_York
-73.5594686,41.1765739,86,BLACK ROCK RD,,,,,,,42f0c250baaf72bd,America/New_York
-73.5609477,41.1768261,99,BLACK ROCK RD,,,,,,,9a5a4ce766127b3e,America/New_York
-73.5609472,41.1762445,111,BLACK ROCK RD,,,,,,,e6aa89489a1954fa,America/New_York
-73.5622891,41.1761154,37,CRAIG CT,,,,,,,7e81698bfc49587e,America/New_York
-73.5602784,41.1757985,116,BLACK ROCK RD,,,,,,,35afcbfab2a6b94a,America/New_York
-73.5629821,41.1758725,41,CRAIG CT,,,,,,,785fcfd8322bc538,America/New_York
-73.5638954,41.1755553,2,CRAIG CT,,,,,,,1bb8197d531a63f8,America/New_York
-73.5616861,41.1751211,35,CRAIG CT,,,,,,,8c45607c0ba62881,America/New_York
-73.5641406,41.1752143,1,CRAIG CT,,,,,,,bc7b2fba4ccfb59c,America/New_York
-73.5630784,41.1753257,15,CRAIG CT,,,,,,,bc538c202a882108,America/New_York
-73.5650767,41.1749087,3196,HIGH RIDGE RD,,,,,,,ad57ed3594fffae5,America/New_York
-73.5633954,41.1749471,21,CRAIG CT,,,,,,,2d37fc0cc61086b7,America/New_York
-73.5654871,41.1745527,15,FAIRWAY DR,,,,,,,bbb27ba0c3752991,America/New_York
-73.5641962,41.1746773,7,CRAIG CT,,,,,,,19c6aeb455e56fba,America/New_York
-73.5660276,41.1743757,29,FAIRWAY DR,,,,,,,8e99a8cc98b48df4,America/New_York
-73.5622264,41.174188,54,RIDING STABLE TRL,,,,,,,bd771ffcadd68d6e,America/New_York
-73.5631184,41.1742996,3153,HIGH RIDGE RD,,,,,,,bfe51839e2bfb4dd,America/New_York
-73.5667509,41.1741834,45,FAIRWAY DR,,,,,,,96237e950e2f74ff,America/New_York
-73.5640622,41.1742289,3151,HIGH RIDGE RD,,,,,,,13012868420efcbf,America/New_York
-73.5672889,41.1738763,57,FAIRWAY DR,,,,,,,d4ae9c6fd7a5ef69,America/New_York
-73.5650971,41.1739073,10,FAIRWAY DR,,,,,,,f931002cad03240e,America/New_York
-73.562511,41.1738272,46,RIDING STABLE TRL,,,,,,,7fa9f634e99565d3,America/New_York
-73.5677152,41.1735796,69,FAIRWAY DR,,,,,,,8f49d4c527a66e79,America/New_York
-73.5652596,41.1725159,20,FAIRWAY DR,,,,,,,0336395c5a382004,America/New_York
-73.5655118,41.1730034,24,FAIRWAY DR,,,,,,,0cd32e0cb6c5510d,America/New_York
-73.5658112,41.1737432,28,FAIRWAY DR,,,,,,,8043779037e70a48,America/New_York
-73.5632644,41.1735681,3145,HIGH RIDGE RD,,,,,,,60a5a0f236149dff,America/New_York
-73.5614066,41.1730692,41,RIDING STABLE TRL,,,,,,,d16ffac9bc3ccb71,America/New_York
-73.5640644,41.1734694,3143,HIGH RIDGE RD,,,,,,,58212868feaba97f,America/New_York
-73.5682131,41.1733513,83,FAIRWAY DR,,,,,,,92d0fc1460a6f6a4,America/New_York
-73.566337,41.1734924,48,FAIRWAY DR,,,,,,,a3760656d5e3df1e,America/New_York
-73.5647489,41.1732172,16,FAIRWAY DR,,,,,,,e80a6b1103767cb1,America/New_York
-73.5687371,41.1731525,97,FAIRWAY DR,,,,,,,92c2a7b4bd849db6,America/New_York
-73.5620693,41.1732499,45,RIDING STABLE TRL,,,,,,,56d6c0c08c2c572b,America/New_York
-73.5662787,41.1724441,54,FAIRWAY DR,,,,,,,561dc862cf5fccd8,America/New_York
-73.566841,41.1731815,60,FAIRWAY DR,,,,,,,4c9f4a0ec8b87cdd,America/New_York
-73.5595959,41.172846,53,CALASS LN,,,,,,,2391e6dbdc0a7496,America/New_York
-73.5637682,41.1730216,3127,HIGH RIDGE RD,,,,,,,a55bb0d541652535,America/New_York
-73.560955,41.1728084,56,CALASS LN,,,,,,,23a923700f73ce1a,America/New_York
-73.5692223,41.1728818,107,FAIRWAY DR,,,,,,,d2dccf9439d4ec9c,America/New_York
-73.5672001,41.172841,74,FAIRWAY DR,,,,,,,4bd0828ed31a33cc,America/New_York
-73.5628098,41.1729075,25,RIDING STABLE TRL,,,,,,,d5821c3ca17f41e6,America/New_York
-73.56969,41.1725948,111,FAIRWAY DR,,,,,,,66f5334cee8df345,America/New_York
-73.567815,41.1727217,86,FAIRWAY DR,,,,,,,131d0acff568c043,America/New_York
-73.5705008,41.1724395,115,FAIRWAY DR,,,,,,,25bac2674f9fa8ad,America/New_York
-73.5641218,41.1723437,3116,HIGH RIDGE RD,,,,,,,3a6686b09ba474a1,America/New_York
-73.5682792,41.1725367,96,FAIRWAY DR,,,,,,,5f8469d8f4935831,America/New_York
-73.5634015,41.1724598,3137,HIGH RIDGE RD,,,,,,,aba044d3e9e87c61,America/New_York
-73.5618655,41.1723878,3083,HIGH RIDGE RD,,,,,,,bac25b0e1e7fe9e4,America/New_York
-73.5687458,41.1720654,108,FAIRWAY DR,,,,,,,6b918700c6aa97fc,America/New_York
-73.5667425,41.1721408,56,GREENS CIR,,,,,,,40631f3a3242a9f5,America/New_York
-73.5596651,41.171978,37,CALASS LN,,,,,,,9a3e6d413f151805,America/New_York
-73.5609865,41.1721285,52,CALASS LN,,,,,,,b7f7bbab77665498,America/New_York
-73.5697022,41.1721557,121,FAIRWAY DR,,,,,,,434e313d360af590,America/New_York
-73.5660844,41.172045,60,GREENS CIR,,,,,,,4226b56de4b47639,America/New_York
-73.5713775,41.1720637,151,COUNTRY CLUB RD,,,,,,,656cd9fd17e25672,America/New_York
-73.5633787,41.1720232,3099,HIGH RIDGE RD,,,,,,,780d17778679ca87,America/New_York
-73.5674428,41.172021,50,GREENS CIR,,,,,,,fafacc2f9fcfac59,America/New_York
-73.5680525,41.1717086,32,GREENS CIR,,,,,,,0f9f9bbb1dcda17c,America/New_York
-73.5697136,41.1717466,137,FAIRWAY DR,,,,,,,c57a2fbf2f159c02,America/New_York
-73.5722365,41.1713714,7,COVENTRY RD,,,,,,,da43ccbeafa97b50,America/New_York
-73.5713354,41.1716247,141,COUNTRY CLUB RD,,,,,,,7283a8476b327917,America/New_York
-73.5614762,41.1715316,44,CALASS LN,,,,,,,e138e9bdfad843ad,America/New_York
-73.5688133,41.1715503,10,GREENS CIR,,,,,,,65fac626b47948cc,America/New_York
-73.5656895,41.1716257,61,GREENS CIR,,,,,,,7f0a64c193bee955,America/New_York
-73.5650894,41.1712486,3096,HIGH RIDGE RD,,,,,,,ba61bebdc96865de,America/New_York
-73.5630014,41.1714154,3081,HIGH RIDGE RD,,,,,,,302d163fe12bc1cc,America/New_York
-73.5604532,41.171431,20,CALASS LN,,,,,,,b1ae8d444c0afe72,America/New_York
-73.5658409,41.1709307,3090,HIGH RIDGE RD,,,,,,,0d8d1231d6c9e1d7,America/New_York
-73.5595658,41.1709507,11,CALASS LN,,,,,,,ae8feb26e030c6fd,America/New_York
-73.5667081,41.1713437,55,GREENS CIR,,,,,,,b8b0dfcdce4163e0,America/New_York
-73.5727493,41.1712725,15,COVENTRY RD,,,,,,,502a542eb2a2a244,America/New_York
-73.569668,41.1713325,145,FAIRWAY DR,,,,,,,809099b5a30bf6d6,America/New_York
-73.5712097,41.1711989,133,COUNTRY CLUB RD,,,,,,,4db4f4b6070fd0c8,America/New_York
-73.5608308,41.1704695,68,TRINITY PASS RD,,,,,,,8f12532a9d6dd3f9,America/New_York
-73.5675367,41.1711448,35,GREENS CIR,,,,,,,f2ab14326af477fe,America/New_York
-73.5732246,41.1708853,33,COVENTRY RD,,,,,,,22ea845300a43a44,America/New_York
-73.5619378,41.1705278,28,TRINITY PASS RD,,,,,,,3bb4f34fecec7f29,America/New_York
-73.5681226,41.1709386,21,GREENS CIR,,,,,,,37e68415dfb87d46,America/New_York
-73.5629529,41.1711247,2,TRINITY PASS RD,,,,,,,bbb1d412e1ebaf60,America/New_York
-73.5624374,41.171,10,TRINITY PASS RD,,,,,,,33fe602771d2555f,America/New_York
-73.5634527,41.1709645,3070,HIGH RIDGE RD,,,,,,,d73580967693f1a0,America/New_York
-73.5614757,41.1702391,48,TRINITY PASS RD,,,,,,,cb6523c4d040bf07,America/New_York
-73.5708035,41.1708221,111,COUNTRY CLUB RD,,,,,,,cbaad4da70d08851,America/New_York
-73.5739941,41.1706246,49,COVENTRY RD,,,,,,,5f7af913f34c7307,America/New_York
-73.5696791,41.1708418,161,FAIRWAY DR,,,,,,,6d4f0c120f5fc4aa,America/New_York
-73.5687962,41.1707771,164,FAIRWAY DR,,,,,,,1f7373c05905b2b6,America/New_York
-73.5603421,41.170715,78,TRINITY PASS RD,,,,,,,bf84fdf05a9bc560,America/New_York
-73.5719152,41.1706218,112,COUNTRY CLUB RD,,,,,,,7bc1e7ed4859b27c,America/New_York
-73.5744848,41.1704211,59,COVENTRY RD,,,,,,,6fa01b0b03c34fc4,America/New_York
-73.5724862,41.1704259,24,COVENTRY RD,,,,,,,3136b192a877fd71,America/New_York
-73.5629221,41.1707419,3065,HIGH RIDGE RD,,,,,,,e7947b5f8b20061a,America/New_York
-73.5634745,41.1707165,3064,HIGH RIDGE RD,,,,,,,1e898e770f8ef2b2,America/New_York
-73.569614,41.1703564,177,FAIRWAY DR,,,,,,,5096b260f64b8765,America/New_York
-73.5708726,41.1703871,105,COUNTRY CLUB RD,,,,,,,71c0ff7c2ca358c0,America/New_York
-73.5627084,41.1704173,3047,HIGH RIDGE RD,,,,,,,74129451a34cfec6,America/New_York
-73.5635629,41.1703685,3052,HIGH RIDGE RD,,,,,,,decc82c092315c16,America/New_York
-73.5730645,41.1702,36,COVENTRY RD,,,,,,,fd575b75c22a1b45,America/New_York
-73.5750608,41.1701379,77,COVENTRY RD,,,,,,,4901181be85afc68,America/New_York
-73.5684506,41.1702794,182,FAIRWAY DR,,,,,,,07f3020f16392a45,America/New_York
-73.565055,41.1695517,15,MAYAPPLE RD,,,,,,,f999b4ae6250294e,America/New_York
-73.5630382,41.1691521,3015,HIGH RIDGE RD,,,,,,,3e3d9893c1fd1adf,America/New_York
-73.5591156,41.1699327,97,TRINITY PASS RD,,,,,,,57cd5c2f8f52248c,America/New_York
-73.5586079,41.1701742,99,TRINITY PASS RD,,,,,,,ed0799cf4d00ac4b,America/New_York
-73.5736666,41.1699671,52,COVENTRY RD,,,,,,,259cc7fc9a8677c0,America/New_York
-73.5598188,41.1699248,79,TRINITY PASS RD,,,,,,,87964157c2885a06,America/New_York
-73.5717995,41.1698661,94,COUNTRY CLUB RD,,,,,,,d591aedf4ee87e29,America/New_York
-73.5630355,41.1701139,3043,HIGH RIDGE RD,,,,,,,87eb6833b9232b21,America/New_York
-73.5755157,41.1697436,91,COVENTRY RD,,,,,,,f7fc2665baa11df3,America/New_York
-73.5709729,41.1699333,29,COUNTRY CLUB RD,,,,,,,4f30e0e73cbad0e8,America/New_York
-73.5656432,41.1696648,25,MAYAPPLE RD,,,,,,,22800a17eb621d58,America/New_York
-73.5694433,41.169812,183,FAIRWAY DR,,,,,,,5c57bea5fc793c3e,America/New_York
-73.5641931,41.1697325,3040,HIGH RIDGE RD,,,,,,,708a91e17e03e424,America/New_York
-73.560379,41.170029,71,TRINITY PASS RD,,,,,,,5b47a8590ea5968b,America/New_York
-73.5722386,41.1695634,21,ROLLING RIDGE RD,,,,,,,2e93eb1fb2328e3a,America/New_York
-73.5681705,41.1698306,186,FAIRWAY DR,,,,,,,30b3fc5613f10b88,America/New_York
-73.5742921,41.1696706,74,COVENTRY RD,,,,,,,372731ac1f0b8b7b,America/New_York
-73.5759288,41.1695574,0,COVENTRY RD,,,,,,,6ae689076fadaa2d,America/New_York
-73.5615406,41.1698312,45,TRINITY PASS RD,,,,,,,b3c366296b38941b,America/New_York
-73.566323,41.1696906,35,MAYAPPLE RD,,,,,,,8a684910e94a9f16,America/New_York
-73.5646081,41.1692321,5,MAYAPPLE RD,,,,,,,bc2c789e84ec6a4c,America/New_York
-73.5687253,41.169587,190,FAIRWAY DR,,,,,,,385fdca7e3948bfb,America/New_York
-73.5701662,41.1696292,79,COUNTRY CLUB RD,,,,,,,229237c489f128f5,America/New_York
-73.5728913,41.169408,35,ROLLING RIDGE RD,,,,,,,50f19fdab63de7f5,America/New_York
-73.5677282,41.1693073,65,MAYAPPLE RD,,,,,,,12a4b394c08b1f52,America/New_York
-73.5749193,41.1692656,93,ROLLING RIDGE RD,,,,,,,5afc25d4ce9f941e,America/New_York
-73.5735044,41.1692202,51,ROLLING RIDGE RD,,,,,,,e470f6778bd2999b,America/New_York
-73.5639601,41.1693302,3020,HIGH RIDGE RD,,,,,,,809f1b2841877d49,America/New_York
-73.5741779,41.1690522,67,ROLLING RIDGE RD,,,,,,,6d353be777dce376,America/New_York
-73.5661639,41.1691713,45,MAYAPPLE RD,,,,,,,b0b679720e024b6a,America/New_York
-73.5653786,41.1691947,37,MAYAPPLE RD,,,,,,,3f5878aa33c62cdb,America/New_York
-73.5714125,41.1691154,74,COUNTRY CLUB RD,,,,,,,ed10a56ed8b95fd5,America/New_York
-73.5685723,41.1684985,109,MAYAPPLE RD,,,,,,,97b7cc3a3e42a1b3,America/New_York
-73.5693751,41.1690514,71,COUNTRY CLUB RD,,,,,,,3623e5b35c7691ba,America/New_York
-73.5719992,41.1689065,22,ROLLING RIDGE RD,,,,,,,75d92699b4b6d31e,America/New_York
-73.5676475,41.1688742,85,MAYAPPLE RD,,,,,,,eaf80bc9fc54c6f4,America/New_York
-73.5756533,41.1689498,92,ROLLING RIDGE RD,,,,,,,8fdbf1f2e95934a3,America/New_York
-73.5725952,41.1687365,40,ROLLING RIDGE RD,,,,,,,5f9e12b949fa3434,America/New_York
-73.5659911,41.1686979,55,MAYAPPLE RD,,,,,,,526c58c36d72468e,America/New_York
-73.5672372,41.1685797,75,MAYAPPLE RD,,,,,,,b653e6b58ba63686,America/New_York
-73.5733239,41.1686016,46,ROLLING RIDGE RD,,,,,,,2f76f4610c765333,America/New_York
-73.5640135,41.1685687,10,MAYAPPLE RD,,,,,,,5ab9ead994bdfe04,America/New_York
-73.5753619,41.16844,84,ROLLING RIDGE RD,,,,,,,94295151a9c0d1bb,America/New_York
-73.5648136,41.1684706,32,MAYAPPLE RD,,,,,,,720bbdb893d035ee,America/New_York
-73.5738645,41.1683616,66,ROLLING RIDGE RD,,,,,,,c4fb1d4aa9cb49c9,America/New_York
-73.5713393,41.1682762,50,COUNTRY CLUB RD,,,,,,,60f492de114be1dc,America/New_York
-73.5752898,41.1679047,80,ROLLING RIDGE RD,,,,,,,f6cf4d6a0d559566,America/New_York
-73.5744981,41.1682917,72,ROLLING RIDGE RD,,,,,,,b6ff9421c83d4384,America/New_York
-73.562929,41.1684676,2993,HIGH RIDGE RD,,,,,,,46c5661e7076dbce,America/New_York
-73.56776,41.1681632,95,MAYAPPLE RD,,,,,,,25c08c2aaed98082,America/New_York
-73.5656119,41.1681312,275,RUSSET RD,,,,,,,078cb85d813a1de8,America/New_York
-73.5724332,41.1680471,31,BOULDEROL RD,,,,,,,bf3a063f95cfd955,America/New_York
-73.5628593,41.1682252,2987,HIGH RIDGE RD,,,,,,,2d061643109dc06c,America/New_York
-73.5636105,41.167999,2988,HIGH RIDGE RD,,,,,,,acd40a76417c032b,America/New_York
-73.56459,41.1679236,245,RUSSET RD,,,,,,,534b5588ef19aa7a,America/New_York
-73.5711915,41.1677283,34,COUNTRY CLUB RD,,,,,,,b8b4947f3f5a072f,America/New_York
-73.5689738,41.1679171,115,MAYAPPLE RD,,,,,,,090a75c02da6b000,America/New_York
-73.5627766,41.1681226,2983,HIGH RIDGE RD,,,,,,,b3d20fd12e54bfe7,America/New_York
-73.5664585,41.167907,76,MAYAPPLE RD,,,,,,,a9d8e45837719e77,America/New_York
-73.5737532,41.1675799,71,BOULDEROL RD,,,,,,,ea15ef0e581d0966,America/New_York
-73.5626111,41.1679033,2979,HIGH RIDGE RD,,,,,,,0d1a5f11c8b6cf6a,America/New_York
-73.5652918,41.167774,249,RUSSET RD,,,,,,,0268b01fd801598c,America/New_York
-73.5619791,41.1675946,2975,HIGH RIDGE RD,,,,,,,4cba225f0a1bd09a,America/New_York
-73.5673983,41.1676036,108,MAYAPPLE RD,,,,,,,cea1d82c26d4ca04,America/New_York
-73.5723058,41.1673583,43,BOULDEROL RD,,,,,,,e5d4a0def9c6022a,America/New_York
-73.5641961,41.1674848,241,RUSSET RD,,,,,,,c4f6b610fbb06dc1,America/New_York
-73.5632422,41.1674936,2978,HIGH RIDGE RD,,,,,,,de3961d697033a9b,America/New_York
-73.5677504,41.1675081,118,MAYAPPLE RD,,,,,,,37e1a885e183edea,America/New_York
-73.5665478,41.1673772,264,RUSSET RD,,,,,,,379d1c7ea45c328b,America/New_York
-73.5678639,41.1666903,116,MAYAPPLE RD,,,,,,,a7e3e6c217e77191,America/New_York
-73.568407,41.1665564,122,MAYAPPLE RD,,,,,,,0146f412d55af1fc,America/New_York
-73.5713656,41.1673406,22,COUNTRY CLUB RD,,,,,,,11f6fb7264d5c1ec,America/New_York
-73.5684743,41.1672338,120,MAYAPPLE RD,,,,,,,5f23f9f0d6630f3d,America/New_York
-73.5688925,41.1668034,126,MAYAPPLE RD,,,,,,,7269320f21750b1d,America/New_York
-73.5694402,41.1670142,146,MAYAPPLE RD,,,,,,,4de82b3e40a755d4,America/New_York
-73.5641907,41.166916,219,RUSSET RD,,,,,,,35ce58dd3f93c32e,America/New_York
-73.564893,41.1672145,237,RUSSET RD,,,,,,,97bbc54997897d54,America/New_York
-73.5663408,41.1668405,154,MC INTOSH RD,,,,,,,238387cad7d32623,America/New_York
-73.5710296,41.1670976,15,BOULDEROL RD,,,,,,,7d72e704eb031553,America/New_York
-73.5637064,41.1666542,209,RUSSET RD,,,,,,,740af155c424f713,America/New_York
-73.5654857,41.1666634,149,MC INTOSH RD,,,,,,,6be4dc8686f293bd,America/New_York
-73.5735075,41.1663718,68,BOULDEROL RD,,,,,,,c50e1a0d7d02e51e,America/New_York
-73.5726648,41.166273,52,BOULDEROL RD,,,,,,,c1f0d788cf80bf36,America/New_York
-73.5718347,41.1663136,36,BOULDEROL RD,,,,,,,08cb5be42b1675b8,America/New_York
-73.5707848,41.1663762,177,MAYAPPLE RD,,,,,,,fd8bc1cd035dc5fd,America/New_York
-73.5644134,41.1664206,218,RUSSET RD,,,,,,,de051f6ded7d0440,America/New_York
-73.5634091,41.1662826,197,RUSSET RD,,,,,,,1669aee275e50a6c,America/New_York
-73.5670294,41.1662368,130,MC INTOSH RD,,,,,,,b47070e19fabee53,America/New_York
-73.5664205,41.1664085,136,MC INTOSH RD,,,,,,,09d320d389e2d9f0,America/New_York
-73.5697132,41.1660893,182,MAYAPPLE RD,,,,,,,7e6d1176a32251b8,America/New_York
-73.5583842,41.1662725,58,LAUREL RD,,,,,,,a415496f4763cdd9,America/New_York
-73.5675341,41.1660462,112,MC INTOSH RD,,,,,,,51a2742c51325b7f,America/New_York
-73.5689605,41.1660368,27,MC INTOSH CT,,,,,,,d69b15c0fcd9198a,America/New_York
-73.5586914,41.1662082,52,LAUREL RD,,,,,,,f5dbc9da76875b35,America/New_York
-73.5589105,41.1661094,46,LAUREL RD,,,,,,,1168ab663e4ff105,America/New_York
-73.561621,41.1659135,19,FLORA PL,,,,,,,4aa2c798f08dd358,America/New_York
-73.5641732,41.165974,194,RUSSET RD,,,,,,,3a002f7538649352,America/New_York
-73.5622006,41.1659732,23,FLORA PL,,,,,,,6fbf145de2f357fc,America/New_York
-73.5650423,41.1660478,222,RUSSET RD,,,,,,,555284b525d86d05,America/New_York
-73.570831,41.1659333,193,MAYAPPLE RD,,,,,,,6d7a43f88b7ef42b,America/New_York
-73.5621388,41.1654328,25,FLORA PL,,,,,,,f159a4bcd10a5789,America/New_York
-73.5633695,41.1658546,185,RUSSET RD,,,,,,,4ec718288a8e800d,America/New_York
-73.5661567,41.1659401,133,MC INTOSH RD,,,,,,,4c608b34cc9c6051,America/New_York
-73.573228,41.1655915,43,TANGLEWOOD LN,,,,,,,a2a8b1f09e7ad331,America/New_York
-73.5689814,41.1656022,28,MC INTOSH CT,,,,,,,b6b682825881a005,America/New_York
-73.5583246,41.1658008,55,LAUREL RD,,,,,,,60aa6b1b10401d39,America/New_York
-73.5668243,41.1656056,111,MC INTOSH RD,,,,,,,960a7c530a2f75f6,America/New_York
-73.5700561,41.1656756,196,MAYAPPLE RD,,,,,,,bcd0207a68f63527,America/New_York
-73.5584849,41.1657796,53,LAUREL RD,,,,,,,04d582fdc7fbf3ca,America/New_York
-73.5718513,41.1655054,21,TANGLEWOOD LN,,,,,,,76bd336e037dd81e,America/New_York
-73.5563958,41.1654221,133,LAUREL RD,,,,,,,86639fc6c5cf7eb6,America/New_York
-73.5585069,41.1653663,39,LAUREL RD,,,,,,,9fe90e49dbf18a23,America/New_York
-73.567829,41.1655572,94,MC INTOSH RD,,,,,,,b02b4b4679cd6917,America/New_York
-73.563952,41.1655339,180,RUSSET RD,,,,,,,0631326a1b757ef6,America/New_York
-73.5724453,41.1652815,37,TANGLEWOOD LN,,,,,,,c743b9d0f05bd52f,America/New_York
-73.5659437,41.1655362,16,BLACK TWIG PL,,,,,,,ad959b6bac92f44e,America/New_York
-73.5709768,41.1654434,207,MAYAPPLE RD,,,,,,,0bb737b96c5f3fa5,America/New_York
-73.5619605,41.1648183,24,FLORA PL,,,,,,,43a78d4b2c5f5bd9,America/New_York
-73.5690715,41.1652447,22,MC INTOSH CT,,,,,,,a497c3682ad9c807,America/New_York
-73.567075,41.165248,91,MC INTOSH RD,,,,,,,f4f79f7fb6fa0037,America/New_York
-73.563164,41.1654437,173,RUSSET RD,,,,,,,e5675218dab6b023,America/New_York
-73.5651695,41.1652242,34,BLACK TWIG PL,,,,,,,88b7d85750657028,America/New_York
-73.5595706,41.1652051,23,LAUREL RD,,,,,,,01e9d649568c4fba,America/New_York
-73.5701579,41.165107,222,MAYAPPLE RD,,,,,,,ef07bf1b3e201c20,America/New_York
-73.5646763,41.1649345,38,BLACK TWIG PL,,,,,,,e49d8e8b7e05ae98,America/New_York
-73.5601345,41.1651073,11,LAUREL RD,,,,,,,973ba883d1a7f3eb,America/New_York
-73.5678125,41.165082,84,MC INTOSH RD,,,,,,,b479d96871488147,America/New_York
-73.5733421,41.1649553,53,TANGLEWOOD LN,,,,,,,e2de8a8c71535a5c,America/New_York
-73.5662633,41.1649582,31,BLACK TWIG PL,,,,,,,7282857291a08658,America/New_York
-73.5637769,41.164977,164,RUSSET RD,,,,,,,51e73074261c117d,America/New_York
-73.5627576,41.1648808,153,RUSSET RD,,,,,,,b75b6cd623cad019,America/New_York
-73.5579421,41.1647291,40,SPRING HILL LN N,,,,,,,9ecaa3a6be79d3d7,America/New_York
-73.5679063,41.1647823,80,MC INTOSH RD,,,,,,,da30d30b8c4d7d28,America/New_York
-73.5710966,41.1647125,227,MAYAPPLE RD,,,,,,,85e68d4673f9f069,America/New_York
-73.567016,41.1647633,79,MC INTOSH RD,,,,,,,0f865649d76f8403,America/New_York
-73.5886451,41.1629149,1233,ROCK RIMMON RD,,,,,,,e968c42cdbf89027,America/New_York
-73.569321,41.1645861,226,MAYAPPLE RD,,,,,,,9ad6162cf8e9042e,America/New_York
-73.5591,41.1641908,49,SPRING HILL LN N,,,,,,,d9204d1b42a162bc,America/New_York
-73.573672,41.1643461,50,TANGLEWOOD LN,,,,,,,e6c62da2abb48851,America/New_York
-73.5785616,41.1641639,963,ROCK RIMMON RD,,,,,,,7a7d09bf04c7848a,America/New_York
-73.5695738,41.1643142,230,MAYAPPLE RD,,,,,,,d7873770c3aa368c,America/New_York
-73.566289,41.1643988,39,BLACK TWIG PL,,,,,,,34a87c14cf0ecd45,America/New_York
-73.5617042,41.1642671,20,FLORA PL,,,,,,,509a018f10035af7,America/New_York
-73.5611213,41.164557,2,FLORA PL,,,,,,,e342d4e0a0028891,America/New_York
-73.5635591,41.1645514,152,RUSSET RD,,,,,,,c016b0f17a480403,America/New_York
-73.5702091,41.1645578,228,MAYAPPLE RD,,,,,,,5ace84d897c19d52,America/New_York
-73.5820357,41.1640611,1021,ROCK RIMMON RD,,,,,,,e6d7370d4c3e3ea1,America/New_York
-73.5645536,41.1646416,42,BLACK TWIG PL,,,,,,,26d69a4011a6c287,America/New_York
-73.5679583,41.1644112,66,MC INTOSH RD,,,,,,,d76e5ce9d979973b,America/New_York
-73.5625882,41.1643687,141,RUSSET RD,,,,,,,2ef47eab41aa46b2,America/New_York
-73.5673442,41.1643589,73,MC INTOSH RD,,,,,,,cc71a0ffedc3b39e,America/New_York
-73.5752536,41.1640379,335,MAYAPPLE RD,,,,,,,ef1379bd767431b7,America/New_York
-73.5647366,41.1641891,48,BLACK TWIG PL,,,,,,,f49e406863fcdfe5,America/New_York
-73.5658956,41.1641218,45,BLACK TWIG PL,,,,,,,9e204edda6a95a60,America/New_York
-73.5774239,41.1637951,957,ROCK RIMMON RD,,,,,,,d9b619beaa67f71e,America/New_York
-73.5633322,41.1641272,138,RUSSET RD,,,,,,,74bafe5b5b282e91,America/New_York
-73.5795334,41.1635888,981,ROCK RIMMON RD,,,,,,,7b5c56987bc985f8,America/New_York
-73.5610814,41.1640909,2856,HIGH RIDGE RD,,,,,,,b56e2670579fdf1e,America/New_York
-73.5683777,41.1639397,52,MC INTOSH RD,,,,,,,f7c27172d0f55110,America/New_York
-73.5690671,41.1637875,48,MC INTOSH RD,,,,,,,0c3fdba16905a9ab,America/New_York
-73.5579394,41.1636677,50,SPRING HILL LN N,,,,,,,32892fd19d1c5ebf,America/New_York
-73.5650009,41.1637953,52,BLACK TWIG PL,,,,,,,033e8db9764de521,America/New_York
-73.5674049,41.1638946,65,MC INTOSH RD,,,,,,,949ec00e652d2a2d,America/New_York
-73.5624306,41.163661,117,RUSSET RD,,,,,,,65d89225de62b686,America/New_York
-73.5663918,41.1635862,49,BLACK TWIG PL,,,,,,,bf42db01d828a0c1,America/New_York
-73.5744422,41.1631778,333,MAYAPPLE RD,,,,,,,3ca88d5df679a2cf,America/New_York
-73.5659735,41.1633209,51,BLACK TWIG PL,,,,,,,895cf044bddf30b3,America/New_York
-73.5631658,41.1636668,124,RUSSET RD,,,,,,,884cf5dc43601966,America/New_York
-73.5644045,41.163424,44,CRAB APPLE PL,,,,,,,ba93fde6aefe1303,America/New_York
-73.5655072,41.1636395,54,BLACK TWIG PL,,,,,,,11db9dcc281abff9,America/New_York
-73.5606536,41.1637193,2844,HIGH RIDGE RD,,,,,,,46d0f1c742dca153,America/New_York
-73.5614523,41.163296,2828,HIGH RIDGE RD,,,,,,,30a7fdf7546728cd,America/New_York
-73.5687648,41.1633488,38,MC INTOSH RD,,,,,,,3427be0c37bf5d18,America/New_York
-73.5674288,41.1634263,39,MC INTOSH RD,,,,,,,dc23a33977b32fe3,America/New_York
-73.5765543,41.1629244,925,ROCK RIMMON RD,,,,,,,4d4c6127c4e1046a,America/New_York
-73.5756274,41.1624647,905,ROCK RIMMON RD,,,,,,,cb2845377e05cd11,America/New_York
-73.594362,41.160852,2949,LONG RIDGE RD,,,,,,,9f136c8f99d9293c,America/New_York
-73.5599755,41.163391,2829,HIGH RIDGE RD,,,,,,,f60beccde58fba05,America/New_York
-73.5683395,41.1630824,24,MC INTOSH RD,,,,,,,63f01259fb2ccb18,America/New_York
-73.5623391,41.1630234,101,RUSSET RD,,,,,,,69d810d29df215ed,America/New_York
-73.5641329,41.1629822,48,CRAB APPLE PL,,,,,,,3770cccd9751091c,America/New_York
-73.5537151,41.16296,9,SPRING HILL LN E,,,,,,,fe31824b06d8c1bb,America/New_York
-73.5650326,41.1629175,40,CRAB APPLE PL,,,,,,,85f51eed99972adb,America/New_York
-73.5709123,41.1631151,272,MAYAPPLE RD,,,,,,,90b5e8152b61aaa8,America/New_York
-73.5630034,41.1632254,106,RUSSET RD,,,,,,,784827208c7381ad,America/New_York
-73.5789296,41.1627887,976,ROCK RIMMON RD,,,,,,,e8f3d8e65bd58bfe,America/New_York
-73.5523188,41.1630753,229,LAUREL RD,,,,,,,604d329f9cab15f8,America/New_York
-73.5679037,41.1626326,19,MC INTOSH RD,,,,,,,bafb38420aaef4bf,America/New_York
-73.5778978,41.1625775,934,ROCK RIMMON RD,,,,,,,d77b3be68836ad16,America/New_York
-73.5612553,41.1627332,2810,HIGH RIDGE RD,,,,,,,d55e81b71c5b4e48,America/New_York
-73.5671585,41.1625652,133,WINESAP RD,,,,,,,53ca6b8c1691151f,America/New_York
-73.5536662,41.1623176,21,SPRING HILL LN E,,,,,,,e01d4588f8a4010e,America/New_York
-73.5786933,41.162117,950,ROCK RIMMON RD,,,,,,,84d2fdd00c0965c9,America/New_York
-73.5792792,41.1621114,992,ROCK RIMMON RD,,,,,,,135a6154eb963f1a,America/New_York
-73.5796013,41.1624949,996,ROCK RIMMON RD,,,,,,,0127df285f5cb795,America/New_York
-73.5667699,41.1624826,125,WINESAP RD,,,,,,,10d3dc3dff4620f0,America/New_York
-73.5655232,41.1626849,34,CRAB APPLE PL,,,,,,,ffaa4e30f932bef5,America/New_York
-73.5548737,41.1623668,47,SPRING HILL LN E,,,,,,,f891e645ca09d129,America/New_York
-73.5685455,41.1626745,18,MC INTOSH RD,,,,,,,577ee888bd521309,America/New_York
-73.5598998,41.1627434,2811,HIGH RIDGE RD,,,,,,,e6d4ad96706461bd,America/New_York
-73.5805034,41.1623645,1010,ROCK RIMMON RD,,,,,,,d9f64d5ef9b46a4c,America/New_York
-73.5517586,41.1629758,320,INGLESIDE DR,,,,,,,d092d0b236ab6c95,America/New_York
-73.5479093,41.1626026,19,RESERVOIR LN,,,,,,,031d2d68dcd61e48,America/New_York
-73.5631341,41.1626553,90,RUSSET RD,,,,,,,431436579b86a8c3,America/New_York
-73.551195,41.1627864,325,INGLESIDE DR,,,,,,,627d4c5890d1def9,America/New_York
-73.5640071,41.1624774,37,CRAB APPLE PL,,,,,,,0819cdf7a07f064b,America/New_York
-73.5774429,41.1623627,926,ROCK RIMMON RD,,,,,,,e7620192ffb0323b,America/New_York
-73.562413,41.162575,87,RUSSET RD,,,,,,,9a76d60e914a2963,America/New_York
-73.5799879,41.161678,1012,ROCK RIMMON RD,,,,,,,b8c7fe32e819f4f9,America/New_York
-73.5524441,41.1623516,294,INGLESIDE DR,,,,,,,b66e88ce470f7c04,America/New_York
-73.5802349,41.1611681,1016,ROCK RIMMON RD,,,,,,,def06c299572713e,America/New_York
-73.566127,41.162377,109,WINESAP RD,,,,,,,ef0aae4f69ab913f,America/New_York
-73.5556666,41.1622567,63,SPRING HILL LN E,,,,,,,854d54a4a80a2efe,America/New_York
-73.5812349,41.1617497,1038,ROCK RIMMON RD,,,,,,,88dda21800174c38,America/New_York
-73.5586974,41.162467,124,SHADY KNOLL DR,,,,,,,607ce9467ddb9c8e,America/New_York
-73.5475721,41.1621914,477,WOODBINE RD,,,,,,,2fe4f6378d57b9b4,America/New_York
-73.548409,41.1624453,9,RESERVOIR LN,,,,,,,dab3795ba7117d80,America/New_York
-73.551369,41.1621239,307,INGLESIDE DR,,,,,,,8a79514dcfc46ddc,America/New_York
-73.5495086,41.1624472,518,WOODBINE RD,,,,,,,3360c1df8b5ff79a,America/New_York
-73.5527689,41.1620953,286,INGLESIDE DR,,,,,,,22fcf60ada229ff3,America/New_York
-73.5839874,41.1619879,1089,ROCK RIMMON RD,,,,,,,f4fe28b08c2dee34,America/New_York
-73.5597933,41.1622651,2797,HIGH RIDGE RD,,,,,,,a5171629c7bc590a,America/New_York
-73.5715421,41.1618823,300,MAYAPPLE RD,,,,,,,c31c4e822817a4b8,America/New_York
-73.5753395,41.1619311,885,ROCK RIMMON RD,,,,,,,046f721aca626eb0,America/New_York
-73.5658772,41.1617709,77,WINESAP RD,,,,,,,b8fb5556377cb004,America/New_York
-73.5643854,41.1621772,33,CRAB APPLE PL,,,,,,,6d2946f49e2c4bb6,America/New_York
-73.573531,41.1620292,337,MAYAPPLE RD,,,,,,,428b3feb3f74ccec,America/New_York
-73.5845166,41.1618623,1093,ROCK RIMMON RD,,,,,,,d9e8eefa0e926839,America/New_York
-73.5502154,41.1622886,510,WOODBINE RD,,,,,,,51ab977a2aa39e3b,America/New_York
-73.5654722,41.1617454,8,CRAB APPLE PL,,,,,,,c75eae7c9e85ade1,America/New_York
-73.5821924,41.1620342,1044,ROCK RIMMON RD,,,,,,,dc2f09536f9ac817,America/New_York
-73.5609211,41.1622627,2790,HIGH RIDGE RD,,,,,,,d7c62e017fb0b381,America/New_York
-73.5850188,41.1620008,1111,ROCK RIMMON RD,,,,,,,f1810ca8e7e516c6,America/New_York
-73.5767529,41.1619016,910,ROCK RIMMON RD,,,,,,,9c23ca95493abb27,America/New_York
-73.5687596,41.1621975,155,WINESAP RD,,,,,,,9ac04936a7410e97,America/New_York
-73.5745411,41.1614301,363,MAYAPPLE RD,,,,,,,e99b0245944461c8,America/New_York
-73.5630297,41.1620505,76,RUSSET RD,,,,,,,b8c5ff685364b332,America/New_York
-73.5623304,41.1621375,71,RUSSET RD,,,,,,,8b664c494033383c,America/New_York
-73.5468343,41.1620431,461,WOODBINE RD,,,,,,,6e002e1b7066c847,America/New_York
-73.5862191,41.1616979,1181,ROCK RIMMON RD,,,,,,,5658f70a6aaca98b,America/New_York
-73.56716,41.16201,118,WINESAP RD,,,,,,,b9a6c88e7c7e1d9e,America/New_York
-73.5520216,41.1621348,299,INGLESIDE DR,,,,,,,33a9d630943bda19,America/New_York
-73.5678221,41.1619991,142,WINESAP RD,,,,,,,392311a0a9f390f1,America/New_York
-73.5648074,41.1615196,59,WINESAP RD,,,,,,,8f6845ef298689bd,America/New_York
-73.5740872,41.1618535,349,MAYAPPLE RD,,,,,,,357ef704100e3617,America/New_York
-73.5585874,41.161632,100,SHADY KNOLL DR,,,,,,,62fa70a58cd4276d,America/New_York
-73.5824601,41.160925,1080,ROCK RIMMON RD,,,,,,,d3528d4a4ca91a0d,America/New_York
-73.5897749,41.1601603,1267,ROCK RIMMON RD,,,,,,,1197e87e7347a0e4,America/New_York
-73.577371,41.1616877,912,ROCK RIMMON RD,,,,,,,ad9cb4521a2abebd,America/New_York
-73.5724514,41.1615883,17,APPLE VALLEY RD,,,,,,,123aa893786ba439,America/New_York
-73.5523004,41.1619911,289,INGLESIDE DR,,,,,,,5825a9987155781a,America/New_York
-73.5879139,41.1607813,1219,ROCK RIMMON RD,,,,,,,06ed7e9bc6a1cd8e,America/New_York
-73.5666587,41.1615266,104,WINESAP RD,,,,,,,b46d187d27bb8576,America/New_York
-73.5610995,41.1619067,2784,HIGH RIDGE RD,,,,,,,a33b96954b587425,America/New_York
-73.56427,41.161443,41,WINESAP RD,,,,,,,895ca43cd4d233c5,America/New_York
-73.5689281,41.1617876,159,WINESAP RD,,,,,,,9cf1508db71031a0,America/New_York
-73.5682233,41.161693,162,WINESAP RD,,,,,,,461d66f80e263ed5,America/New_York
-73.5621336,41.1616299,55,RUSSET RD,,,,,,,6dfff02250c29be8,America/New_York
-73.5850478,41.1614439,1113,ROCK RIMMON RD,,,,,,,f87637651f101d5e,America/New_York
-73.5638328,41.1614455,27,WINESAP RD,,,,,,,c569581dab157f98,America/New_York
-73.5820069,41.1597061,1086,ROCK RIMMON RD,,,,,,,bccb339b8efb11b8,America/New_York
-73.5598124,41.1616434,2779,HIGH RIDGE RD,,,,,,,b288508b741fe8ec,America/New_York
-73.5829336,41.1592944,1088,ROCK RIMMON RD,,,,,,,bd9e398e02bfd8f0,America/New_York
-73.5785024,41.1612069,914,ROCK RIMMON RD,,,,,,,039069d9df0ca051,America/New_York
-73.5732059,41.1611039,342,MAYAPPLE RD,,,,,,,fc25f43e6beb2e53,America/New_York
-73.5524461,41.1617226,281,INGLESIDE DR,,,,,,,32c4520783b40c31,America/New_York
-73.5820432,41.1612492,31,ROCK MEADOW LN,,,,,,,9a36c4be006c9b5f,America/New_York
-73.5704969,41.1613757,23,APPLE VALLEY RD,,,,,,,c086d79a5e2bda0a,America/New_York
-73.5532189,41.1610952,258,INGLESIDE DR,,,,,,,29fcf14d851e3eb4,America/New_York
-73.5483006,41.161617,482,WOODBINE RD,,,,,,,a7028972d2f22f3f,America/New_York
-73.5859831,41.161032,1177,ROCK RIMMON RD,,,,,,,209b0a08b11c0741,America/New_York
-73.5768303,41.161334,900,ROCK RIMMON RD,,,,,,,602738546dea2f44,America/New_York
-73.5610088,41.1615269,2770,HIGH RIDGE RD,,,,,,,604ca5b89efa86ae,America/New_York
-73.5556434,41.1614159,200,INGLESIDE DR,,,,,,,bf4038dd97257c8e,America/New_York
-73.5834269,41.160559,1100,ROCK RIMMON RD,,,,,,,40508e37056290b4,America/New_York
-73.5690197,41.16146,169,WINESAP RD,,,,,,,50282de0c3e31a5d,America/New_York
-73.5751699,41.1612348,377,MAYAPPLE RD,,,,,,,099848e447e310cf,America/New_York
-73.5503713,41.1604141,500,WOODBINE RD,,,,,,,7c8fbaa40c0e16c0,America/New_York
-73.5626817,41.1612146,48,RUSSET RD,,,,,,,ecdf917787a76ac8,America/New_York
-73.561627,41.1611444,29,RUSSET RD,,,,,,,ea94584ac36b9f50,America/New_York
-73.5525784,41.1613914,265,INGLESIDE DR,,,,,,,02cc82b04b199e95,America/New_York
-73.5668855,41.1611123,100,WINESAP RD,,,,,,,de8907aeaad8c720,America/New_York
-73.5481313,41.1612638,474,WOODBINE RD,,,,,,,256660b72e1b0aad,America/New_York
-73.5585763,41.1610887,86,SHADY KNOLL DR,,,,,,,10f3eeaa40b16036,America/New_York
-73.5567444,41.161063,75,SHADY KNOLL DR,,,,,,,f40aa923e8274d27,America/New_York
-73.5658215,41.1611764,74,WINESAP RD,,,,,,,3348ca0b2c07d277,America/New_York
-73.5682057,41.1612151,172,WINESAP RD,,,,,,,09a5f46c1743b8ec,America/New_York
-73.5522384,41.1608124,12,WYNNEWOOD LN,,,,,,,4bd4b813f82a0666,America/New_York
-73.5770388,41.160578,874,ROCK RIMMON RD,,,,,,,e3b9377b54e05e7d,America/New_York
-73.5710746,41.1610704,40,APPLE VALLEY RD,,,,,,,c2a9f2cc6bdb2e86,America/New_York
-73.5837992,41.160963,1102,ROCK RIMMON RD,,,,,,,44f18a5d51b778f3,America/New_York
-73.5790494,41.1607294,916,ROCK RIMMON RD,,,,,,,d988deac90848213,America/New_York
-73.5796826,41.1607553,918,ROCK RIMMON RD,,,,,,,75345af8b35db69b,America/New_York
-73.5721944,41.1610793,31,APPLE VALLEY RD,,,,,,,5ad747751ff0aa58,America/New_York
-73.5813493,41.1608722,40,ROCK MEADOW LN,,,,,,,d4c6838d3dd9abe2,America/New_York
-73.5459159,41.1608576,429,WOODBINE RD,,,,,,,92d87669be9fd234,America/New_York
-73.5814041,41.1595639,35,ROCK MEADOW LN,,,,,,,e20478d170ba48f6,America/New_York
-73.5631516,41.1610509,22,WINESAP RD,,,,,,,81e1ce5e6b377a50,America/New_York
-73.5728433,41.1606282,350,MAYAPPLE RD,,,,,,,e0bbf11d6042f34b,America/New_York
-73.5608726,41.1610182,7,RUSSET RD,,,,,,,44ea72914a013b0c,America/New_York
-73.5651683,41.1610432,62,WINESAP RD,,,,,,,606cea6a584c93bd,America/New_York
-73.5862181,41.1606371,1175,ROCK RIMMON RD,,,,,,,0f9f65ee3c505595,America/New_York
-73.5599183,41.1611521,2761,HIGH RIDGE RD,,,,,,,a37aef44c4ffcda3,America/New_York
-73.5737051,41.1605729,354,MAYAPPLE RD,,,,,,,ae9c1eafc7e0fcd6,America/New_York
-73.569161,41.1611084,179,WINESAP RD,,,,,,,67a7d61c57b4920f,America/New_York
-73.5814187,41.1601375,39,ROCK MEADOW LN,,,,,,,7e123b10c877bd2f,America/New_York
-73.5522471,41.161158,261,INGLESIDE DR,,,,,,,f5a2197c13e0f6e6,America/New_York
-73.5646931,41.1609126,52,WINESAP RD,,,,,,,9a8518775e58ee2a,America/New_York
-73.5474791,41.1610319,456,WOODBINE RD,,,,,,,f83fe8e5e661b6c4,America/New_York
-73.5902066,41.1600083,1271,ROCK RIMMON RD,,,,,,,a4956d79f9ff44fa,America/New_York
-73.5747146,41.1604104,841,ROCK RIMMON RD,,,,,,,80ebdca28a4d88a7,America/New_York
-73.5636425,41.1608442,30,WINESAP RD,,,,,,,a524098e29cc9b82,America/New_York
-73.54253,41.160908,253,THORNWOOD RD,,,,,,,75ec165487045025,America/New_York
-73.5718789,41.1605547,49,APPLE VALLEY RD,,,,,,,a71bdffc574bd578,America/New_York
-73.5798844,41.1597395,159,BREEZY HILL RD,,,,,,,12c3dd58b8ddbc45,America/New_York
-73.5640868,41.160872,36,WINESAP RD,,,,,,,c28bdb3357c2d33b,America/New_York
-73.5558894,41.160771,192,INGLESIDE DR,,,,,,,6d427b2e5b980e18,America/New_York
-73.5685983,41.1604278,182,WINESAP RD,,,,,,,834b4d275b78d18c,America/New_York
-73.5960982,41.160265,2905,LONG RIDGE RD,,,,,,,a683decaf0c5c10d,America/New_York
-73.5757553,41.1606887,856,ROCK RIMMON RD,,,,,,,889c379b4c54fefb,America/New_York
-73.5621651,41.160701,42,RUSSET RD,,,,,,,4db1d680d92e07b0,America/New_York
-73.5673707,41.1604698,200,WINESAP RD,,,,,,,a3a2d2f1cec6f0ff,America/New_York
-73.5582962,41.1605842,74,SHADY KNOLL DR,,,,,,,429fc349a4028d2d,America/New_York
-73.5710217,41.1607769,50,APPLE VALLEY RD,,,,,,,474228385656538c,America/New_York
-73.5598934,41.160756,2753,HIGH RIDGE RD,,,,,,,6f4b66749f2fcecd,America/New_York
-73.5692416,41.1605559,181,WINESAP RD,,,,,,,58d563e3a7c384ee,America/New_York
-73.5804531,41.1602274,163,BREEZY HILL RD,,,,,,,489972da30c8d0b2,America/New_York
-73.5699898,41.1606761,185,WINESAP RD,,,,,,,22a5fd5eec5609f3,America/New_York
-73.5972086,41.1603516,2916,LONG RIDGE RD,,,,,,,b2b186b83d4a8917,America/New_York
-73.5667662,41.1603564,42,MERRILAND RD,,,,,,,ee0ff7ed190b54e4,America/New_York
-73.5662831,41.160435,44,MERRILAND RD,,,,,,,972806af0d75ecd1,America/New_York
-73.58926,41.159909,1257,ROCK RIMMON RD,,,,,,,8df34aab182df163,America/New_York
-73.5434486,41.1606437,248,THORNWOOD RD,,,,,,,4248f3084264ee4b,America/New_York
-73.5472028,41.1603772,23,FERNWOOD DR,,,,,,,b849a90834bb8292,America/New_York
-73.5565299,41.1601289,49,SHADY KNOLL DR,,,,,,,ac0ad63228b8567d,America/New_York
-73.5651006,41.159771,131,BRIAR BRAE RD,,,,,,,25f56e49c22c8565,America/New_York
-73.5616327,41.1604574,26,RUSSET RD,,,,,,,792633f2cc68d8e2,America/New_York
-73.5423141,41.1605896,239,THORNWOOD RD,,,,,,,d3dcaaf415044079,America/New_York
-73.5536284,41.1605385,226,INGLESIDE DR,,,,,,,e3b0ccc67e761361,America/New_York
-73.5840704,41.159634,1148,ROCK RIMMON RD,,,,,,,ceba71bd2007b176,America/New_York
-73.5757714,41.160297,840,ROCK RIMMON RD,,,,,,,cf29f8822b805c56,America/New_York
-73.5440688,41.160595,240,THORNWOOD RD,,,,,,,7226668b7dbd4909,America/New_York
-73.5609569,41.160467,12,RUSSET RD,,,,,,,4ac9ba1ad3d0d58f,America/New_York
-73.585812,41.1597518,1159,ROCK RIMMON RD,,,,,,,eaef5e8e7e88511e,America/New_York
-73.5599964,41.1605211,2745,HIGH RIDGE RD,,,,,,,e3b9e2c38b8c93d7,America/New_York
-73.5702081,41.1601852,187,WINESAP RD,,,,,,,d2fa42b2dca47508,America/New_York
-73.5848469,41.1597242,1156,ROCK RIMMON RD,,,,,,,06bd777bb813014b,America/New_York
-73.5529329,41.1600633,5,WYNNEWOOD LN,,,,,,,dcd9e62b24fd6400,America/New_York
-73.5718599,41.1600849,65,APPLE VALLEY RD,,,,,,,51f5c1ac21085cf0,America/New_York
-73.5861537,41.1599637,1173,ROCK RIMMON RD,,,,,,,ff8876bbc159c6c0,America/New_York
-73.5450739,41.1601164,401,WOODBINE RD,,,,,,,9f6e7e06d4b5f64a,America/New_York
-73.5643016,41.1597822,107,BRIAR BRAE RD,,,,,,,00ed620933b83c21,America/New_York
-73.5514266,41.159902,32,WYNNEWOOD LN,,,,,,,81981a7d7e775fd9,America/New_York
-73.5629548,41.1598646,93,BRIAR BRAE RD,,,,,,,fd410dd706b96023,America/New_York
-73.5703712,41.1595277,191,WINESAP RD,,,,,,,beb25b6c625d63d2,America/New_York
-73.5736926,41.1597528,809,ROCK RIMMON RD,,,,,,,e7f2c33573f3e732,America/New_York
-73.5732522,41.1597641,811,ROCK RIMMON RD,,,,,,,be04230135fff1a8,America/New_York
-73.5420879,41.1601985,227,THORNWOOD RD,,,,,,,557329a1ac65a618,America/New_York
-73.590915,41.1593202,1287,ROCK RIMMON RD,,,,,,,96b4a3d23a3809dd,America/New_York
-73.5746154,41.1596409,817,ROCK RIMMON RD,,,,,,,a2eb0cdaf9467121,America/New_York
-73.5710778,41.1598815,43,APPLE VALLEY RD,,,,,,,3ba83d6cab3ad71e,America/New_York
-73.5693044,41.1600085,189,WINESAP RD,,,,,,,82df00f15e60ef60,America/New_York
-73.5961018,41.1597597,2891,LONG RIDGE RD,,,,,,,913146059ce8969a,America/New_York
-73.5464036,41.1601013,12,FERNWOOD DR,,,,,,,ec8e857ffe07b370,America/New_York
-73.5675785,41.1598301,204,WINESAP RD,,,,,,,3630d486ac8962d6,America/New_York
-73.5484994,41.1598412,49,FERNWOOD DR,,,,,,,e9227a5ee6b20888,America/New_York
-73.5523165,41.1590568,37,WYNNEWOOD LN,,,,,,,7ebf1a6f56e5af19,America/New_York
-73.5600921,41.1602123,2735,HIGH RIDGE RD,,,,,,,49478f552d5bdd79,America/New_York
-73.5509554,41.1592113,66,WYNNEWOOD LN,,,,,,,cfd60f8ff9dd178a,America/New_York
-73.5760981,41.1597969,830,ROCK RIMMON RD,,,,,,,288de300c9a9dea9,America/New_York
-73.5681859,41.1596365,97,SHADY LN,,,,,,,398e391d81100b83,America/New_York
-73.5438615,41.15982,238,THORNWOOD RD,,,,,,,287b7805cbbfaabe,America/New_York
-73.5667988,41.1598447,38,MERRILAND RD,,,,,,,ac49f45bc9a285ed,America/New_York
-73.5430108,41.1599369,228,THORNWOOD RD,,,,,,,579aa3aeac01639d,America/New_York
-73.5612493,41.1598626,2730,HIGH RIDGE RD,,,,,,,d219401df3a14c41,America/New_York
-73.5660985,41.1595519,46,MERRILAND RD,,,,,,,702af13c0060090d,America/New_York
-73.5947945,41.1593316,1365,ROCK RIMMON RD,,,,,,,6832f3baad09548f,America/New_York
-73.5994541,41.1593334,12,WHITE BIRCH RD S,,,,,,,074b191834aaa6af,America/New_York
-73.5618846,41.1594065,59,BRIAR BRAE RD,,,,,,,d38d05f0a59e13e9,America/New_York
-73.5769053,41.1596654,49,BREEZY HILL RD,,,,,,,4eb7381c99ec66ef,America/New_York
-73.5719581,41.1595648,79,APPLE VALLEY RD,,,,,,,501ee31501b706ef,America/New_York
-73.5927911,41.1590404,1327,ROCK RIMMON RD,,,,,,,80ddad1926a44cb1,America/New_York
-73.5618176,41.1589839,61,BRIAR BRAE RD,,,,,,,3f4b8c46dccda5bc,America/New_York
-73.5601024,41.159876,2727,HIGH RIDGE RD,,,,,,,58aae46b618128c7,America/New_York
-73.5930649,41.1589583,1333,ROCK RIMMON RD,,,,,,,42f1b2266022ae90,America/New_York
-73.5548372,41.1598158,201,INGLESIDE DR,,,,,,,f4c331f4c5ecc0e9,America/New_York
-73.5419534,41.1598097,215,THORNWOOD RD,,,,,,,4b59b50c93d01e9e,America/New_York
-73.549686,41.1593332,81,FERNWOOD DR,,,,,,,e75c4b32e8f0d85c,America/New_York
-73.5755387,41.1595694,826,ROCK RIMMON RD,,,,,,,9427fc9bd0b2b510,America/New_York
-73.5565397,41.1594735,25,SHADY KNOLL DR,,,,,,,ffd87d8872dbe548,America/New_York
-73.5447814,41.1595199,385,WOODBINE RD,,,,,,,2fc977cbfca04709,America/New_York
-73.5774742,41.1590663,55,BREEZY HILL RD,,,,,,,77f567ea140eb29d,America/New_York
-73.5689234,41.1593875,92,SHADY LN,,,,,,,2a5cebe2b641fd1a,America/New_York
-73.5510676,41.1585028,71,WYNNEWOOD LN,,,,,,,66ce0178c5b6b8a8,America/New_York
-73.5844055,41.1589062,1160,ROCK RIMMON RD,,,,,,,1e5bba7ce9ce4673,America/New_York
-73.5503842,41.1588128,73,WYNNEWOOD LN,,,,,,,d0399fc251d7440f,America/New_York
-73.5674298,41.1594226,28,MERRILAND RD,,,,,,,b5f57f207affcc10,America/New_York
-73.5960182,41.1591159,2873,LONG RIDGE RD,,,,,,,1ed6840e1fa2396d,America/New_York
-73.5475251,41.1592981,46,FERNWOOD DR,,,,,,,22b93aa5ab0ddbf4,America/New_York
-73.545892,41.159429,389,WOODBINE RD,,,,,,,01351e1f1b4c5481,America/New_York
-73.5803903,41.158932,157,BREEZY HILL RD,,,,,,,85e2a95adb219483,America/New_York
-73.5862591,41.1588217,12,POND VIEW LN,,,,,,,4f9b0f86d42807af,America/New_York
-73.5417379,41.1594166,205,THORNWOOD RD,,,,,,,3999510e6d5da3a9,America/New_York
-73.5966546,41.159295,2884,LONG RIDGE RD,,,,,,,7f3dad80f158492f,America/New_York
-73.5780442,41.1589296,65,BREEZY HILL RD,,,,,,,5b5d0792d988ac83,America/New_York
-73.5610798,41.1593696,57,BRIAR BRAE RD,,,,,,,f3880404b21ab6ec,America/New_York
-73.5547454,41.1593053,173,INGLESIDE DR,,,,,,,e15a5316340e5782,America/New_York
-73.5994621,41.1586832,14,WHITE BIRCH RD S,,,,,,,bcf44b7e6c69778e,America/New_York
-73.5625983,41.1587622,79,BRIAR BRAE RD,,,,,,,4906a8d9d4b58282,America/New_York
-73.5789509,41.15919,95,BREEZY HILL RD,,,,,,,344d668e0ae1c1f5,America/New_York
-73.5767133,41.1592424,41,BREEZY HILL RD,,,,,,,ad663bfb408416ce,America/New_York
-73.5425991,41.1593067,222,THORNWOOD RD,,,,,,,faf081b4439f4e46,America/New_York
-73.5629958,41.1585953,89,BRIAR BRAE RD,,,,,,,f79254f792cdb922,America/New_York
-73.600853,41.1587494,16,WHITE BIRCH RD S,,,,,,,5c46c9f55dee5773,America/New_York
-73.5719044,41.1590367,95,APPLE VALLEY RD,,,,,,,36e430198efa71e3,America/New_York
-73.5634308,41.1585339,103,BRIAR BRAE RD,,,,,,,f143e687cfbc4339,America/New_York
-73.5644262,41.1585674,121,BRIAR BRAE RD,,,,,,,a9f89dce31c00ce3,America/New_York
-73.5796808,41.1589932,99,BREEZY HILL RD,,,,,,,af158f31ba728b93,America/New_York
-73.5958763,41.1588202,555,OLD LONG RIDGE RD,,,,,,,2cedc3522a9ccdf9,America/New_York
-73.5709372,41.159077,100,APPLE VALLEY RD,,,,,,,9ffc9f710a96fa87,America/New_York
-73.5639148,41.1590677,105,BRIAR BRAE RD,,,,,,,f5fa9cb0a86a6faa,America/New_York
-73.5757244,41.1591829,21,BREEZY HILL RD,,,,,,,22cf9ab87799e04e,America/New_York
-73.5692277,41.1591094,78,SHADY LN,,,,,,,dd9b602c115a9c6e,America/New_York
-73.5735357,41.1590215,801,ROCK RIMMON RD,,,,,,,c26d67eee5cacedd,America/New_York
-73.5434886,41.1591272,29,BITTERSWEET LN,,,,,,,76af03d5eaf15473,America/New_York
-73.5966023,41.1589595,2874,LONG RIDGE RD,,,,,,,0eb4ffd0a441a08c,America/New_York
-73.541411,41.1590604,187,THORNWOOD RD,,,,,,,8d059e9ae5ddf55d,America/New_York
-73.5589994,41.158941,2687,HIGH RIDGE RD,,,,,,,0ebdf408f3ed2721,America/New_York
-73.5903559,41.1588688,1278,ROCK RIMMON RD,,,,,,,4177cefb982e23d1,America/New_York
-73.5896893,41.1587654,1260,ROCK RIMMON RD,,,,,,,5237d91875faaeb5,America/New_York
-73.5622092,41.1586314,69,BRIAR BRAE RD,,,,,,,1875ac4712633886,America/New_York
-73.5948897,41.1584395,1377,ROCK RIMMON RD,,,,,,,23d09339bb8ac6db,America/New_York
-73.590386,41.1582675,1288,ROCK RIMMON RD,,,,,,,d97aa3e5c299e973,America/New_York
-73.5694197,41.1587067,66,SHADY LN,,,,,,,f859f0dc48c580ec,America/New_York
-73.5445739,41.1588677,367,WOODBINE RD,,,,,,,91c7afdcd5633241,America/New_York
-73.5953206,41.1584502,553,OLD LONG RIDGE RD,,,,,,,45d0aaaebe00070c,America/New_York
-73.5869787,41.1586989,15,POND VIEW LN,,,,,,,4e9113db19e32e9a,America/New_York
-73.5439925,41.159009,369,WOODBINE RD,,,,,,,9e8df4e45136f888,America/New_York
-73.5914299,41.158346,1306,ROCK RIMMON RD,,,,,,,cf3a93bf1ff869ec,America/New_York
-73.5655117,41.1585203,141,BRIAR BRAE RD,,,,,,,b7938bc7803bcc17,America/New_York
-73.5501514,41.1550953,0,INGLESIDE DR,,,,,,,c7cadbfb65f875ce,America/New_York
-73.6016601,41.1585841,22,WHITE BIRCH RD S,,,,,,,87628d168cebd318,America/New_York
-73.566935,41.1588185,41,MERRILAND RD,,,,,,,1a57e4126af283e3,America/New_York
-73.5662481,41.1587793,45,MERRILAND RD,,,,,,,fe36ebe98c75d5e7,America/New_York
-73.5596543,41.1586976,2689,HIGH RIDGE RD,,,,,,,00f0d598f8a3c5bb,America/New_York
-73.5487988,41.1587083,72,FERNWOOD DR,,,,,,,00fb03d68ca1b778,America/New_York
-73.5675255,41.158797,29,MERRILAND RD,,,,,,,4fbc17f5ee61f50e,America/New_York
-73.5786893,41.1583415,89,BREEZY HILL RD,,,,,,,7aacb803a4d20f72,America/New_York
-73.5466782,41.1587874,364,WOODBINE RD,,,,,,,e1be319d407bd272,America/New_York
-73.5923814,41.1583759,1336,ROCK RIMMON RD,,,,,,,7a88f545606a1640,America/New_York
-73.5683402,41.1588368,77,MERRILAND RD,,,,,,,4fa0f6585acb7e74,America/New_York
-73.5888838,41.1581645,1230,ROCK RIMMON RD,,,,,,,7ab4f9aebec6afca,America/New_York
-73.5609335,41.1583579,51,BRIAR BRAE RD,,,,,,,af0b8f87f9a1e675,America/New_York
-73.5408828,41.1587132,159,THORNWOOD RD,,,,,,,f158758c5bf6aaf6,America/New_York
-73.5496676,41.1584289,82,FERNWOOD DR,,,,,,,1884c27f63ea3d7f,America/New_York
-73.5423564,41.1588556,194,THORNWOOD RD,,,,,,,39a0ba20939a7d19,America/New_York
-73.5721142,41.158677,109,APPLE VALLEY RD,,,,,,,afc8383daedf2e00,America/New_York
-73.5750327,41.1587208,786,ROCK RIMMON RD,,,,,,,76bd16a51f8a78a7,America/New_York
-73.5980701,41.1582086,29,ECHO HILL DR,,,,,,,8d1b822840cd9d93,America/New_York
-73.5543594,41.1586738,171,INGLESIDE DR,,,,,,,eb25739dd84a441d,America/New_York
-73.570737,41.1587737,116,APPLE VALLEY RD,,,,,,,d2568c802c16ecae,America/New_York
-73.576234,41.1586191,46,BREEZY HILL RD,,,,,,,b70be5856fdaf39f,America/New_York
-73.5878822,41.1582793,1222,ROCK RIMMON RD,,,,,,,539c32b54d642c78,America/New_York
-73.5771368,41.1584156,52,BREEZY HILL RD,,,,,,,b7d1b57a8bb02f05,America/New_York
-73.5966054,41.1584751,2856,LONG RIDGE RD,,,,,,,299f53a9161af224,America/New_York
-73.5687287,41.1583723,61,SHADY LN,,,,,,,ac99f962b66d7902,America/New_York
-73.5793166,41.1580957,101,BREEZY HILL RD,,,,,,,b01c7c4054c408b7,America/New_York
-73.5850774,41.1582396,77,BLACKBERRY DR,,,,,,,34fa4b286327b116,America/New_York
-73.5986971,41.1581609,39,ECHO HILL DR,,,,,,,8e5cae2d12d39378,America/New_York
-73.5861966,41.1583232,20,POND VIEW LN,,,,,,,db1add777a7e46ff,America/New_York
-73.5737427,41.1584433,787,ROCK RIMMON RD,,,,,,,a6977e57bb454ac0,America/New_York
-73.5845093,41.1580632,65,BLACKBERRY DR,,,,,,,18729d1191b722db,America/New_York
-73.5995238,41.1579755,61,ECHO HILL DR,,,,,,,030107bc51895c45,America/New_York
-73.5404194,41.1583785,155,THORNWOOD RD,,,,,,,2c41e6b01441361b,America/New_York
-73.5940479,41.1581448,1364,ROCK RIMMON RD,,,,,,,0b8e5f609f51a6be,America/New_York
-73.5427323,41.1581619,25,BITTERSWEET LN,,,,,,,6dace0132ec269c5,America/New_York
-73.59663,41.1581607,2850,LONG RIDGE RD,,,,,,,268b26260cdb373d,America/New_York
-73.5799832,41.1582284,131,BREEZY HILL RD,,,,,,,6734c5746d3d8d5b,America/New_York
-73.5804433,41.1583935,135,BREEZY HILL RD,,,,,,,3557436d2d7d8f23,America/New_York
-73.5836198,41.1583247,59,BLACKBERRY DR,,,,,,,54c3368be95617e5,America/New_York
-73.6002274,41.1578371,87,ECHO HILL DR,,,,,,,5caa330a6a37dbe7,America/New_York
-73.5696462,41.1583786,60,SHADY LN,,,,,,,a3aab3cc490a43e8,America/New_York
-73.5872805,41.1582179,25,POND VIEW LN,,,,,,,bf2062a73fb45fbc,America/New_York
-73.5434931,41.1580071,35,BITTERSWEET LN,,,,,,,839b8342dd6c17a4,America/New_York
-73.5608268,41.1580976,43,BRIAR BRAE RD,,,,,,,91a8ec1094153f32,America/New_York
-73.5705593,41.1582947,118,APPLE VALLEY RD,,,,,,,929faf9bc7dc53cb,America/New_York
-73.5821926,41.158081,140,BREEZY HILL RD,,,,,,,877b98a39849f82c,America/New_York
-73.583197,41.158161,39,BLACKBERRY DR,,,,,,,4aa5a179b6761185,America/New_York
-73.6009082,41.1577807,91,ECHO HILL DR,,,,,,,5126b8b7178639cf,America/New_York
-73.5889201,41.1574585,1262,ROCK RIMMON RD,,,,,,,aa073278bcd51de7,America/New_York
-73.5595655,41.15829,2677,HIGH RIDGE RD,,,,,,,f56b2d1327096edd,America/New_York
-73.5421447,41.1583149,15,BITTERSWEET LN,,,,,,,380c669e9f54332b,America/New_York
-73.5751215,41.158272,778,ROCK RIMMON RD,,,,,,,0c6c1137ba0fdb64,America/New_York
-73.5957917,41.1578353,528,OLD LONG RIDGE RD,,,,,,,9079b6734aaaf187,America/New_York
-73.5816512,41.1581497,136,BREEZY HILL RD,,,,,,,2121bb54c38741f2,America/New_York
-73.5399876,41.1582455,147,THORNWOOD RD,,,,,,,2a43717993ae43ab,America/New_York
-73.5945816,41.1582229,1374,ROCK RIMMON RD,,,,,,,b56140a118cc1e7f,America/New_York
-73.6015674,41.1576698,103,ECHO HILL DR,,,,,,,020c3caf72aa2dce,America/New_York
-73.5721402,41.1581597,123,APPLE VALLEY RD,,,,,,,fe5a62696862d9d3,America/New_York
-73.6022511,41.1575358,133,ECHO HILL DR,,,,,,,98ab4b70b66f9f15,America/New_York
-73.5445117,41.1582273,351,WOODBINE RD,,,,,,,b40eabb8ec516417,America/New_York
-73.5730169,41.1580297,761,ROCK RIMMON RD,,,,,,,aea53ae615d57f58,America/New_York
-73.5705874,41.1576462,120,APPLE VALLEY RD,,,,,,,26ee94fa0ea7f0a4,America/New_York
-73.5952498,41.1579428,525,OLD LONG RIDGE RD,,,,,,,acd5ac43c6fc48ba,America/New_York
-73.5459469,41.1579762,340,WOODBINE RD,,,,,,,676a38a7a9af02b0,America/New_York
-73.6030264,41.1574635,139,ECHO HILL DR,,,,,,,d2bec331df4e1b42,America/New_York
-73.5711106,41.1578569,122,APPLE VALLEY RD,,,,,,,03f8186ae10b103e,America/New_York
-73.5866508,41.1578688,30,POND VIEW LN,,,,,,,7ae56258452a9af9,America/New_York
-73.5660028,41.1578092,161,BRIAR BRAE RD,,,,,,,dc4f9cb9fb1f34ad,America/New_York
-73.5735967,41.1578428,763,ROCK RIMMON RD,,,,,,,58318fbd92cb372d,America/New_York
-73.539472,41.1580078,137,THORNWOOD RD,,,,,,,dd4fa0995b93abc9,America/New_York
-73.5615174,41.1580065,46,BRIAR BRAE RD,,,,,,,4a20d3d39034f699,America/New_York
-73.5855283,41.1576295,85,BLACKBERRY DR,,,,,,,d954e8628cb6c8b5,America/New_York
-73.5688461,41.1578799,45,SHADY LN,,,,,,,e7df0efadb3dd87d,America/New_York
-73.5621513,41.1579636,72,BRIAR BRAE RD,,,,,,,45d7f4af3272171b,America/New_York
-73.5665581,41.1576925,171,BRIAR BRAE RD,,,,,,,6a3c0930264eb902,America/New_York
-73.5627605,41.1580152,74,BRIAR BRAE RD,,,,,,,b59ef3f2f858b273,America/New_York
-73.5741758,41.1577951,769,ROCK RIMMON RD,,,,,,,a825f56f4ecc906b,America/New_York
-73.584744,41.1577815,75,BLACKBERRY DR,,,,,,,d68eae19588a0f20,America/New_York
-73.5673969,41.1578806,177,BRIAR BRAE RD,,,,,,,3224b31e99719e74,America/New_York
-73.5410662,41.1579497,158,THORNWOOD RD,,,,,,,22dd1b85b5ae8adb,America/New_York
-73.5621168,41.1573557,100,BRIAR BRAE RD,,,,,,,f8f2ae50225b2af5,America/New_York
-73.603776,41.1574915,165,ECHO HILL DR,,,,,,,b6c85e5471261aaa,America/New_York
-73.56337,41.1579693,102,BRIAR BRAE RD,,,,,,,07737c662cdb2dd5,America/New_York
-73.5696209,41.1578923,48,SHADY LN,,,,,,,a748a9c25ac6b628,America/New_York
-73.5981016,41.1572322,2810,LONG RIDGE RD,,,,,,,87ae852de29e5ea4,America/New_York
-73.5724819,41.1577934,127,APPLE VALLEY RD,,,,,,,a43e187204b0b1ef,America/New_York
-73.581592,41.1576701,2,HAPPY HILL RD,,,,,,,8a01a339912b58ad,America/New_York
-73.5754502,41.1576491,760,ROCK RIMMON RD,,,,,,,6032db51eaf9fd60,America/New_York
-73.5904922,41.1570904,1294,ROCK RIMMON RD,,,,,,,c9f8cd696d3872b0,America/New_York
-73.5823701,41.1575381,27,BLACKBERRY DR,,,,,,,c29e8569047da654,America/New_York
-73.5645828,41.1576717,134,BRIAR BRAE RD,,,,,,,2fc92e1fc7d74839,America/New_York
-73.560482,41.1577011,27,BRIAR BRAE RD,,,,,,,7ef6483c626d52c9,America/New_York
-73.58419,41.1573776,71,BLACKBERRY DR,,,,,,,2783dfea2e245080,America/New_York
-73.5708199,41.1571726,128,APPLE VALLEY RD,,,,,,,90ce3c2c231f4028,America/New_York
-73.5443603,41.1578157,337,WOODBINE RD,,,,,,,96c6979098e3db3a,America/New_York
-73.5389314,41.1577637,133,THORNWOOD RD,,,,,,,b351e556d9215917,America/New_York
-73.5767077,41.157334,750,ROCK RIMMON RD,,,,,,,90d6262e5d5b34c1,America/New_York
-73.5831517,41.1575991,49,BLACKBERRY DR,,,,,,,0a8b32b766876a83,America/New_York
-73.5950033,41.1574392,509,OLD LONG RIDGE RD,,,,,,,dc48314517b561c8,America/New_York
-73.5774245,41.1572544,752,ROCK RIMMON RD,,,,,,,1a1ef1dfae670241,America/New_York
-73.5714034,41.1569508,130,APPLE VALLEY RD,,,,,,,111711eab893bbc9,America/New_York
-73.5415833,41.1578545,14,BITTERSWEET LN,,,,,,,1517a13ccaf8e5c3,America/New_York
-73.5956467,41.1574599,514,OLD LONG RIDGE RD,,,,,,,c575d1cb43f0adf2,America/New_York
-73.5780493,41.1574289,43,RIDGE BROOK LN,,,,,,,99d2cad4bf02b3e6,America/New_York
-73.5868475,41.1573338,46,POND VIEW LN,,,,,,,00a9c2dccd882c27,America/New_York
-73.5586955,41.1578473,84,INGLESIDE DR,,,,,,,bee641587168fa1e,America/New_York
-73.6045423,41.1572544,185,ECHO HILL DR,,,,,,,d49a6445f32dade7,America/New_York
-73.5683663,41.1574263,7,SHADY LN,,,,,,,e431fd4a0c96cfe3,America/New_York
-73.5803543,41.1573892,3,HAPPY HILL RD,,,,,,,fe38943adbdc4ca1,America/New_York
-73.5676408,41.1574262,197,BRIAR BRAE RD,,,,,,,1a9c9ba476b5a575,America/New_York
-73.5654284,41.1572386,154,BRIAR BRAE RD,,,,,,,7609dd5782105620,America/New_York
-73.5420957,41.1574922,25,QUAILS TRL,,,,,,,fea5d5599ddaa2ab,America/New_York
-73.5945702,41.1565918,481,OLD LONG RIDGE RD,,,,,,,178733c3f05b62df,America/New_York
-73.5699407,41.1571357,34,SHADY LN,,,,,,,6f4f043e2e427aa2,America/New_York
-73.5998464,41.1570155,86,ECHO HILL DR,,,,,,,f0d37478ee040157,America/New_York
-73.540417,41.1574912,138,THORNWOOD RD,,,,,,,55a08198d0c01239,America/New_York
-73.5694491,41.1571226,24,SHADY LN,,,,,,,33aa3d6f481d58d9,America/New_York
-73.568009,41.1571497,225,BRIAR BRAE RD,,,,,,,abc17d6190659b7e,America/New_York
-73.5797138,41.1572774,32,RIDGE BROOK LN,,,,,,,767bfa189a223795,America/New_York
-73.5789822,41.1573259,40,RIDGE BROOK LN,,,,,,,0e379e6a93399ae2,America/New_York
-73.5851045,41.1571632,81,BLACKBERRY DR,,,,,,,1be372dff3736992,America/New_York
-73.561197,41.1574882,30,BRIAR BRAE RD,,,,,,,f68911a236604d4b,America/New_York
-73.6004847,41.1569333,90,ECHO HILL DR,,,,,,,f33fb5ef837ccf8a,America/New_York
-73.5729334,41.1572896,741,ROCK RIMMON RD,,,,,,,93d5ce3007fbc9ae,America/New_York
-73.5947128,41.1568956,493,OLD LONG RIDGE RD,,,,,,,020d43d9662fcbdb,America/New_York
-73.5955792,41.1571826,506,OLD LONG RIDGE RD,,,,,,,7b98b99206672223,America/New_York
-73.5431811,41.1574559,20,BITTERSWEET LN,,,,,,,48b09454c87b1402,America/New_York
-73.6011688,41.1569323,98,ECHO HILL DR,,,,,,,25850d8005e2ca38,America/New_York
-73.5389052,41.1572161,121,THORNWOOD RD,,,,,,,b8dbfee61f020f94,America/New_York
-73.5598976,41.1574193,5,BRIAR BRAE RD,,,,,,,3c1a915a7106cfb1,America/New_York
-73.565056,41.1563344,26,BRIAR BRAE RD,,,,,,,a2fdcd16c829c17e,America/New_York
-73.5731353,41.1567104,739,ROCK RIMMON RD,,,,,,,8eaa366824d5f0fc,America/New_York
-73.6018591,41.1568812,120,ECHO HILL DR,,,,,,,c5e9b1d26d97b578,America/New_York
-73.5660917,41.1572075,168,BRIAR BRAE RD,,,,,,,295e595cda2bc902,America/New_York
-73.5857266,41.1566513,163,BLACKBERRY DR,,,,,,,144c00ee56e7925b,America/New_York
-73.605282,41.1569178,189,ECHO HILL DR,,,,,,,b2610e9982da9080,America/New_York
-73.5443641,41.1572169,319,WOODBINE RD,,,,,,,c2b61f1f44f82ff4,America/New_York
-73.5746304,41.1570704,747,ROCK RIMMON RD,,,,,,,1708dd962642d218,America/New_York
-73.5400455,41.1571017,128,THORNWOOD RD,,,,,,,1e1a09f4dcf1b5f1,America/New_York
-73.6025886,41.1567723,138,ECHO HILL DR,,,,,,,86328aefa900687f,America/New_York
-73.5664404,41.157061,186,BRIAR BRAE RD,,,,,,,ae25766ae40d3151,America/New_York
-73.5832442,41.1569107,52,BLACKBERRY DR,,,,,,,af17c4f221cee756,America/New_York
-73.6033074,41.1566757,158,ECHO HILL DR,,,,,,,8d6618a23dd8fee0,America/New_York
-73.5811507,41.1569526,29,HAPPY HILL RD,,,,,,,2d30dcc070030ea9,America/New_York
-73.5607996,41.1570493,18,BRIAR BRAE RD,,,,,,,d3b280755cbd5a69,America/New_York
-73.5838076,41.1568524,68,BLACKBERRY DR,,,,,,,59658ac8248e4693,America/New_York
-73.5604265,41.1567233,16,BRIAR BRAE RD,,,,,,,5f28c60d164ff159,America/New_York
-73.5819624,41.1563984,32,BLACKBERRY DR,,,,,,,715b8387e59cd87f,America/New_York
-73.5952964,41.1568038,498,OLD LONG RIDGE RD,,,,,,,11e67b4a0e6f3767,America/New_York
-73.582038,41.1568397,26,BLACKBERRY DR,,,,,,,0b244c7d271943de,America/New_York
-73.5752242,41.1570871,746,ROCK RIMMON RD,,,,,,,a0a86272b5a6684d,America/New_York
-73.6039268,41.1566111,160,ECHO HILL DR,,,,,,,03e6034658ed3ecb,America/New_York
-73.5778785,41.1568638,35,RIDGE BROOK LN,,,,,,,658529636e79b7a4,America/New_York
-73.5791419,41.1569488,36,RIDGE BROOK LN,,,,,,,bfd86d10bce38746,America/New_York
-73.5803822,41.1567926,39,HAPPY HILL RD,,,,,,,86bcf0a869747896,America/New_York
-73.5762904,41.1568368,27,GOLDEN FARM RD,,,,,,,a34d1ec29d90b62d,America/New_York
-73.5669317,41.1567649,196,BRIAR BRAE RD,,,,,,,e5584bdc5d6dd983,America/New_York
-73.5691323,41.1569016,14,SHADY LN,,,,,,,a9ac4b3049e41f14,America/New_York
-73.5616992,41.1567777,20,BRIAR BRAE RD,,,,,,,71e9d3e247307d60,America/New_York
-73.542876,41.1569523,20,QUAILS TRL,,,,,,,ccc4742641cb388d,America/New_York
-73.5770752,41.1567564,45,GOLDEN FARM RD,,,,,,,8a8d7c4d99a12f6e,America/New_York
-73.6046411,41.1565544,168,ECHO HILL DR,,,,,,,badb872cb0745eb5,America/New_York
-73.5896451,41.1566073,17,STONE FENCE LN,,,,,,,1ad608e3438b9b75,America/New_York
-73.5624291,41.1567729,22,BRIAR BRAE RD,,,,,,,4ff4a91d4357c0ce,America/New_York
-73.6062124,41.1564166,196,ECHO HILL DR,,,,,,,be5b78164f3a2067,America/New_York
-73.5387723,41.1567901,109,THORNWOOD RD,,,,,,,46e89f9347ee11d9,America/New_York
-73.6053539,41.1562247,180,ECHO HILL DR,,,,,,,4d8f0021a67fc5ed,America/New_York
-73.5419255,41.1568193,35,QUAILS TRL,,,,,,,402acd18e05e48b5,America/New_York
-73.5902721,41.1564594,19,STONE FENCE LN,,,,,,,6961c95ff70165ef,America/New_York
-73.5441273,41.1568587,309,WOODBINE RD,,,,,,,30f39b94988d93fe,America/New_York
-73.5851049,41.1566501,89,BLACKBERRY DR,,,,,,,8e81cae375175590,America/New_York
-73.5977497,41.155983,29,N LAKE DR,,,,,,,8217c6b42891dda5,America/New_York
-73.5948857,41.156314,484,OLD LONG RIDGE RD,,,,,,,bd98b0a3215c2efa,America/New_York
-73.567506,41.1566483,206,BRIAR BRAE RD,,,,,,,f1f6eea2494e37a2,America/New_York
-73.5398254,41.1567497,114,THORNWOOD RD,,,,,,,75f39e26ccb00bbd,America/New_York
-73.591063,41.1562393,39,STONE FENCE LN,,,,,,,7a29aae6cc855af2,America/New_York
-73.5736307,41.1566731,743,ROCK RIMMON RD,,,,,,,a0c449947cddddf7,America/New_York
-73.5940071,41.1561681,465,OLD LONG RIDGE RD,,,,,,,196b4ac3f506d19a,America/New_York
-73.5836404,41.1563982,22,BLACKBERRY DR E,,,,,,,d297ae70c2acd0ff,America/New_York
-73.5829357,41.1563637,32,BLACKBERRY DR E,,,,,,,fadf0e9625d60548,America/New_York
-73.5794229,41.1565489,30,RIDGE BROOK LN,,,,,,,1322db434699aa5a,America/New_York
-73.5744508,41.1563862,723,ROCK RIMMON RD,,,,,,,5ba4f7a0910eb55c,America/New_York
-73.5686881,41.1564354,2,SHADY LN,,,,,,,67e68e5759167829,America/New_York
-73.5731219,41.156284,737,ROCK RIMMON RD,,,,,,,ff2d4858fcf8e77b,America/New_York
-73.587382,41.155878,175,BLACKBERRY DR,,,,,,,3dfedc21d6b8d923,America/New_York
-73.5678203,41.156419,212,BRIAR BRAE RD,,,,,,,ca6f5aead903d439,America/New_York
-73.5697778,41.1563343,8,SHADY LN,,,,,,,f571ef0a1f790065,America/New_York
-73.5431321,41.1565634,38,QUAILS TRL,,,,,,,ab25bcc716094a95,America/New_York
-73.5918249,41.1561533,35,STONE FENCE LN,,,,,,,c08c53869798c102,America/New_York
-73.5993342,41.1562115,63,N LAKE DR,,,,,,,0f682f3fc60a382e,America/New_York
-73.5812344,41.1562766,47,HAPPY HILL RD,,,,,,,4efb5ed7472d3ae9,America/New_York
-73.5894406,41.1559356,5,STONE FENCE LN,,,,,,,308f93e9a7c64ada,America/New_York
-73.5385738,41.1563444,97,THORNWOOD RD,,,,,,,a68f54e17304658a,America/New_York
-73.5640847,41.1560989,24,BRIAR BRAE RD,,,,,,,7b43114cbb9fafa6,America/New_York
-73.5440396,41.1564782,295,WOODBINE RD,,,,,,,0fe8198d4040ab94,America/New_York
-73.5802282,41.1562663,44,HAPPY HILL RD,,,,,,,2f1391bfa0844173,America/New_York
-73.5858932,41.1558876,165,BLACKBERRY DR,,,,,,,8c79b2a6b4e122b6,America/New_York
-73.5849725,41.1561579,107,BLACKBERRY DR,,,,,,,9d837f1e9234d9d3,America/New_York
-73.5936435,41.1558549,455,OLD LONG RIDGE RD,,,,,,,e81df47eb848b8be,America/New_York
-73.5869915,41.1554798,173,BLACKBERRY DR,,,,,,,cd8de57baf04e03d,America/New_York
-73.5864677,41.15532,171,BLACKBERRY DR,,,,,,,8ec67fb7bb3ef69f,America/New_York
-73.5398476,41.1562564,100,THORNWOOD RD,,,,,,,93526f1b419fd756,America/New_York
-73.601091,41.1555704,105,N LAKE DR,,,,,,,8a3c65be6a971e26,America/New_York
-73.590181,41.1557782,23,STONE FENCE LN,,,,,,,a15015e66d0ed6f7,America/New_York
-73.579369,41.1559729,111,RIDGE BROOK LN,,,,,,,a7500a3d4b886ee6,America/New_York
-73.5944027,41.1558054,462,OLD LONG RIDGE RD,,,,,,,1210b3a8403c9b35,America/New_York
-73.5607511,41.1561183,95,ALEXANDRA DR,,,,,,,1676115936c4ec9f,America/New_York
-73.5615181,41.1560023,105,ALEXANDRA DR,,,,,,,331eb96cf6fb6afc,America/New_York
-73.6019783,41.1553623,123,N LAKE DR,,,,,,,4d93c039b5342f35,America/New_York
-73.5683986,41.1559294,239,BRIAR BRAE RD,,,,,,,8e76da4adceb3fa5,America/New_York
-73.5908935,41.1556932,27,STONE FENCE LN,,,,,,,a4f639d74215fecb,America/New_York
-73.5427167,41.156223,42,QUAILS TRL,,,,,,,104c091a2bbf4eff,America/New_York
-73.5677539,41.1559178,236,BRIAR BRAE RD,,,,,,,c8be141ec6ae6b44,America/New_York
-73.5621099,41.1559308,106,ALEXANDRA DR,,,,,,,c035f7bc6a3e2b6e,America/New_York
-73.5740501,41.1557343,711,ROCK RIMMON RD,,,,,,,a24c43c19b99d009,America/New_York
-73.599596,41.1556434,71,N LAKE DR,,,,,,,e4201a15cea1a4cb,America/New_York
-73.602782,41.1552599,145,N LAKE DR,,,,,,,b597fed227d013da,America/New_York
-73.541662,41.1560987,47,QUAILS TRL,,,,,,,7ad2d21aa1879dcd,America/New_York
-73.5383168,41.1560181,81,THORNWOOD RD,,,,,,,f24f34eb888f5258,America/New_York
-73.5825345,41.1558738,31,BLACKBERRY DR E,,,,,,,79b8c993a97bbfbe,America/New_York
-73.5628979,41.1559782,110,ALEXANDRA DR,,,,,,,8c3af92e0512493b,America/New_York
-73.5916157,41.1556487,31,STONE FENCE LN,,,,,,,a922115a0edc4972,America/New_York
-73.580654,41.1557899,64,HAPPY HILL RD,,,,,,,eb4f9ebfc119b27e,America/New_York
-73.5440539,41.1560413,283,WOODBINE RD,,,,,,,957f82810a1f98d2,America/New_York
-73.593294,41.1553119,435,OLD LONG RIDGE RD,,,,,,,67668ab869a063b3,America/New_York
-73.6038084,41.1550024,165,N LAKE DR,,,,,,,8ded81611cb62b0b,America/New_York
-73.5852092,41.1556204,121,BLACKBERRY DR,,,,,,,8e0c3595b0ee643c,America/New_York
-73.5833536,41.1557079,23,BLACKBERRY DR E,,,,,,,b486511c6e8471b5,America/New_York
-73.5692727,41.1558733,4,SHADY LN,,,,,,,821b623944188aee,America/New_York
-73.5598996,41.1558882,2612,HIGH RIDGE RD,,,,,,,2cefdfe3decebbdb,America/New_York
-73.5824315,41.1553601,27,BLACKBERRY DR E,,,,,,,2547b81a2da3c460,America/New_York
-73.5781602,41.1557738,18,RIDGE BROOK LN,,,,,,,267dd4dfb4e12689,America/New_York
-73.5842131,41.1556107,5,BLACKBERRY DR E,,,,,,,5e42e53594a7e95d,America/New_York
-73.5814102,41.155628,61,HAPPY HILL RD,,,,,,,24948243e57f1f5b,America/New_York
-73.5833754,41.1551807,19,BLACKBERRY DR E,,,,,,,922007b60545a1b6,America/New_York
-73.5403375,41.1555912,96,THORNWOOD RD,,,,,,,25c8399d7d5fe0da,America/New_York
-73.5613983,41.1554712,87,ALEXANDRA DR,,,,,,,98fc7b7a98209f2e,America/New_York
-73.5753023,41.1556037,25,RIDGE BROOK DR,,,,,,,2f5664827a5a0340,America/New_York
-73.5396023,41.1559113,92,THORNWOOD RD,,,,,,,d00f8ced04879487,America/New_York
-73.6084493,41.1548047,227,S LAKE DR,,,,,,,6d2163467077cc3d,America/New_York
-73.5970217,41.1551342,20,N LAKE DR,,,,,,,ccb42500b881e52f,America/New_York
-73.5771192,41.1555332,53,RIDGE BROOK DR,,,,,,,791dd2c45ab31f30,America/New_York
-73.5959029,41.1546839,2768,LONG RIDGE RD,,,,,,,9f9af5e6286fa48d,America/New_York
-73.5813595,41.1550706,65,HAPPY HILL RD,,,,,,,39b8122b1a9af557,America/New_York
-73.5760941,41.1555304,35,RIDGE BROOK DR,,,,,,,217a8bf425f04cf7,America/New_York
-73.5632782,41.1555429,96,ALEXANDRA DR,,,,,,,14a16a7502982761,America/New_York
-73.538086,41.1555677,63,THORNWOOD RD,,,,,,,d72858932be07a17,America/New_York
-73.5423514,41.1556938,50,QUAILS TRL,,,,,,,03f53631133722a9,America/New_York
-73.58582,41.1552919,153,BLACKBERRY DR,,,,,,,d2417d5bc1b708f5,America/New_York
-73.5891929,41.1552595,107,HEMING WAY,,,,,,,75353cc47a5d0fec,America/New_York
-73.5612636,41.1552242,79,ALEXANDRA DR,,,,,,,32026ffcabbb93d2,America/New_York
-73.5438574,41.1556339,271,WOODBINE RD,,,,,,,f0f5c526eae30268,America/New_York
-73.5940152,41.155353,448,OLD LONG RIDGE RD,,,,,,,388db3417d7f7d0a,America/New_York
-73.5791977,41.1554984,81,RIDGE BROOK LN,,,,,,,14790269bf927638,America/New_York
-73.565914,41.1553826,286,WEST TRL,,,,,,,9f1c83afe2d3a31d,America/New_York
-73.568306,41.1543452,284,BRIAR BRAE RD,,,,,,,c8fa76b1d7a43152,America/New_York
-73.5592497,41.1554675,2596,HIGH RIDGE RD,,,,,,,fc9feb59cef284f5,America/New_York
-73.5693637,41.1555131,251,BRIAR BRAE RD,,,,,,,beb7bfa43daea5ed,America/New_York
-73.5780605,41.1553923,75,RIDGE BROOK DR,,,,,,,12fb1132d51d1161,America/New_York
-73.5609992,41.1548768,65,ALEXANDRA DR,,,,,,,1c7d9431c2714fec,America/New_York
-73.5898546,41.1550517,106,HEMING WAY,,,,,,,322532ef9cb47880,America/New_York
-73.5393049,41.1554981,38,BRUSHWOOD RD,,,,,,,667b5a0856827fba,America/New_York
-73.5626488,41.1552743,92,ALEXANDRA DR,,,,,,,f70d3bea8a7bc08f,America/New_York
-73.5640093,41.155325,269,WEST TRL,,,,,,,eb9d22dd4c5df0b3,America/New_York
-73.5982588,41.1547414,56,N LAKE DR,,,,,,,15acc28c29e6923a,America/New_York
-73.5912623,41.1550184,26,STONE FENCE LN,,,,,,,c9bfeea1e932d9d2,America/New_York
-73.537708,41.1552784,53,THORNWOOD RD,,,,,,,b52cf8073517149b,America/New_York
-73.583849,41.1550626,15,BLACKBERRY DR E,,,,,,,c99fe4b29fffc4fd,America/New_York
-73.5905623,41.1549394,22,STONE FENCE LN,,,,,,,576077bdc1bc2fb7,America/New_York
-73.5989746,41.1545609,68,N LAKE DR,,,,,,,810850c79e2e9298,America/New_York
-73.5872158,41.1547031,183,BLACKBERRY DR,,,,,,,adb1e8b6e4046a72,America/New_York
-73.5936296,41.1549382,432,OLD LONG RIDGE RD,,,,,,,0f1acbf3ef554e11,America/New_York
-73.5844592,41.1549142,132,BLACKBERRY DR,,,,,,,7dc1ef555eb28ed4,America/New_York
-73.5459776,41.1544797,32,ROUND LAKE RD,,,,,,,54b1a4974eadd725,America/New_York
-73.5605756,41.1547514,49,ALEXANDRA DR,,,,,,,6d62b4c8de6ead41,America/New_York
-73.5996938,41.1544162,76,N LAKE DR,,,,,,,9eceec917d63a062,America/New_York
-73.5926639,41.1542734,405,OLD LONG RIDGE RD,,,,,,,feeffb07a940fc56,America/New_York
-73.5700558,41.1550741,265,BRIAR BRAE RD,,,,,,,c901edb2fdec9c03,America/New_York
-73.5437299,41.1552921,261,WOODBINE RD,,,,,,,bd316dbeaaa165c1,America/New_York
-73.5447731,41.1553401,270,WOODBINE RD,,,,,,,c40af38a41d9b387,America/New_York
-73.5687424,41.1550864,263,BRIAR BRAE RD,,,,,,,2fba890ebcf6fdbc,America/New_York
-73.5592838,41.1551447,2588,HIGH RIDGE RD,,,,,,,e80c19b996beb985,America/New_York
-73.5413047,41.1550576,199,WOODBINE RD,,,,,,,37154b8aa44add66,America/New_York
-73.6009954,41.1545171,108,N LAKE DR,,,,,,,5871423b92d787ff,America/New_York
-73.5631213,41.1549237,15,ELIOT LN,,,,,,,b7cd30bc1a6709ba,America/New_York
-73.5417802,41.1550704,209,WOODBINE RD,,,,,,,06e8e533bdbae833,America/New_York
-73.5766314,41.1549603,46,RIDGE BROOK DR,,,,,,,c138a2b10d7deba6,America/New_York
-73.5758844,41.1549881,32,RIDGE BROOK DR,,,,,,,68182bf5201e5696,America/New_York
-73.5406917,41.1549323,187,WOODBINE RD,,,,,,,36447d1d918a4d2d,America/New_York
-73.5750066,41.1550128,12,RIDGE BROOK DR,,,,,,,0d728a069844208a,America/New_York
-73.5423553,41.1550341,221,WOODBINE RD,,,,,,,044de7f2a4e33044,America/New_York
-73.5772124,41.1542785,56,RIDGE BROOK DR,,,,,,,f16d89c7952a027b,America/New_York
-73.5598709,41.1547073,29,ALEXANDRA DR,,,,,,,b910364771b7140b,America/New_York
-73.5946614,41.1548707,27,PARSONAGE RD,,,,,,,6db6b2e4b65b5de2,America/New_York
-73.5773757,41.1548899,60,RIDGE BROOK DR,,,,,,,233e49b830d79aa8,America/New_York
-73.6077004,41.1545752,221,S LAKE DR,,,,,,,d8106a970c031e09,America/New_York
-73.5429514,41.1549172,235,WOODBINE RD,,,,,,,66466d9b2b89fa20,America/New_York
-73.5373306,41.1549839,41,THORNWOOD RD,,,,,,,8a59986190817511,America/New_York
-73.5652708,41.1550736,280,WEST TRL,,,,,,,495c43f518863c19,America/New_York
-73.6016877,41.1542407,124,N LAKE DR,,,,,,,ebe3640ecaf56f7d,America/New_York
-73.5638654,41.1548717,265,WEST TRL,,,,,,,b19f90345251e1d8,America/New_York
-73.5386949,41.1550077,60,THORNWOOD RD,,,,,,,500974974b2f2add,America/New_York
-73.5400257,41.1549738,18,BRUSHWOOD RD,,,,,,,77d92769215e6e9b,America/New_York
-73.5622493,41.154931,7,ELIOT LN,,,,,,,9aec8103bae5df21,America/New_York
-73.579331,41.1548221,82,RIDGE BROOK DR,,,,,,,ef4fbf764e9ee884,America/New_York
-73.6023913,41.1544688,138,N LAKE DR,,,,,,,8f1bbadd795b0e45,America/New_York
-73.5779005,41.1547406,76,RIDGE BROOK DR,,,,,,,12f6668baf5c468f,America/New_York
-73.5831358,41.1545875,124,MILL SPRING LN,,,,,,,979fa60df6c5bb5b,America/New_York
-73.5889305,41.1544715,87,HEMING WAY,,,,,,,7d5ed7d135f8fa14,America/New_York
-73.5715058,41.1543753,369,BRIAR BRAE RD,,,,,,,dac3ab51c33d8d5f,America/New_York
-73.5934483,41.1547196,424,OLD LONG RIDGE RD,,,,,,,2c29d19d3a892c19,America/New_York
-73.5733108,41.1547281,661,ROCK RIMMON RD,,,,,,,b7e2124049138902,America/New_York
-73.6036453,41.1541824,168,N LAKE DR,,,,,,,0031ca57dcd3945d,America/New_York
-73.5704277,41.1546589,353,BRIAR BRAE RD,,,,,,,84b3221b8e933a1b,America/New_York
-73.5897228,41.1544751,88,HEMING WAY,,,,,,,d10183810c8351b1,America/New_York
-73.5650177,41.1547148,262,WEST TRL,,,,,,,fb7da9ec2d9d7a29,America/New_York
-73.5856437,41.1544203,150,BLACKBERRY DR,,,,,,,8246e47432431e19,America/New_York
-73.559301,41.1547477,9,ALEXANDRA DR,,,,,,,7abd4116ce4103b8,America/New_York
-73.5690616,41.1545983,275,BRIAR BRAE RD,,,,,,,8a896d275efb55a0,America/New_York
-73.5369353,41.1546985,29,THORNWOOD RD,,,,,,,f43dae86fc824ec2,America/New_York
-73.5751766,41.1545554,674,ROCK RIMMON RD,,,,,,,3ab73fdf6cc2129e,America/New_York
-73.5851397,41.1540872,146,BLACKBERRY DR,,,,,,,003daf01994cbf6c,America/New_York
-73.5444979,41.1546969,250,WOODBINE RD,,,,,,,b05a385dcc35102e,America/New_York
-73.5909508,41.1543771,30,STONE FENCE LN,,,,,,,b4483f8fd727f0c1,America/New_York
-73.5846677,41.1544733,142,BLACKBERRY DR,,,,,,,f9b6e63ab9f82777,America/New_York
-73.5864828,41.154409,170,BLACKBERRY DR,,,,,,,c350508eabbc6693,America/New_York
-73.5969882,41.1542388,85,PARSONAGE RD,,,,,,,a088433c71b73317,America/New_York
-73.5903234,41.1542666,34,STONE FENCE LN,,,,,,,14bdb9bd166c525c,America/New_York
-73.5838813,41.1544415,126,MILL SPRING LN,,,,,,,e8210ac385923ade,America/New_York
-73.5735818,41.1540733,646,ROCK RIMMON RD,,,,,,,7d51f78dc542a8e7,America/New_York
-73.5757928,41.1543792,358,MILL RD,,,,,,,31e44d639f98631a,America/New_York
-73.6091406,41.1540789,236,S LAKE DR,,,,,,,83b441006625cc9f,America/New_York
-73.5630723,41.1544486,25,ELIOT LN,,,,,,,c625f7d5b8c51c77,America/New_York
-73.5380718,41.1545436,42,THORNWOOD RD,,,,,,,95178525ad7e5f3d,America/New_York
-73.5616064,41.1544703,68,ALEXANDRA DR,,,,,,,5ac97360373307fc,America/New_York
-73.5763682,41.1532953,344,MILL RD,,,,,,,470ba5a44918ab14,America/New_York
-73.5395298,41.1545247,20,BRUSHWOOD RD,,,,,,,f0a12e9a16ae9e1e,America/New_York
-73.5765925,41.1542396,50,RIDGE BROOK DR,,,,,,,8dcd1481c3d4b13e,America/New_York
-73.5960952,41.154061,2732,LONG RIDGE RD,,,,,,,3f53cb35c95ef3b7,America/New_York
-73.593079,41.1539908,402,OLD LONG RIDGE RD,,,,,,,15531db7f70d82ee,America/New_York
-73.5781932,41.154348,332,MILL RD,,,,,,,20615f38262d6ad0,America/New_York
-73.5979182,41.1541718,2704,LONG RIDGE RD,,,,,,,51766045d9981f63,America/New_York
-73.5730228,41.1543503,651,ROCK RIMMON RD,,,,,,,f340668f165aceef,America/New_York
-73.5740257,41.1538846,396,MILL RD,,,,,,,ed8cfddd98f6a0ed,America/New_York
-73.5354607,41.1541945,1,THORNWOOD RD,,,,,,,a8cb9173e74cbc50,America/New_York
-73.5366071,41.154373,19,THORNWOOD RD,,,,,,,4284e53244ad2e72,America/New_York
-73.5872429,41.1538102,205,BLACKBERRY DR,,,,,,,9ffaf938965b0ffa,America/New_York
-73.5638565,41.154315,249,WEST TRL,,,,,,,44370cacf40bd5c2,America/New_York
-73.606299,41.1534859,161,S LAKE DR,,,,,,,64266dd7d3c2fe87,America/New_York
-73.5652129,41.1542518,252,WEST TRL,,,,,,,07bbd43446dbeaf5,America/New_York
-73.5620357,41.1541716,18,ELIOT LN,,,,,,,c07284c11c9521f1,America/New_York
-73.5744281,41.1536321,386,MILL RD,,,,,,,635b38fcba3096ef,America/New_York
-73.5704306,41.1542415,349,BRIAR BRAE RD,,,,,,,0919d30d859d4c26,America/New_York
-73.5391979,41.154168,141,WOODBINE RD,,,,,,,2d8b1de81bf0b425,America/New_York
-73.574889,41.1535084,374,MILL RD,,,,,,,221ce66d09583273,America/New_York
-73.5418267,41.15441,208,WOODBINE RD,,,,,,,bdd2ea713ef7fd94,America/New_York
-73.5586693,41.154091,2,ALEXANDRA DR,,,,,,,b4015f2b78178789,America/New_York
-73.5830877,41.1539298,102,MILL SPRING LN,,,,,,,2b2589739c43f0d1,America/New_York
-73.5939788,41.1539211,2705,LONG RIDGE RD,,,,,,,fc4d50281195412e,America/New_York
-73.5619007,41.1534298,62,ALEXANDRA DR,,,,,,,a5bab4fdcebdbaba,America/New_York
-73.5423707,41.1541009,210,WOODBINE RD,,,,,,,dc5923ad51270f54,America/New_York
-73.5431468,41.1539016,226,WOODBINE RD,,,,,,,45e6d57c10cefdd2,America/New_York
-73.5591938,41.1541249,10,ALEXANDRA DR,,,,,,,2a699739803ea82e,America/New_York
-73.5608549,41.1541324,54,ALEXANDRA DR,,,,,,,d7456320dc705753,America/New_York
-73.5754946,41.1535919,362,MILL RD,,,,,,,030ca4009e3489d1,America/New_York
-73.5412511,41.1542327,170,WOODBINE RD,,,,,,,f4738729b4f0c167,America/New_York
-73.5888695,41.1539187,71,HEMING WAY,,,,,,,c4674df28f9bf519,America/New_York
-73.5712245,41.1537659,367,BRIAR BRAE RD,,,,,,,bb835f878af85a33,America/New_York
-73.5838542,41.1538527,128,MILL SPRING LN,,,,,,,0bd4f10992247f8b,America/New_York
-73.5597829,41.1539984,30,ALEXANDRA DR,,,,,,,6c4aab49f114ea7c,America/New_York
-73.5603097,41.1539846,44,ALEXANDRA DR,,,,,,,b9daef34c6ecb59f,America/New_York
-73.5607332,41.1536153,50,ALEXANDRA DR,,,,,,,fdf4c21db7bea858,America/New_York
-73.5378538,41.1541358,30,THORNWOOD RD,,,,,,,dd76871249e79387,America/New_York
-73.5781132,41.1539257,330,MILL RD,,,,,,,36e5a4d965af555f,America/New_York
-73.589942,41.1537993,52,HEMING WAY,,,,,,,c04ef472de2ed026,America/New_York
-73.566207,41.1535853,25,MOUNTAIN TRL,,,,,,,4f7a1513eaf2faf0,America/New_York
-73.600215,41.1537075,3,S LAKE DR,,,,,,,63193a69ab23235e,America/New_York
-73.5362835,41.1539977,7,THORNWOOD RD,,,,,,,1ceda480e8e2ffb3,America/New_York
-73.5660024,41.1539383,21,MOUNTAIN TRL,,,,,,,0e8f8b4de3d35b26,America/New_York
-73.5760512,41.1538394,352,MILL RD,,,,,,,5d5ddfd7c03df1d1,America/New_York
-73.5651988,41.1539347,236,WEST TRL,,,,,,,4372980b947f5195,America/New_York
-73.5630882,41.153944,35,ELIOT LN,,,,,,,f7203e68bb4092b4,America/New_York
-73.5856252,41.1536283,224,BLACKBERRY DR,,,,,,,c868c6e82987257f,America/New_York
-73.5907574,41.1536178,32,HEMING WAY,,,,,,,24dfd85b388ce30b,America/New_York
-73.539032,41.1537981,135,WOODBINE RD,,,,,,,018a4996d755e1e4,America/New_York
-73.5961962,41.1534705,2710,LONG RIDGE RD,,,,,,,588c8e9dd583cb88,America/New_York
-73.5779931,41.1536396,328,MILL RD,,,,,,,75f37d6eed744164,America/New_York
-73.5624665,41.153565,26,ELIOT LN,,,,,,,7b7f45dd4be37b63,America/New_York
-73.5866447,41.1537123,208,BLACKBERRY DR,,,,,,,08aebb0133d75d3a,America/New_York
-73.5640547,41.1539111,239,WEST TRL,,,,,,,5a167a062cccceba,America/New_York
-73.5629948,41.1536388,30,ELIOT LN,,,,,,,1a280bfcb651fa0c,America/New_York
-73.5399594,41.1535787,140,WOODBINE RD,,,,,,,8d95f8863fbc0710,America/New_York
-73.5346123,41.1539692,92,MATHER RD,,,,,,,1cd23921ed59c19b,America/New_York
-73.5921467,41.1536166,379,OLD LONG RIDGE RD,,,,,,,964baae9de3c07f2,America/New_York
-73.6023295,41.1533957,29,S LAKE DR,,,,,,,81cd51fb10f09bce,America/New_York
-73.5928251,41.1537399,392,OLD LONG RIDGE RD,,,,,,,fb23e97df3c97c51,America/New_York
-73.5772723,41.1534991,326,MILL RD,,,,,,,79842fee258c978c,America/New_York
-73.5403634,41.1534205,212,PINEWOOD RD,,,,,,,befff50fa64752d1,America/New_York
-73.5702904,41.1535032,345,BRIAR BRAE RD,,,,,,,fbc8a74a3b4747ab,America/New_York
-73.5888214,41.1534506,63,HEMING WAY,,,,,,,58578a6cf0a8a700,America/New_York
-73.5437432,41.1536225,309,CEDARWOOD RD,,,,,,,548f17c9d95129ad,America/New_York
-73.5721219,41.1533908,610,ROCK RIMMON RD,,,,,,,83b4c824d0e0fb88,America/New_York
-73.5980291,41.1531446,2700,LONG RIDGE RD,,,,,,,47e6249b6838790b,America/New_York
-73.6032969,41.1533431,39,LISA LN,,,,,,,801d2885102d9e06,America/New_York
-73.5892295,41.1533377,61,HEMING WAY,,,,,,,27787986bace6f47,America/New_York
-73.5732023,41.1533169,401,MILL RD,,,,,,,856fd6d1d30f8fa8,America/New_York
-73.5373793,41.1537295,14,THORNWOOD RD,,,,,,,1b95feeb11bea7ca,America/New_York
-73.5386132,41.1535131,111,WOODBINE RD,,,,,,,3756bc65b158b351,America/New_York
-73.5353767,41.1535174,56,MATHER RD,,,,,,,3c9678dd168f6f02,America/New_York
-73.5408802,41.1534621,200,PINEWOOD RD,,,,,,,1d03a79e2b35d3cc,America/New_York
-73.5926818,41.1534667,380,OLD LONG RIDGE RD,,,,,,,819aaee5ccf677fd,America/New_York
-73.5937628,41.1534214,2691,LONG RIDGE RD,,,,,,,2aec1ce2b6897acd,America/New_York
-73.5651156,41.1534531,220,WEST TRL,,,,,,,262cbcd5f61cec30,America/New_York
-73.5795534,41.1528782,260,MILL RD,,,,,,,64d27be665f2cf12,America/New_York
-73.5790693,41.1530603,264,MILL RD,,,,,,,e7f27a8586fd18d6,America/New_York
-73.5582577,41.1536526,2538,HIGH RIDGE RD,,,,,,,9cf9db2ecfcd43c8,America/New_York
-73.5642046,41.1535008,229,WEST TRL,,,,,,,cde2e6c223d94696,America/New_York
-73.5413307,41.1531624,190,PINEWOOD RD,,,,,,,8d3ea6ab380e39b1,America/New_York
-73.5670585,41.1534224,36,MOUNTAIN TRL,,,,,,,94044150e5723fae,America/New_York
-73.5874241,41.1531857,225,BLACKBERRY DR,,,,,,,346c16d917682c08,America/New_York
-73.5856545,41.1530955,228,BLACKBERRY DR,,,,,,,fefa5f57e495bd98,America/New_York
-73.5785144,41.1532166,272,MILL RD,,,,,,,fce642b553c31721,America/New_York
-73.5780541,41.1530336,306,MILL RD,,,,,,,90351b8cd7fd409d,America/New_York
-73.5851883,41.1531071,45,MILL VALLEY LN,,,,,,,98ed122791adf638,America/New_York
-73.5937861,41.1522279,37,ERSKINE RD,,,,,,,299bf177e59e0096,America/New_York
-73.5837729,41.1528829,15,MILL VALLEY LN,,,,,,,4bf148d8cd81e7cb,America/New_York
-73.5776115,41.1531419,310,MILL RD,,,,,,,3c695ccd529522bb,America/New_York
-73.5737911,41.1532672,395,MILL RD,,,,,,,5991c0815d5f6607,America/New_York
-73.5896996,41.1530908,49,HEMING WAY,,,,,,,3a0a517d9e3ca3de,America/New_York
-73.5691338,41.1531039,3,BRIAR WOODS TRL,,,,,,,5506f63eebf813a8,America/New_York
-73.5417843,41.1530263,176,PINEWOOD RD,,,,,,,6a382a0a162eaea6,America/New_York
-73.583093,41.1531578,78,MILL SPRING LN,,,,,,,87c3ca4378933419,America/New_York
-73.5996403,41.1531466,2,S LAKE DR,,,,,,,5f0d6722e980bf96,America/New_York
-73.594557,41.1520663,55,ERSKINE RD,,,,,,,9425e2868cc17b38,America/New_York
-73.593498,41.1531812,2683,LONG RIDGE RD,,,,,,,33c35de67ae6aeb6,America/New_York
-73.538491,41.1530465,105,WOODBINE RD,,,,,,,3cb0b06fbab723a6,America/New_York
-73.5712493,41.1532387,379,BRIAR BRAE RD,,,,,,,3d85600c65ff9ce6,America/New_York
-73.5361645,41.1533829,44,MATHER RD,,,,,,,138fc3407dcbc920,America/New_York
-73.5580456,41.1534012,2530,HIGH RIDGE RD,,,,,,,b4bf3ff97cadc427,America/New_York
-73.5341466,41.15337,91,MATHER RD,,,,,,,c2c275145f9e58ec,America/New_York
-73.596489,41.1519752,111,ERSKINE RD,,,,,,,e73ef73a1c6f0482,America/New_York
-73.5451035,41.1528823,276,CEDARWOOD RD,,,,,,,53dd676d372433ba,America/New_York
-73.5427995,41.1529107,156,PINEWOOD RD,,,,,,,5af6692b0dfafb6c,America/New_York
-73.5925527,41.1530533,366,OLD LONG RIDGE RD,,,,,,,6e5f4d8e7ca63694,America/New_York
-73.6014273,41.1528403,4,S LAKE DR,,,,,,,9199d9fb74aa3c19,America/New_York
-73.5918049,41.1529553,353,OLD LONG RIDGE RD,,,,,,,314b3381afd5d54d,America/New_York
-73.5585399,41.1529492,41,WEST TRL,,,,,,,e957b112be7bff3d,America/New_York
-73.5865309,41.1528117,242,BLACKBERRY DR,,,,,,,654fb30f6815fc32,America/New_York
-73.5745129,41.1522254,381,MILL RD,,,,,,,b7f3f4af8f165a9f,America/New_York
-73.5596601,41.1531646,61,WEST TRL,,,,,,,ae928a9f5cb550b6,America/New_York
-73.5368951,41.1531882,30,MATHER RD,,,,,,,ee710454128f4354,America/New_York
-73.5603331,41.1527031,73,WEST TRL,,,,,,,c8f721f10f2ac7aa,America/New_York
-73.5977902,41.1516186,127,ERSKINE RD,,,,,,,bed82020229e9b79,America/New_York
-73.5642678,41.1530977,213,WEST TRL,,,,,,,7b98a3a25a45890c,America/New_York
-73.5666791,41.1530059,26,MOUNTAIN TRL,,,,,,,760125c122f3c9b7,America/New_York
-73.5744738,41.1529617,379,MILL RD,,,,,,,6061c46752a2d31f,America/New_York
